street,city,state,zipcode,latitude,longitude,license,expiration
43246 Deer Canyon Rd,Big Bear Lake,CA,92315,34.2326818,-116.8586447,BCA-103850,8/12/2021
42350 Heavenly Valley Rd,Big Bear Lake,CA,92315,34.2401209,-116.8782425,BCA-104593,12/3/2021
744 Summit Blvd,Big Bear Lake,CA,92315,34.2387847,-116.8888031,BCA-105028,2/13/2022
42739 Haupstrasse Dr,Big Bear Lake,CA,92315,34.2441754,-116.8697601,BCA-104984,2/20/2022
168 Teakwood Dr,Big Bear Lake,CA,92315,34.2491679,-116.8698455,BCA-105231,3/6/2022
42456 Avalon Rd,Big Bear Lake,CA,92315,34.2452432,-116.8759883,BCA-104105,10/28/2021
1298 Balsam Dr,Big Bear Lake,CA,92315,34.2286909,-116.8642776,BCA-103404,10/3/2021
803 Peninsula Ln,Big Bear Lake,CA,92315,34.2385682,-116.9524259,BCA-104279,11/10/2021
41023 Pennsylvania Ave,Big Bear Lake,CA,92315,34.2390265,-116.9072061,BCA-102500,5/28/2021
41058 Pennsylvania Ave,Big Bear Lake,CA,92315,34.2393959,-116.9063665,BCA-102835,6/19/2021
42646 Peregrine Ave,Big Bear Lake,CA,92315,34.2389858,-116.871742,BCA-105230,3/9/2022
1285 Pigeon Rd,Big Bear Lake,CA,92315,34.2290556,-116.8626441,BCA-104174,12/20/2021
791 Pine Knot Ave,Big Bear Lake,CA,92315,34.2381673,-116.9110592,BCA-104050,10/23/2021
42752 La Placida Ave,Big Bear Lake,CA,92315,34.2383261,-116.8694544,BCA-104316,11/13/2021
43121 Plymouth Rd,Big Bear,CA,92314,34.237346,-116.8615627,BCA-104152,8/26/2021
562 Ponderosa Dr,Boulder,CO,80303,39.9821398,-105.1724522,BCA-104205,11/30/2021
179 Finch Dr,Big Bear Lake,CA,92315,34.25227539999999,-116.9024214,BCA-102966,8/8/2021
231 Finch Dr,Big Bear Lake,CA,92315,34.248463,-116.899234,BCA-104374,12/5/2021
248 Finch Dr,Big Bear Lake,CA,92315,34.2479995,-116.8993849,BCA-104136,12/21/2021
39656 Forest Rd,Big Bear Lake,CA,92315,34.248565,-116.936771,BCA-103996,11/7/2021
39736 Forest Rd,Big Bear Lake,CA,92315,34.2481173,-116.9349809,BCA-103347,8/24/2021
39991 Forest Rd,Big Bear Lake,CA,92315,34.2453166,-116.9298402,BCA-102620,7/18/2021
40078 Forest Rd,Big Bear Lake,CA,92315,34.2418004,-116.9271721,BCA-102833,6/29/2021
40080 Francis Way,Big Bear Lake,CA,92315,34.2497172,-116.9274021,BCA-105221,2/18/2022
41821 Garstin Dr,Big Bear Lake,CA,92315,34.2465653,-116.890275,BCA-104423,11/18/2021
41732 Tanager Dr,Big Bear Lake,CA,92315,34.2468105,-116.8915403,BCA-102968,8/10/2021
481 Tavern Ln,Big Bear Lake,CA,92315,34.244062,-116.933156,BCA-105008,3/11/2022
730 Tayles Point Rd,Big Bear Lake,CA,92315,34.2397094,-116.950494,BCA-102906,7/13/2021
737 Tehama Dr,Big Bear Lake,CA,92315,34.2390598,-116.864593,BCA-104341,11/16/2021
738 Tehama Dr,Big Bear,CA,92314,34.2386304,-116.8648298,BCA-104747,1/10/2022
744 Tehama Dr,Big Bear Lake,CA,92315,34.2383841,-116.8645077,BCA-103517,10/17/2021
783 Tehama Dr,Big Bear Lake,CA,92315,34.2381532,-116.8632653,BCA-103704,11/17/2021
477 Temple Ln,Big Bear Lake,CA,92315,34.2443076,-116.9242279,BCA-103529,10/1/2021
560 Temple Ln,Big Bear Lake,CA,92315,34.2424544,-116.9237219,BCA-102810,6/22/2021
683 Temple Ln,Big Bear Lake,CA,92315,34.2403008,-116.9231239,BCA-103738,10/19/2021
41181 Terrapin Rd,Big Bear Lake,CA,92315,34.236773,-116.9036176,BCA-104408,12/2/2021
1123 Teton Dr,Big Bear Lake,CA,92315,34.2317885,-116.8507456,BCA-104972,2/16/2022
1260 San Pasqual Dr,Big Bear Lake,CA,92315,34.22948700000001,-116.8488388,BCA-105389,4/19/2022
43550 San Pasqual Dr,Big Bear Lake,CA,92315,34.2293625,-116.8516344,BCA-104070,10/26/2021
43181 Sand Canyon Rd,Big Bear Lake,CA,92315,34.2323328,-116.8602742,BCA-103824,10/7/2021
43413 Sand Canyon Rd,Big Bear Lake,CA,92315,34.2332864,-116.8550283,BCA-103299,8/18/2021
43663 Sand Canyon Rd,Big Bear Lake,CA,92315,34.230161,-116.849421,BCA-104824,1/10/2022
43692 Sand Canyon Rd,Big Bear Lake,CA,92315,34.2303615,-116.8486317,BCA-102669,5/26/2021
43664 Sand Canyon Rd,Big Bear Lake,CA,92315,34.230596,-116.8492184,BCA-103126,7/30/2021
381 Santa Clara Blvd,Big Bear Lake,CA,92315,34.2452813,-116.8752291,BCA-104721,1/7/2022
432 Santa Clara Blvd,Big Bear Lake,CA,92315,34.2443534,-116.8759193,BCA-105138,2/5/2022
428 Shady Ln,Big Bear Lake,CA,92315,34.2448947,-116.9309443,BCA-103874,10/30/2021
470 Edgemoor Rd,Big Bear Lake,CA,92315,34.244012,-116.9319316,BCA-102654,6/26/2021
735 Edgemoor Rd,Big Bear Lake,CA,92315,34.2393505,-116.9304268,BCA-104534,11/30/2021
209 Elgin Rd,Fawnskin,CA,92333,34.2490008,-116.9372464,BCA-104158,11/22/2021
40171 Esterly Ln,Big Bear Lake,CA,92315,34.24069679999999,-116.9256655,BCA-104065,12/4/2021
40173 Esterly Ln,Big Bear Lake,CA,92315,34.2407608,-116.925608,BCA-104514,11/18/2021
145 Finch Dr,Big Bear Lake,CA,92315,34.2516694,-116.9016623,BCA-104246,10/30/2021
188 Eureka Dr,Big Bear Lake,CA,92315,34.2490092,-116.8992008,BCA-102771,6/29/2021
220 Eureka Dr,Big Bear Lake,CA,92373,34.2485316,-116.8986885,BCA-104322,10/8/2021
1322 Siskiyou Dr,Big Bear Lake,CA,92315,34.2282624,-116.8573751,BCA-104440,11/28/2021
42327 Snowcrest Dr,Big Bear Lake,CA,92315,34.2470929,-116.8788182,BCA-103246,8/14/2021
42118 Snowmass Ln,Big Bear Lake,CA,92315,34.2432619,-116.8832813,BCA-105442,3/16/2022
42648 Sonoma Dr,Big Bear Lake,CA,92315,34.2417365,-116.8718586,BCA-103101,8/4/2021
40355 Cliff Ln,Big Bear Lake,CA,92315,34.2408547,-116.9215929,BCA-103944,10/16/2021
751 St Moritz Dr,Big Bear Lake,CA,92315,34.2386186,-116.8910925,BCA-104579,11/17/2021
664 St Moritz Dr,Big Bear Lake,CA,92315,34.2402849,-116.8907811,BCA-103322,8/20/2021
371 Starlight Cir,Big Bear Lake,CA,92315,34.2544166,-116.8720082,BCA-102597,5/28/2021
440 Starlight Cir,Big Bear Lake,CA,92315,34.2570174,-116.8738717,BCA-104359,12/19/2021
160 Starvation Flats Rd,Big Bear Lake,CA,92315,34.2517112,-116.8795544,BCA-104189,11/24/2021
39122 Starview Ln,Big Bear Lake,CA,92315,34.2423619,-116.9484701,BCA-102877,7/6/2021
695 Cove Dr,Big Bear Lake,CA,92315,34.2407788,-116.9594173,BCA-103534,9/15/2021
791 Cove Dr,Big Bear Lake,CA,92315,34.2396007,-116.9560596,BCA-104889,12/11/2021
447 Crane Dr,Big Bear Lake,CA,92315,34.24447809999999,-116.8940018,BCA-103755,9/30/2021
268 Crater Lake Rd,Big Bear Lake,CA,92315,34.2474583,-116.874792,BCA-102615,7/6/2021
797 Crestwood Dr,Big Bear Lake,CA,92315,34.2378977,-116.8855359,BCA-103740,11/13/2021
43354 Deer Canyon Rd,Big Bear Lake,CA,92315,34.2314553,-116.8561327,BCA-104268,11/30/2021
43272 Deer Canyon Rd,Big Bear Lake,CA,92315,34.232413,-116.8578813,BCA-104396,12/18/2021
316 Vista Ln,Edmond,OK,73034,35.6514615,-97.45116089999999,BCA-103895,10/18/2021
523 Vista Blvd,Sparks,NV,89434,39.5364934,-119.7044629,BCA-104594,1/7/2022
505 Wanita Ln,Big Bear Lake,CA,92315,34.2434698,-116.9243659,BCA-102480,6/6/2021
530 Wanita Ln,Big Bear Lake,CA,92315,34.24306850000001,-116.924872,BCA-103860,10/12/2021
38822 Waterview Dr,Big Bear Lake,CA,92315,34.2449588,-116.9546798,BCA-103245,9/27/2021
39080 Waterview Dr,Big Bear Lake,CA,92315,34.2448489,-116.9495281,BCA-102824,8/11/2021
508 Waynoka Ln,Big Bear Lake,CA,92315,34.2435496,-116.925562,BCA-103537,10/10/2021
42574 Willow Ave,Big Bear Lake,CA,92315,34.2364044,-116.8732505,BCA-103437,9/1/2021
41593 Brownie Ln,Big Bear Lake,CA,92315,34.2421234,-116.8946175,BCA-105267,3/27/2022
42141 Brownie Ln,Big Bear Lake,CA,92315,34.2437422,-116.8822691,BCA-104773,12/1/2021
915 Cameron Dr,Kinston,NC,28501,35.2806901,-77.5932277,BCA-105323,3/1/2022
930 Cameron Dr,Big Bear Lake,CA,92315,34.2358864,-116.9130029,BCA-102736,6/18/2021
1024 Cameron Dr,Big Bear Lake,CA,92315,34.2338238,-116.9123588,BCA-103467,10/3/2021
43731 Canyon Crest Dr,Big Bear,CA,92314,34.2319556,-116.8478494,BCA-104462,1/7/2022
760 Bluejay Rd #31,Big Bear Lake,CA,92315,34.2390963,-116.9483029,BCA-105502,5/14/2022
760 Bluejay Rd #33,Big Bear Lake,CA,92315,34.2389854,-116.9484958,BCA-103122,7/15/2021
813 Boulder Rd,Big Bear Lake,CA,92315,34.2383831,-116.9539736,BCA-104055,11/5/2021
43241 Bow Canyon Rd,Big Bear Lake,CA,92315,34.233273,-116.8588477,BCA-103490,10/7/2021
1218 Bow Canyon Ct,Big Bear Lake,CA,92315,34.2304343,-116.8534982,BCA-103321,8/20/2021
42558 Cedar Ave,Big Bear Lake,CA,92315,34.237072,-116.8736647,BCA-102830,6/17/2021
42575 Cedar Ave,Big Bear Lake,CA,92315,34.2366332,-116.873262,BCA-104019,11/15/2021
697 Chipmunk Ln,Big Bear Lake,CA,92315,34.2404912,-116.9432723,BCA-103084,8/6/2021
451 Cienega Rd,Big Bear Lake,CA,92315,34.2445538,-116.9434563,BCA-103727,10/1/2021
571 Cienega Rd,Big Bear Lake,CA,92315,34.2426888,-116.9434049,BCA-103030,7/18/2021
1177 Bear Meadows Ln,Big Bear Lake,CA,92315,34.2311,-116.862007,BCA-104141,11/7/2021
39049 Big Bear Blvd,Big Bear Lake,CA,92315,34.2378967,-116.9500913,BCA-103214,9/28/2021
39217 Big Bear Blvd,Big Bear Lake,CA,92315,34.238345,-116.946487,BCA-105127,2/4/2022
40161 Big Bear Blvd,Big Bear Lake,CA,92315,34.2393963,-116.92593,BCA-103564,10/14/2021
41935 Switzerland Dr # 122,Big Bear Lake,CA,92315,34.2360952,-116.8870906,BCA-104025,11/2/2021
41935 Switzerland Dr Apt 22,Big Bear Lake,CA,92315,34.2364979,-116.887335,BCA-102107,5/30/2021
41935 Switzerland Dr APT 12,Big Bear Lake,CA,92315,34.2369118,-116.8867496,BCA-103682,11/16/2021
1032 Sylvan Glen,Big Bear Lake,CA,92315,34.233421,-116.866059,BCA-103447,8/13/2021
654 Cienega Rd,Big Bear Lake,CA,92315,34.2405085,-116.9428583,BCA-104823,1/12/2022
663 Cienega Rd Unit D,Big Bear Lake,CA,92315,34.240455,-116.941178,BCA-103842,10/7/2021
749 Cienega Rd Unit B,Big Bear Lake,CA,92315,34.239429,-116.9412944,BCA-104127,11/14/2021
793 Cienega Rd Unit B,Big Bear Lake,CA,92315,34.238772,-116.941297,BCA-103295,8/18/2021
43008 Clover Dr,Big Bear Lake,CA,92315,34.2261805,-116.8636777,BCA-103973,11/10/2021
1125 Club View Dr,Big Bear Lake,CA,92315,34.2318343,-116.8635874,BCA-103921,10/15/2021
981 Colusa Ln,Big Bear Lake,CA,92315,34.2345375,-116.8512548,BCA-105391,3/3/2022
43645 Colusa Dr,Big Bear Lake,CA,92315,34.2331166,-116.8501043,BCA-104971,2/14/2022
39597 Lake Dr,Big Bear Lake,CA,92315,34.24761,-116.938434,BCA-104339,11/11/2021
39609 Lake Dr,Big Bear Lake,CA,92315,34.2473518,-116.9378789,BCA-102904,8/3/2021
478 Lakeview Ct,Big Bear Lake,CA,92315,34.2442146,-116.9206167,BCA-103810,10/6/2021
39880 Lakeview Dr,Big Bear Lake,CA,92315,34.2481604,-116.9319787,BCA-102409,7/29/2021
39908 Lakeview Dr,Big Bear Lake,CA,92315,34.2485114,-116.9313123,BCA-104751,1/15/2022
40153 Lakeview Dr,Big Bear Lake,CA,92315,34.2472112,-116.9262521,BCA-103965,7/25/2021
39802 Lakeview Dr #17,Big Bear Lake,CA,92315,34.249065,-116.933749,BCA-105278,2/26/2022
539 Lakewood Ln Unit A,Big Bear Lake,CA,92315,34.2429628,-116.9265971,BCA-105124,3/4/2022
636 Lakewood Ln,Big Bear Lake,CA,92315,34.2411626,-116.9268041,BCA-105154,3/12/2022
41671 Mcwhinney Ln,Big Bear Lake,CA,92315,34.24133450000001,-116.8929896,BCA-104883,2/13/2022
665 Metcalf Ln,Big Bear Lake,CA,92315,34.24093939999999,-116.9342419,BCA-105201,2/11/2022
39383 Moab Ln,Big Bear Lake,CA,92315,34.237416,-116.942905,BCA-104308,11/12/2021
741 Jeffries Rd,Big Bear Lake,CA,92315,34.2391401,-116.9017773,BCA-102512,7/18/2021
892 Jeffries Rd,Big Bear Lake,CA,92315,34.2364698,-116.9025134,BCA-103852,10/9/2021
42401 Juniper Dr,Big Bear Lake,CA,92315,34.2503163,-116.8769316,BCA-104096,10/27/2021
42527 Juniper Dr,Big Bear Lake,CA,92315,34.2503492,-116.8744009,BCA-103778,11/14/2021
42673 Juniper Dr,Big Bear Lake,CA,92315,34.2498462,-116.87141,BCA-104759,1/29/2022
945 Knickerbocker Rd,Big Bear Lake,CA,92315,34.235363,-116.909986,BCA-102785,8/23/2021
458 Knight Ave,Big Bear Lake,CA,92315,34.2443693,-116.9038476,BCA-103566,9/15/2021
771 Knight Ave,Big Bear Lake,CA,92315,34.2386886,-116.9040317,BCA-103017,7/21/2021
222 Knoll Rd,Big Bear Lake,CA,92315,34.2488016,-116.9365564,BCA-104985,1/26/2022
268 Oriole Dr,Big Bear Lake,CA,92315,34.247757,-116.8976826,BCA-104373,12/5/2021
387 Oriole Dr,Big Bear Lake,CA,92315,34.2455845,-116.8969924,BCA-105125,3/2/2022
404 Oriole Dr,Big Bear Lake,CA,92315,34.2452529,-116.8975445,BCA-104225,11/5/2021
420 Oriole Dr SE,Marietta,GA,30067,33.939984,-84.49464619999999,BCA-105152,3/4/2022
41744 Park Ave,Big Bear Lake,CA,92315,34.2450968,-116.8913793,BCA-104376,12/5/2021
39309 Peak Ln,Big Bear Lake,CA,92315,34.2405816,-116.9444223,BCA-104584,11/24/2021
685 Georgia St,Big Bear Lake,CA,92315,34.2401536,-116.900213,BCA-104008,11/18/2021
369 Gibralter Rd,Big Bear Lake,CA,92315,34.2458364,-116.9222728,BCA-102582,6/25/2021
40307 Gibralter Landing,Big Bear Lake,CA,92315,34.244318,-116.9224798,BCA-104196,11/3/2021
40183 Glen Rd,Big Bear Lake,CA,92315,34.2452872,-116.925194,BCA-103777,9/21/2021
40005 Glenview Rd,Big Bear Lake,CA,92315,34.2418528,-116.9292077,BCA-103747,11/20/2021
785 Golden W Dr,Big Bear,CA,92314,34.2380984,-116.8891248,BCA-104121,11/16/2021
41813 Golden W Pl,Big Bear Lake,CA,92315,34.2384595,-116.8899414,BCA-104524,11/9/2021
646 Golden W Dr,Big Bear Lake,CA,92315,34.2406182,-116.8895389,BCA-105352,5/8/2022
43065 Goldmine Woods Ln,Big Bear Lake,CA,92315,34.23189,-116.862979,BCA-104419,11/18/2021
803 Great Spirits Way,Big Bear Lake,CA,92315,34.238085,-116.907675,BCA-103693,10/10/2021
1380 Primrose Ct,Big Bear Lake,CA,92315,34.2269016,-116.85443,BCA-103231,8/13/2021
43365 Primrose Dr,Big Bear Lake,CA,92315,34.226042,-116.8558566,BCA-104652,1/4/2022
40148 Mill Creek Rd,Big Bear Lake,CA,92315,34.2371985,-116.9263614,BCA-102477,6/4/2021
39016 Robin Rd,Big Bear Lake,CA,92315,34.2434284,-116.9505912,BCA-104836,1/12/2022
39177 Robin Rd,Big Bear Lake,CA,92315,34.2427396,-116.9471707,BCA-104869,1/15/2022
1429 Rockspray Dr,Big Bear Lake,CA,92315,34.2255102,-116.8545221,BCA-103623,9/5/2021
387 Eureka Dr,Big Bear Lake,CA,92315,34.2455763,-116.8980506,BCA-104372,12/11/2021
820 Eureka Dr,Big Bear Lake,CA,92315,34.2377365,-116.8985107,BCA-104083,11/14/2021
902 Eureka St,Eureka,CA,95503,40.7607164,-124.180967,BCA-103903,10/29/2021
41893 Evergreen Dr Unit A,Big Bear Lake,CA,92315,34.239443,-116.8882045,BCA-102363,5/31/2021
41992 Evergreen Dr,Big Bear Lake,CA,92315,34.239804,-116.885924,BCA-105086,1/27/2022
42307 Evergreen Dr,Big Bear Lake,CA,92315,34.240559,-116.8791172,BCA-104354,12/9/2021
42930 Fairy Ave,Big Bear Lake,CA,92315,34.232694,-116.865538,BCA-104410,11/17/2021
462 Fallen Leaf Rd,Big Bear Lake,CA,92315,34.2575807,-116.8762644,BCA-105511,4/19/2022
42946 Fern Ave,Big Bear,CA,92314,34.2320501,-116.8651943,BCA-104546,12/18/2021
43903 Yosemite Dr,Big Bear Lake,CA,92315,34.2293873,-116.8442138,BCA-102845,7/14/2021
861 Thrush Dr #44,Big Bear Lake,CA,92315,34.2362213,-116.8889999,BCA-104856,2/9/2022
41668 Thrush Ct,Big Bear Lake,CA,92315,34.2364587,-116.8931736,BCA-103336,9/28/2021
762 Tomahawk Dr,Big Bear Lake,CA,92315,34.2384642,-116.8877444,BCA-104389,12/28/2021
43399 Shasta Rd,Big Bear Lake,CA,92315,34.2285673,-116.8553964,BCA-102394,5/29/2021
43130 Sheephorn Rd,Big Bear Lake,CA,92315,34.234556,-116.8616087,BCA-105460,3/19/2022
43160 Sheephorn Rd,Big Bear Lake,CA,92315,34.2341702,-116.8611946,BCA-104890,1/12/2022
43310 Sheephorn Rd,Big Bear Lake,CA,92315,34.2353349,-116.8577893,BCA-103575,10/6/2021
593 Silver Tip Dr,Big Bear Lake,CA,92315,34.2413552,-116.8638635,BCA-104528,10/10/2021
718 Silver Tip Dr,Big Bear Lake,CA,92315,34.23909,-116.864234,BCA-103644,9/5/2021
771 Silver Tip Dr,Big Bear Lake,CA,92315,34.2381718,-116.8621609,BCA-104976,2/24/2022
40622 Simonds Dr,Big Bear Lake,CA,92315,34.2444147,-116.9157632,BCA-103840,11/5/2021
592 Douglas St,Big Bear Lake,CA,92315,34.2415333,-116.8706277,BCA-104404,12/6/2021
312 Dove Ct,Big Bear Lake,CA,92315,34.2468714,-116.8923915,BCA-104426,11/14/2021
122 N Eagle Rd,Eagle,ID,83616,43.6963324,-116.3536132,BCA-104191,11/1/2021
42348 Eagle Ridge,Big Bear Lake,CA,92315,34.2572016,-116.878128,BCA-105179,3/21/2022
295 Stony Creek Rd,Big Bear Lake,CA,92315,34.2545039,-116.8668545,BCA-105079,2/6/2022
596 Summit Ave Unit A,St Paul,MN,55102,44.9410007,-93.1253169,BCA-104603,12/14/2021
620 Summit Blvd,Big Bear Lake,CA,92315,34.241062,-116.888773,BCA-103590,10/3/2021
796 Summit Blvd,Big Bear Lake,CA,92315,34.2379219,-116.8888487,BCA-103636,9/18/2021
451 Sunny Ln,Big Bear Lake,CA,92315,34.2444615,-116.9303923,BCA-104913,2/1/2022
42985 Sunset Dr,Big Bear Lake,CA,92315,34.2393399,-116.8645537,BCA-103417,10/1/2021
43058 Sunset Dr,Big Bear Lake,CA,92315,34.239654,-116.862928,BCA-102612,7/5/2021
41516 Swan Dr,Big Bear Lake,CA,92315,34.248215,-116.8965093,BCA-103631,9/2/2021
792 Switzerland Pl,Big Bear Lake,CA,92315,34.2379857,-116.8907121,BCA-105155,3/4/2022
41869 Switzerland Dr #9,Big Bear Lake,CA,92315,34.237342,-116.888733,BCA-103478,10/12/2021
41935 Switzerland Dr Apt 105,Big Bear Lake,CA,92315,34.2360844,-116.8860287,BCA-104649,12/4/2021
41694 Comstock Ln,Big Bear Lake,CA,92315,34.2408921,-116.8924746,BCA-103837,11/2/2021
42753 Conifer Dr,Big Bear Lake,CA,92315,34.24226600000001,-116.8695694,BCA-103862,10/10/2021
842 Conklin Rd,Big Bear Lake,CA,92315,34.2373334,-116.8997069,BCA-104758,1/29/2022
42745 Willow Ave,Big Bear Lake,CA,92315,34.2359604,-116.869531,BCA-103540,9/25/2021
38994 Willow Landing Rd,Big Bear Lake,CA,92315,34.2410945,-116.951276,BCA-102585,6/28/2021
39233 Willow Landing Rd,Big Bear Lake,CA,92315,34.2391619,-116.9461702,BCA-105300,3/1/2022
42045 Winterpark Dr,Big Bear Lake,CA,92315,34.2403157,-116.8848457,BCA-103748,9/30/2021
363 Wren Dr,Big Bear Lake,CA,92315,34.2460138,-116.8960262,BCA-102571,6/13/2021
395 Wren Dr,Big Bear Lake,CA,92315,34.2454098,-116.8960262,BCA-103226,9/1/2021
606 Wren Dr,Big Bear Lake,CA,92315,34.2415858,-116.8965323,BCA-103522,9/21/2021
43827 Yosemite Dr,Big Bear Lake,CA,92315,34.2301439,-116.8459626,BCA-103046,9/14/2021
1301 Lassen Dr,Big Bear,CA,92314,34.2284144,-116.8579274,BCA-104830,11/5/2021
1373 Lassen Dr,Big Bear Lake,CA,92315,34.2275157,-116.8574672,BCA-104536,12/14/2021
40104 Mahanoy Ln,Big Bear Lake,CA,92315,34.2418,-116.9270456,BCA-103676,10/21/2021
40218 Mahanoy Ln,Big Bear Lake,CA,92315,34.2416312,-116.9246075,BCA-105269,4/5/2022
40260 Mahanoy Ln,Big Bear Lake,CA,92315,34.2417224,-116.9237104,BCA-105151,3/4/2022
569 Main St,Big Bear Lake,CA,92315,34.2422623,-116.9057799,BCA-102977,7/9/2021
676 Main St,Warren,RI,02885,41.725555,-71.28133199999999,BCA-103089,6/6/2021
701 Marin Rd,Big Bear Lake,CA,92315,34.23997020000001,-116.9069186,BCA-105232,3/6/2022
41656 Mcwhinney Ln,Big Bear Lake,CA,92315,34.2417014,-116.8933117,BCA-104899,1/20/2022
42624 La Cerena Ave,Big Bear Lake,CA,92315,34.2376901,-116.8722382,BCA-103922,10/15/2021
42707 La Cerena Ave,Big Bear Lake,CA,92315,34.237282,-116.870393,BCA-104535,11/30/2021
42613 La Placida Ave,Big Bear Lake,CA,92315,34.237949,-116.872491,BCA-104239,11/6/2021
42670 La Placida Ave,Big Bear Lake,CA,92315,34.2383257,-116.8712263,BCA-104391,12/18/2021
42714 La Placida Ave,Big Bear Lake,CA,92315,34.2383175,-116.8702596,BCA-103042,8/13/2021
133 Lagunita Ln,Big Bear Lake,CA,92315,34.25054739999999,-116.9302772,BCA-103963,10/7/2021
43025 Monterey St,Big Bear Lake,CA,92315,34.2405013,-116.8635989,BCA-103451,8/16/2021
42638 Moonridge Rd,Big Bear Lake,CA,92315,34.240483,-116.8720082,BCA-103159,9/12/2021
43134 Moonridge Rd,Big Bear Lake,CA,92315,34.2346845,-116.8605503,BCA-105380,3/7/2022
469 Morningstar Pl,Big Bear Lake,CA,92315,34.2578927,-116.8765635,BCA-104181,11/18/2021
43089 Grizzly Ct,Big Bear Lake,CA,92315,34.2390067,-116.8622069,BCA-103472,10/3/2021
40184 Guinan Ln,Big Bear Lake,CA,92315,34.2404508,-116.9253435,BCA-103405,8/28/2021
40217 Guinan Ln,Big Bear Lake,CA,92315,34.24014349999999,-116.924642,BCA-104002,11/21/2021
40241 Guinan Ln,Big Bear Lake,CA,92315,34.2400544,-116.9241244,BCA-104819,2/9/2022
42749 Haupstrasse Dr,Big Bear Lake,CA,92315,34.2441255,-116.8694544,BCA-103586,10/2/2021
42267 Heavenly Valley Rd,Big Bear Lake,CA,92315,34.2394777,-116.8799455,BCA-103957,11/28/2021
42384 Heavenly Valley Rd,Big Bear Lake,CA,92315,34.24018119999999,-116.8776448,BCA-104975,2/21/2022
40085 Highland Ln,Big Bear Lake,CA,92315,34.23895390000001,-116.9276321,BCA-104795,1/7/2022
40010 Hillcrest Dr,Big Bear Lake,CA,92315,34.2389921,-116.9290467,BCA-103396,8/21/2021
789 Iris Dr,Big Bear Lake,CA,92315,34.2384854,-116.9337043,BCA-102657,6/19/2021
40575 Ironwood Dr,Big Bear Lake,CA,92315,34.2366765,-116.9156252,BCA-104766,12/15/2021
40588 Ironwood Dr,Big Bear Lake,CA,92315,34.237469,-116.9163613,BCA-105208,2/16/2022
888 Jay Bird Ln,Big Bear Lake,CA,92315,34.2365963,-116.9303678,BCA-104648,1/30/2022
323 Knight Ave,Big Bear Lake,CA,92315,34.2467633,-116.9033717,BCA-104672,11/23/2021
603 Summit Blvd,Big Bear Lake,CA,92315,34.2414596,-116.8882023,BCA-105134,2/5/2022
429 Wren Dr,Big Bear Lake,CA,92315,34.2447874,-116.8960012,BCA-102584,6/25/2021
43160 Moonridge Rd,Big Bear Lake,CA,92315,34.2319189,-116.8601772,BCA-103775,10/30/2021
699 Conklin Rd,Big Bear Lake,CA,92315,34.2399418,-116.8990628,BCA-103969,11/7/2021
43686 Ridgecrest Dr,Big Bear,CA,92314,34.2256211,-116.8489055,BCA-104079,11/13/2021
42055 Winterpark Dr,Big Bear Lake,CA,92315,34.2404163,-116.8844814,BCA-103878,11/19/2021
266 Eureka Dr,Big Bear Lake,CA,92315,34.2477648,-116.8985452,BCA-104789,1/5/2022
42559 Alta Vista Ave,Big Bear Lake,CA,92315,34.2424764,-116.8738027,BCA-102371,6/18/2021
42598 Alta Vista Ave,Big Bear Lake,CA,92315,34.243002,-116.873035,BCA-104192,11/1/2021
885 Andrew Ln,Big Bear Lake,CA,92315,34.2367346,-116.914015,BCA-103578,9/15/2021
1228 Aspen Dr,Big Bear Lake,CA,92315,34.2279118,-116.8657041,BCA-103355,10/12/2021
39366 Aurora Rd,Big Bear Lake,CA,92315,34.2454818,-116.9427663,BCA-103221,9/7/2021
42325 Avalon Rd,Big Bear Lake,CA,92315,34.2446071,-116.8787721,BCA-105160,3/23/2022
42346 Avalon Rd,Big Bear Lake,CA,92315,34.24510430000001,-116.8785421,BCA-102753,8/17/2021
42356 Avalon Rd,Big Bear Lake,CA,92315,34.2451771,-116.878404,BCA-104825,10/20/2021
42437 Balboa Ln,Big Bear Lake,CA,92315,34.2436858,-116.8767016,BCA-104993,2/17/2022
1247 Balsam Dr,Big Bear Lake,CA,92315,34.2291593,-116.8659227,BCA-103841,10/7/2021
42537 Peregrine Ave,Big Bear Lake,CA,92315,34.2386624,-116.8741363,BCA-103518,10/16/2021
42674 Peregrine Ave,Big Bear Lake,CA,92315,34.2390161,-116.8712259,BCA-104117,11/1/2021
207 Pinecrest Dr,Big Bear Lake,CA,92315,34.2485937,-116.8917473,BCA-105251,3/2/2022
43151 Plymouth Rd,Big Bear Lake,CA,92315,34.2377375,-116.8608839,BCA-103563,9/15/2021
39567 Forest Rd,Big Bear Lake,CA,92315,34.2500807,-116.9389539,BCA-104319,11/20/2021
445 Fox Dr,Big Bear Lake,CA,92315,34.2440436,-116.8737577,BCA-104035,11/6/2021
42385 Fox Farm Rd,Big Bear Lake,CA,92315,34.2489269,-116.8775298,BCA-103884,10/31/2021
42386 Fox Farm Rd,Big Bear Lake,CA,92315,34.2494504,-116.8775298,BCA-103085,8/23/2021
42470 Fox Farm Rd,Big Bear Lake,CA,92315,34.2494057,-116.8760114,BCA-105364,4/15/2022
426 Georgia St,Big Bear Lake,CA,92315,34.2449466,-116.9007191,BCA-102670,6/14/2021
41686 Tanager Dr,Big Bear Lake,CA,92315,34.2474722,-116.8925755,BCA-103176,9/5/2021
42745 Tannenbaum Dr,Big Bear Lake,CA,92315,34.2450462,-116.8700683,BCA-103125,7/16/2021
Tannenbaum Dr,Big Bear Lake,CA,92314,34.2452133,-116.8702517,BCA-102502,7/19/2021
800 Tehama Dr,Big Bear Lake,CA,92315,34.2374902,-116.8631733,BCA-103559,10/5/2021
454 Temple Ln,Big Bear Lake,CA,92315,34.2443612,-116.925194,BCA-105198,3/2/2022
539 Temple Ln,Big Bear Lake,CA,92315,34.2428864,-116.9237679,BCA-104126,11/14/2021
414 Tennessee St,Vallejo,CA,94590,38.1102582,-122.2558618,BCA-103422,10/21/2021
1163 Teton Dr,Big Bear Lake,CA,92315,34.23061320000001,-116.8516689,BCA-103479,10/21/2021
116 Round Dr,Big Bear Lake,CA,92315,34.2514131,-116.9408344,BCA-104034,11/5/2021
608 San Gorgonio Dr,Big Bear Lake,CA,92315,34.2413135,-116.8868472,BCA-104263,11/27/2021
43208 Sand Canyon Rd,Big Bear Lake,CA,92315,34.2328331,-116.8598601,BCA-104888,1/17/2022
43785 Sand Canyon Rd,Big Bear Lake,CA,92315,34.2295411,-116.8469405,BCA-105260,2/23/2022
421 Santa Clara Blvd,Big Bear Lake,CA,92315,34.2445641,-116.8753672,BCA-104674,12/15/2021
350 Scandia Rd,Big Bear Lake,CA,92315,34.2460926,-116.8772537,BCA-103091,9/22/2021
550 Edgemoor Rd,Big Bear Lake,CA,92315,34.2426223,-116.9311053,BCA-103216,9/27/2021
571 Edgemoor Rd,Big Bear Lake,CA,92315,34.2423355,-116.9305303,BCA-105106,3/9/2022
781 Edgemoor Rd,Big Bear Lake,CA,92315,34.2386521,-116.9299322,BCA-103095,9/14/2021
673 Elm St,Neenah,WI,54956,44.1751626,-88.4576292,BCA-103643,9/19/2021
694 Elm St,Big Bear Lake,CA,92315,34.2395708,-116.8748955,BCA-102634,7/3/2021
884 Elm St SE,Gainesville,GA,30501,34.2956878,-83.8114794,BCA-103481,10/22/2021
42889 Encino Rd,Big Bear Lake,CA,92315,34.2399611,-116.8665324,BCA-103217,9/27/2021
40114 Esterly Ln,Big Bear Lake,CA,92315,34.241031,-116.9268501,BCA-103154,9/14/2021
1215 Siskiyou Dr,Big Bear Lake,CA,92315,34.2302068,-116.8573291,BCA-104602,12/12/2021
1224 Siskiyou Dr,Big Bear Lake,CA,92315,34.2297095,-116.8575592,BCA-105146,3/21/2022
681 Snowbird Ct,Big Bear Lake,CA,92315,34.2401342,-116.8816019,BCA-104555,12/11/2021
42888 Sonoma Dr,Big Bear,CA,92314,34.2397892,-116.8665784,BCA-103034,9/27/2021
559 St Anton Ct,Big Bear Lake,CA,92315,34.2422151,-116.8910917,BCA-105307,10/1/2021
590 St Anton Ct,Big Bear Lake,CA,92315,34.2415981,-116.8917013,BCA-103535,9/23/2021
736 St Moritz Dr,Big Bear Lake,CA,92315,34.2391077,-116.8913333,BCA-105132,12/4/2021
306 Starlight Cir,Big Bear Lake,CA,92315,34.25488929999999,-116.8747,BCA-102588,7/10/2021
476 Starlight Cir,Big Bear Lake,CA,92315,34.2563803,-116.8725603,BCA-103728,10/7/2021
114 Starvation Flats Rd,Big Bear Lake,CA,92315,34.250062,-116.8788642,BCA-102956,8/21/2021
422 Crane Dr,Big Bear Lake,CA,92315,34.244941,-116.8945999,BCA-104042,11/9/2021
430 Crane Dr,Big Bear Lake,CA,92315,34.2447908,-116.8945539,BCA-102718,6/17/2021
438 Crane Dr,Big Bear Lake,CA,92315,34.2446112,-116.8944619,BCA-104324,11/13/2021
455 Crane Dr,Big Bear Lake,CA,92315,34.2443001,-116.8939933,BCA-103905,10/24/2021
428 Crater Lake Rd,Big Bear Lake,CA,92315,34.2448649,-116.8730665,BCA-103835,10/17/2021
565 Crestwood Dr,Houston,TX,77007,29.7694234,-95.42735379999999,BCA-104142,11/7/2021
792 Crestwood Dr,Big Bear Lake,CA,92315,34.237958,-116.8861341,BCA-104909,11/3/2021
143 Crystal Lake Rd,Big Bear Lake,CA,92315,34.2496694,-116.8735266,BCA-104265,11/29/2021
364 Crystal Lake Rd,Big Bear Lake,CA,92315,34.2455988,-116.874907,BCA-105241,3/26/2022
376 Crystal Lake Rd,Big Bear Lake,CA,92315,34.2454378,-116.874907,BCA-103086,9/8/2021
447 Vista Ln,Big Bear Lake,CA,92315,34.244701,-116.9264821,BCA-104601,11/9/2021
38795 Waterview Dr,Big Bear Lake,CA,92315,34.2448962,-116.9562206,BCA-102820,8/13/2021
38797 Waterview Dr,Big Bear Lake,CA,92315,34.2445997,-116.9561976,BCA-103781,10/4/2021
42569 Willow Ave,Big Bear Lake,CA,92315,34.235975,-116.873353,BCA-105338,4/1/2022
42581 Willow Ave,Big Bear,CA,92314,34.2360341,-116.8731125,BCA-104519,11/21/2021
43568 Bow Canyon Rd,Big Bear Lake,CA,92315,34.2281109,-116.8513468,BCA-103452,8/21/2021
41730 Brownie Ln APT 3,Big Bear Lake,CA,92315,34.2425808,-116.8915634,BCA-102832,6/29/2021
41764 Brownie Ln # 6,Big Bear Lake,CA,92315,34.2426229,-116.8909281,BCA-104204,11/21/2021
803 Cameron Dr,Big Bear Lake,CA,92315,34.2382199,-116.913693,BCA-104134,11/12/2021
805 Cameron Dr,Big Bear Lake,CA,92315,34.2384321,-116.913647,BCA-103756,11/3/2021
397 Canvasback Rd,Big Bear Lake,CA,92315,34.2454113,-116.9343369,BCA-104900,1/19/2022
373 S Catalina Ave,Redondo Beach,CA,90277,33.836661,-118.3879096,BCA-103241,9/21/2021
279 Bluebird Ct,Big Bear Lake,CA,92315,34.2472676,-116.8954051,BCA-104775,1/2/2022
43259 Bow Canyon Rd,Big Bear Lake,CA,92315,34.2330847,-116.8585304,BCA-104552,12/11/2021
43442 Bow Canyon Rd,Big Bear Lake,CA,92315,34.2302403,-116.8541079,BCA-104798,1/1/2022
43561 Bow Canyon Rd,Big Bear Lake,CA,92315,34.2279515,-116.851853,BCA-103376,10/10/2021
43629 Bow Canyon Rd,Big Bear Lake,CA,92315,34.2262995,-116.8506565,BCA-104092,10/27/2021
43414 Bow Canyon Rd,Big Bear Lake,CA,92315,34.2306742,-116.8546601,BCA-103209,8/22/2021
43490 Bow Canyon Rd,Big Bear Lake,CA,92315,34.2293892,-116.853061,BCA-104048,10/20/2021
463 Catalina Rd,Big Bear Lake,CA,92315,34.2439066,-116.8783695,BCA-105214,1/10/2022
526 Catalina Rd,Big Bear Lake,CA,92315,34.2424812,-116.8760459,BCA-104828,1/15/2022
42531 Cedar Ave,Big Bear Lake,CA,92315,34.2366305,-116.8741708,BCA-104318,11/20/2021
42587 Cedar Ave,Big Bear Lake,CA,92315,34.236632,-116.872994,BCA-103678,10/12/2021
42670 Cedar Ave,Big Bear Lake,CA,92315,34.23700230000001,-116.8711573,BCA-103724,9/26/2021
42831 Cedar Ave,Big Bear Lake,CA,92315,34.2366693,-116.8676828,BCA-103802,9/2/2021
42840 Cedar Ave,Big Bear Lake,CA,92315,34.2369544,-116.8674987,BCA-103887,10/12/2021
440 Chip-O-Wood,Big Bear,CA,92314,34.245475,-116.9331481,BCA-105451,4/16/2022
1351 Balsam Dr,Big Bear Lake,CA,92315,34.2276173,-116.8640476,BCA-105491,4/4/2022
43094 Bear Creek Ct,Big Bear Lake,CA,92315,34.2315309,-116.86175,BCA-103557,9/15/2021
43095 Bear Creek Ct,Big Bear Lake,CA,92315,34.2314099,-116.861462,BCA-103898,10/2/2021
43096 Bear Creek Ct,Big Bear Lake,CA,92315,34.23147,-116.861789,BCA-105145,2/8/2022
38630 Big Bear Blvd,Big Bear Lake,CA,92315,34.2387987,-116.9592794,BCA-104989,3/13/2022
38777 Big Bear Blvd,Big Bear Lake,CA,92315,34.237769,-116.956178,BCA-103621,9/18/2021
41935 Switzerland Dr APT 120,Big Bear Lake,CA,92315,34.2360931,-116.8868822,BCA-104167,12/4/2021
41935 Switzerland Dr APT 28,Big Bear Lake,CA,92315,34.2364932,-116.8869181,BCA-105402,3/9/2022
41935 Switzerland Dr APT 44,Big Bear Lake,CA,92315,34.2369159,-116.8861341,BCA-104896,2/11/2022
41935 Switzerland Dr APT 52,Big Bear Lake,CA,92315,34.2366564,-116.8862737,BCA-105039,3/20/2022
41935 Switzerland Dr APT 61,Big Bear Lake,CA,92315,34.2366109,-116.885884,BCA-102301,6/22/2021
41935 Switzerland Dr Apt 66,Big Bear Lake,CA,92315,34.2368002,-116.8856032,BCA-105037,3/20/2022
41935 Switzerland Dr Apt 82,Big Bear Lake,CA,92315,34.2364713,-116.8854427,BCA-104108,10/28/2021
41935 Switzerland Dr APT 85,Big Bear Lake,CA,92315,34.2364746,-116.8857372,BCA-105036,3/20/2022
41935 Switzerland Dr Apt 87,Big Bear Lake,CA,92315,34.2361732,-116.8853324,BCA-104059,9/11/2021
41935 Switzerland Dr APT 94,Big Bear Lake,CA,92315,34.2361778,-116.8857625,BCA-103028,7/22/2021
41935 Switzerland Dr APT 11,Big Bear Lake,CA,92315,34.2368417,-116.8866349,BCA-105043,3/20/2022
41644 Tahoe Dr,Big Bear Lake,CA,92315,34.2443234,-116.8936337,BCA-104734,1/22/2022
38598 Talbot Dr,Big Bear Lake,CA,92315,34.2394112,-116.9599233,BCA-103081,7/30/2021
544 Talmadge Rd,Big Bear Lake,CA,92315,34.2426053,-116.9225718,BCA-105186,2/25/2022
862 Talmadge Rd,Big Bear Lake,CA,92315,34.2368676,-116.9231699,BCA-102561,6/2/2021
1062 Club View Dr,Big Bear Lake,CA,92315,34.2329184,-116.8654395,BCA-104585,12/28/2021
997 Club View Dr,Big Bear Lake,CA,92315,34.2340714,-116.8658882,BCA-103526,10/7/2021
1224 Club View Dr,Big Bear Lake,CA,92315,34.2299472,-116.8620228,BCA-105153,3/4/2022
39462 Lake Dr,Big Bear Lake,CA,92315,34.2502458,-116.9408344,BCA-103486,10/24/2021
39543 Lake Dr,Big Bear Lake,CA,92315,34.2486692,-116.9395004,BCA-102395,5/31/2021
39599 Lake Dr,Big Bear Lake,CA,92315,34.2475245,-116.9382124,BCA-104392,12/18/2021
39623 Lake Dr,Fawnskin,CA,92333,34.2472046,-116.9375224,BCA-103381,10/8/2021
39662 Lake Dr,Big Bear Lake,CA,92315,34.2476016,-116.9366944,BCA-105117,2/3/2022
39670 Lake Dr,Big Bear Lake,CA,92315,34.2476801,-116.9364824,BCA-102628,7/28/2021
39882 Lakeview Dr,Big Bear Lake,CA,92315,34.2485242,-116.932114,BCA-103754,9/30/2021
40072 Lakeview Dr,Big Bear Lake,CA,92315,34.2476889,-116.9278506,BCA-104022,11/9/2021
40103 Lakeview Dr,Big Bear Lake,CA,92315,34.2477619,-116.9269881,BCA-103114,7/9/2021
40156 Lakeview Dr,Big Bear Lake,CA,92315,34.24755380000001,-116.925654,BCA-103876,11/20/2021
40180 Lakeview Dr,Big Bear Lake,CA,92315,34.2466119,-116.925125,BCA-103871,10/14/2021
40230 Lakeview Dr,Big Bear Lake,CA,92315,34.2452162,-116.9242171,BCA-103773,10/30/2021
511 Lakewood Ln,Big Bear Lake,CA,92315,34.2434715,-116.9265741,BCA-102786,8/3/2021
569 Lakewood Ln,Big Bear Lake,CA,92315,34.2424027,-116.9265396,BCA-104294,11/12/2021
41618 Mcwhinney Ln,Big Bear Lake,CA,92315,34.2417879,-116.8941399,BCA-103737,10/19/2021
43875 Mendocino Dr,Big Bear Lake,CA,92315,34.2289517,-116.8448236,BCA-104981,12/21/2021
764 Menlo Dr,Big Bear Lake,CA,92315,34.2383969,-116.8592388,BCA-103410,9/24/2021
846 Menlo Dr,Big Bear Lake,CA,92315,34.2363001,-116.8584796,BCA-104866,1/23/2022
668 Metcalf Ln,Big Bear Lake,CA,92315,34.2407052,-116.9343616,BCA-102714,5/26/2021
682 Jeffries Rd,Big Bear Lake,CA,92315,34.2403726,-116.9026974,BCA-103026,6/8/2021
42363 Juniper Dr,Big Bear Lake,CA,92315,34.2502383,-116.8778174,BCA-102974,8/30/2021
42640 Juniper Dr,Big Bear Lake,CA,92315,34.2502658,-116.8721922,BCA-105116,3/25/2022
42788 Juniper Dr,Big Bear Lake,CA,92315,34.2502151,-116.8686491,BCA-103313,8/17/2021
983 Knickerbocker Rd,Big Bear Lake,CA,92315,34.2346998,-116.9100125,BCA-104507,12/4/2021
601 Knight Ave,Big Bear Lake,CA,92315,34.2416536,-116.9040087,BCA-104375,12/19/2021
719 Knight Ave,Big Bear Lake,CA,92315,34.23960390000001,-116.9040777,BCA-103585,10/2/2021
878 Knight Ave,Big Bear Lake,CA,92315,34.2367949,-116.9049748,BCA-103920,10/15/2021
39192 N Bay Dr,Big Bear Lake,CA,92315,34.241462,-116.9469982,BCA-103093,10/30/2021
39277 Cedar Blvd,Newark,CA,94560,37.5226788,-122.0037813,BCA-103430,8/22/2021
261 Olympic Dr,Big Bear Lake,CA,92315,34.2476025,-116.8790482,BCA-102649,6/29/2021
41618 Park Ave,Big Bear Lake,CA,92315,34.2459169,-116.8940478,BCA-102867,8/14/2021
465 Georgia St,Big Bear Lake,CA,92315,34.2441323,-116.900075,BCA-104402,12/5/2021
406 Gibralter Rd,Big Bear Lake,CA,92315,34.2453922,-116.9232159,BCA-104427,11/20/2021
39996 Glenview Rd,Big Bear Lake,CA,92315,34.2422416,-116.9295642,BCA-103912,10/13/2021
41827 Golden W Pl,Big Bear Lake,CA,92315,34.238596,-116.889588,BCA-102549,6/14/2021
792 Great Spirits Way,Big Bear Lake,CA,92315,34.2382654,-116.9079998,BCA-104357,12/6/2021
43364 Primrose Dr,Big Bear Lake,CA,92315,34.2262136,-116.8562822,BCA-104930,2/1/2022
852 Ravine Rd,Big Bear Lake,CA,92315,34.2366627,-116.8604721,BCA-103332,8/20/2021
43376 Ridgecrest Dr,Big Bear Lake,CA,92315,34.2329611,-116.8552123,BCA-103524,8/12/2021
43645 Ridgecrest Dr,Big Bear Lake,CA,92315,34.22754219999999,-116.8493565,BCA-104750,1/13/2022
43526 Ridgecrest Dr,Big Bear Lake,CA,92315,34.230336,-116.852066,BCA-105143,1/12/2022
1405 Rockspray Dr,Big Bear Lake,CA,92315,34.2261937,-116.8552123,BCA-104779,2/13/2022
279 Eureka Dr,Big Bear Lake,CA,92315,34.2475493,-116.8980506,BCA-102708,7/3/2021
41941 Evergreen Dr,Big Bear Lake,CA,92315,34.239388,-116.887087,BCA-105279,3/30/2022
42621 Falcon Ave,Big Bear Lake,CA,92315,34.2393088,-116.8723763,BCA-104072,10/26/2021
42645 Falcon Ave,Big Bear Lake,CA,92315,34.2392663,-116.8718717,BCA-103640,9/18/2021
42666 Falcon Ave,Big Bear Lake,CA,92315,34.2396574,-116.87141,BCA-104456,8/12/2021
42675 Falcon Ave,Big Bear Lake,CA,92315,34.239264,-116.87121,BCA-103615,9/16/2021
42679 Falcon Ave,Big Bear Lake,CA,92315,34.239263,-116.871127,BCA-104278,10/21/2021
861 Thrush Dr #44,Big Bear Lake,CA,92315,34.2362213,-116.8889999,BCA-103365,10/20/2021
740 Tomahawk Dr,Brookfield,MO,64628,39.7766788,-93.0521472,BCA-104980,1/25/2022
895 Tulip Ln,Big Bear Lake,CA,92315,34.2364839,-116.9308868,BCA-104291,11/10/2021
42813 Ursa Major Way,Big Bear Lake,CA,92315,34.2457021,-116.8726754,BCA-102764,8/6/2021
43372 Shasta Rd,Big Bear Lake,CA,92315,34.2293993,-116.8556265,BCA-103335,8/20/2021
43563 Shasta Rd,Big Bear Lake,CA,92315,34.2249549,-116.8515769,BCA-104077,11/13/2021
43574 Shasta Rd,Big Bear Lake,CA,92315,34.2252785,-116.8508866,BCA-102493,7/11/2021
43498 Sheephorn Rd,Big Bear Lake,CA,92315,34.2366885,-116.8551203,BCA-104746,1/7/2022
40051 Sierra Trail,Big Bear Lake,CA,92315,34.244314,-116.928133,BCA-104722,1/7/2022
676 Silver Tip Dr,Big Bear Lake,CA,92315,34.2398898,-116.8647838,BCA-103187,8/21/2021
796 Silver Tip Dr,Big Bear Lake,CA,92315,34.2376079,-116.8621609,BCA-103572,10/4/2021
567 Silvertip Dr,Incline Village,NV,89451,39.252144,-119.9803315,BCA-103828,10/7/2021
799 Silver Tip Dr,Big Bear Lake,CA,92315,34.2378696,-116.8615627,BCA-103831,10/8/2021
42969 Dogwood Dr,Big Bear Lake,CA,92315,34.225733,-116.8645652,BCA-103279,8/28/2021
180 Eagle Dr,Big Bear Lake,CA,92315,34.2517125,-116.9041237,BCA-104853,11/9/2021
230 Eagle Dr,Big Bear Lake,CA,92315,34.2482017,-116.9010872,BCA-102314,5/25/2021
101 Stony Creek Rd,Big Bear Lake,CA,92315,34.2505573,-116.8692473,BCA-103720,9/26/2021
569 Summit Blvd # 1,Big Bear Lake,CA,92315,34.2422458,-116.888045,BCA-104056,12/17/2021
764 Summit Blvd Unit A,Big Bear Lake,CA,92315,34.2384454,-116.8888487,BCA-103934,10/8/2021
41594 Swan Dr,Big Bear Lake,CA,92315,34.2483821,-116.894692,BCA-104558,12/11/2021
41935 Switzerland Dr APT 103,Big Bear Lake,CA,92315,34.23617970000001,-116.8859428,BCA-104848,12/27/2021
41935 Switzerland Dr # 107,Big Bear Lake,CA,92315,34.2360864,-116.8862272,BCA-102611,7/1/2021
41572 Comstock Ln,Big Bear Lake,CA,92315,34.2409157,-116.895106,BCA-103774,10/30/2021
42769 Conifer Dr,Big Bear Lake,CA,92315,34.242145,-116.869225,BCA-104629,12/8/2021
42778 Conifer Dr,Big Bear Lake,CA,92315,34.2425297,-116.8690057,BCA-102655,6/22/2021
42584 Cougar Rd,Big Bear Lake,CA,92315,34.2422735,-116.8732966,BCA-105136,3/18/2022
42653 Cougar Rd,Big Bear Lake,CA,92315,34.2419286,-116.8718126,BCA-103532,8/30/2021
42707 Cougar Rd,Big Bear Lake,CA,92315,34.2419066,-116.8705817,BCA-104430,10/26/2021
42732 Cougar Rd,Big Bear Lake,CA,92315,34.2422086,-116.8699835,BCA-104057,12/5/2021
42798 Cougar Rd,Big Bear Lake,CA,92315,34.2417177,-116.8686491,BCA-103160,8/12/2021
42758 Willow Ave,Big Bear Lake,CA,92315,34.2362857,-116.8692371,BCA-105236,3/29/2022
42842 Willow Ave,Big Bear Lake,CA,92315,34.2363214,-116.8674617,BCA-102847,7/1/2021
43606 Yosemite Dr,Big Bear Lake,CA,92315,34.2329974,-116.8506105,BCA-104179,11/18/2021
43628 Yosemite Dr,Big Bear Lake,CA,92315,34.232754,-116.8501043,BCA-103509,9/5/2021
647 Lintner Rd,Big Bear Lake,CA,92315,34.2411984,-116.9356824,BCA-102713,5/26/2021
836 Lowe Dr,Big Bear Lake,CA,92315,34.238112,-116.958543,BCA-102526,6/8/2021
40233 Mahanoy Ln,Big Bear Lake,CA,92315,34.2413686,-116.9242279,BCA-104826,1/11/2022
638 Main St,Reisterstown,MD,21136,39.4531302,-76.8222028,BCA-104235,11/9/2021
675 Main St,Hingham,MA,02043,42.2115206,-70.88424909999999,BCA-103943,10/16/2021
41974 Mapleleaf Dr,Big Bear Lake,CA,92315,34.239072,-116.886396,BCA-103547,9/19/2021
657 Marin Rd,Big Bear Lake,CA,92315,34.24072719999999,-116.9066541,BCA-103936,11/16/2021
41596 Mcwhinney Ln,Big Bear Lake,CA,92315,34.2417235,-116.894669,BCA-103057,7/28/2021
42551 La Cerena Ave,Big Bear Lake,CA,92315,34.2373105,-116.8738487,BCA-102248,5/29/2021
42640 La Cerena Ave,Big Bear Lake,CA,92315,34.2376963,-116.8718701,BCA-105150,12/21/2021
42732 La Cerena Ave,Big Bear Lake,CA,92315,34.237665,-116.869868,BCA-104342,11/16/2021
42753 La Cerena Ave,Big Bear Lake,CA,92315,34.237278,-116.869359,BCA-103897,10/17/2021
42645 La Placida Ave,Big Bear Lake,CA,92315,34.2379488,-116.8718241,BCA-104371,12/6/2021
42683 La Placida Ave,Big Bear Lake,CA,92315,34.2379709,-116.8710004,BCA-102779,7/11/2021
149 Lagunita Ln,Big Bear Lake,CA,92315,34.2501577,-116.9295412,BCA-103882,10/12/2021
150 Lagunita Ln,Big Bear Lake,CA,92315,34.2498798,-116.9296102,BCA-104188,11/24/2021
41301 Lahontan Dr,Big Bear Lake,CA,92315,34.2454049,-116.9009952,BCA-104843,11/17/2021
42842 Monterey St,Big Bear Lake,CA,92315,34.2411802,-116.8676828,BCA-105126,3/13/2022
43060 Moonridge Rd,Big Bear Lake,CA,92315,34.2364492,-116.8628051,BCA-104024,11/8/2021
43098 Moonridge Rd,Big Bear Lake,CA,92315,34.2359999,-116.8619768,BCA-104045,12/4/2021
43128 Moonridge Rd,Big Bear Lake,CA,92315,34.2350346,-116.8600902,BCA-105171,2/9/2022
43140 Moonridge Rd,Big Bear Lake,CA,92315,34.23431890000001,-116.8607344,BCA-104094,10/26/2021
43220 Moonridge Rd,Big Bear Lake,CA,92315,34.230454,-116.858937,BCA-103967,10/20/2021
43260 Moonridge Rd,Big Bear Lake,CA,92315,34.229877,-116.8583875,BCA-104753,1/18/2022
402 Mountainaire Ln,Big Bear Lake,CA,92315,34.2453532,-116.9027421,BCA-104783,12/22/2021
424 Mountainaire Ln,Big Bear Lake,CA,92315,34.244945,-116.9028585,BCA-104364,12/21/2021
753 Mountain Sky Dr,Big Bear Lake,CA,92315,34.23871400000001,-116.886341,BCA-103662,9/23/2021
39067 N Bay Dr,Big Bear Lake,CA,92315,34.2415633,-116.9498041,BCA-103661,9/23/2021
42359 Heavenly Valley Rd,Big Bear Lake,CA,92315,34.2396445,-116.878128,BCA-104605,12/4/2021
40090 Highland Ln,Big Bear Lake,CA,92315,34.2392901,-116.9274021,BCA-105233,3/14/2022
40043 Hillcrest Dr,Big Bear Lake,CA,92315,34.2384765,-116.9284602,BCA-103668,11/24/2021
41616 Hummingbird Ln,Big Bear Lake,CA,92315,34.2477071,-116.8941399,BCA-102672,5/29/2021
40629 Ironwood Dr,Big Bear Lake,CA,92315,34.2384667,-116.9157172,BCA-104581,12/2/2021
40573 Simonds Dr #3,Big Bear Lake,CA,92315,34.2433769,-116.9164073,BCA-103444,8/13/2021
715 Georgia St,Big Bear Lake,CA,92315,34.2396301,-116.900213,BCA-104509,1/25/2022
39046 Robin Rd,Big Bear Lake,CA,92315,34.2430974,-116.9501261,BCA-104139,11/9/2021
42380 Juniper Dr,Big Bear Lake,CA,92315,34.2508335,-116.8777949,BCA-102594,7/12/2021
786 Summit Blvd,Big Bear Lake,CA,92315,34.2380829,-116.8888487,BCA-103638,9/18/2021
40217 Dream St,Big Bear Lake,CA,92315,34.2419722,-116.9245712,BCA-105360,4/24/2022
40263 Dream St,Big Bear Lake,CA,92315,34.2419538,-116.9235775,BCA-105223,4/22/2022
426 Eagle Lake Pl,Big Bear,CA,92314,34.2573184,-116.8807179,BCA-104040,11/7/2021
386 Crystal Lake Rd,Big Bear Lake,CA,92315,34.2452473,-116.874861,BCA-103779,10/1/2021
658 Marin Rd,Big Bear Lake,CA,92315,34.2407205,-116.9073979,BCA-103866,10/9/2021
1288 Club View Dr #101,Big Bear,CA,92314,34.2289324,-116.8618848,BCA-103993,10/15/2021
549 Edgemoor Rd,Big Bear Lake,CA,92315,34.2428386,-116.9305686,BCA-104285,10/16/2021
596 Summit Ave Unit B,St Paul,MN,55102,44.9410007,-93.1253169,BCA-105298,2/28/2022
569 Waynoka Ln,Big Bear Lake,CA,92315,34.2423724,-116.9251411,BCA-105113,2/21/2022
42515 Alta Vista Ave,Big Bear Lake,CA,92315,34.242567,-116.874748,BCA-103222,9/11/2021
42697 Alta Vista Ave,Big Bear Lake,CA,92315,34.242647,-116.8708578,BCA-104770,1/6/2022
42728 Alta Vista Ave,Big Bear Lake,CA,92315,34.2429639,-116.8701328,BCA-102959,8/13/2021
377 Arroyo Dr,Moorpark,CA,93021,34.2926421,-118.838025,BCA-102884,7/6/2021
414 Arroyo Dr,Big Bear Lake,CA,92315,34.2452228,-116.9288742,BCA-104586,12/3/2021
1204 Aspen Dr,Burnsville,MN,55337,44.7676358,-93.25722329999999,BCA-104137,11/12/2021
42494 Avalon Rd,Big Bear Lake,CA,92315,34.2450908,-116.8751831,BCA-104365,12/21/2021
1253 Balsam Dr,Big Bear Lake,CA,92315,34.2296872,-116.8655201,BCA-103948,10/20/2021
1263 Balsam Dr,Big Bear Lake,CA,92315,34.2299629,-116.8646918,BCA-103908,10/13/2021
42554 Peregrine Ave,Big Bear Lake,CA,92315,34.239004,-116.8738832,BCA-104343,11/15/2021
42570 Peregrine Ave,Big Bear Lake,CA,92315,34.238968,-116.8734806,BCA-102596,6/13/2021
42595 Peregrine Ave,Big Bear Lake,CA,92315,34.2386103,-116.8728766,BCA-104919,2/12/2022
42720 Peregrine Ave,Big Bear Lake,CA,92315,34.2390053,-116.8700756,BCA-104974,2/19/2022
42769 Peregrine Ave,Big Bear Lake,CA,92315,34.2385949,-116.868947,BCA-103588,10/2/2021
1342 Pigeon Rd,Big Bear Lake,CA,92315,34.2279412,-116.8631773,BCA-104805,2/24/2022
154 Poplar St,Big Bear Lake,CA,92315,34.2492865,-116.8690862,BCA-105107,12/23/2021
197 Finch Dr,Big Bear Lake,CA,92315,34.2490617,-116.8996609,BCA-104190,11/1/2021
42440 Fox Farm Rd,Big Bear Lake,CA,92315,34.2490575,-116.8763253,BCA-103889,10/8/2021
42580 Fox Farm Rd,Big Bear Lake,CA,92315,34.249039,-116.8732966,BCA-104245,11/6/2021
482 Tavern Ln,Big Bear Lake,CA,92315,34.2439421,-116.9336123,BCA-104709,12/23/2021
179 Teakwood Dr,Big Bear Lake,CA,92315,34.2519512,-116.8701676,BCA-103593,10/7/2021
240 Teakwood Dr,Princeton,TX,75407,33.1783288,-96.5029802,BCA-105114,3/4/2022
41235 Terrapin Rd,Big Bear Lake,CA,92315,34.2366897,-116.9026054,BCA-104369,12/1/2021
1178 Teton Dr,Big Bear Lake,CA,92315,34.2310549,-116.8523592,BCA-104918,2/23/2022
104 Round Dr,Big Bear Lake,CA,92315,34.2511901,-116.9409264,BCA-103761,10/22/2021
741 St Moritz Dr,Big Bear Lake,CA,92315,34.2389126,-116.8909652,BCA-105359,4/23/2022
43606 San Pasqual Dr,Big Bear Lake,CA,92315,34.2288374,-116.8506565,BCA-103539,9/11/2021
1271 Sand Canyon Ct,Big Bear Lake,CA,92315,34.2292669,-116.8470785,BCA-104840,1/12/2022
43255 Sand Canyon Rd,Big Bear Lake,CA,92315,34.2339422,-116.8585716,BCA-104311,11/23/2021
284 Santa Clara Blvd,Big Bear Lake,CA,92315,34.2471027,-116.8758733,BCA-104029,11/2/2021
329 Santa Clara Blvd,Big Bear Lake,CA,92315,34.2463097,-116.8751371,BCA-104736,12/29/2021
422 Santa Clara Blvd,Big Bear Lake,CA,92315,34.244545,-116.875973,BCA-102558,6/14/2021
201 Elgin Rd,Big Bear Lake,CA,92315,34.2491324,-116.9372004,BCA-105108,1/30/2022
42870 Encino Rd,Big Bear Lake,CA,92315,34.2403762,-116.8669926,BCA-105173,3/15/2022
42947 Encino Rd,Big Bear Lake,CA,92315,34.2398678,-116.8653475,BCA-103999,11/6/2021
40139 Esterly Ln,Big Bear Lake,CA,92315,34.2407588,-116.9262981,BCA-105353,3/3/2022
40159 Esterly Ln,Big Bear Lake,CA,92315,34.2407543,-116.925976,BCA-102618,7/13/2021
234 Eureka Dr,Big Bear Lake,CA,92315,34.25304,-116.902827,BCA-104991,2/10/2022
1134 Siskiyou Dr,Big Bear Lake,CA,92315,34.2317633,-116.8584222,BCA-105295,1/21/2022
1194 Siskiyou Dr,Big Bear Lake,CA,92315,34.2304223,-116.8582955,BCA-103189,9/22/2021
1323 Siskiyou Dr,Big Bear Lake,CA,92315,34.2278488,-116.8574212,BCA-105356,4/18/2022
42062 Snowmass Ln,Big Bear Lake,CA,92315,34.24261420000001,-116.8846617,BCA-104928,1/29/2022
39821 Snowball Ln,Big Bear Lake,CA,92315,34.2385956,-116.9333655,BCA-105291,3/4/2022
42896 Sonoma Dr,Big Bear Lake,CA,92315,34.2396823,-116.8663483,BCA-104673,12/11/2021
579 St Anton Ct,Big Bear Lake,CA,92315,34.2418089,-116.8911492,BCA-102614,7/6/2021
570 St Moritz Dr,Big Bear Lake,CA,92315,34.24199,-116.890724,BCA-102872,7/29/2021
315 Starlight Cir,Big Bear Lake,CA,92315,34.2548864,-116.8736877,BCA-104283,11/10/2021
323 Starlight Cir,Big Bear Lake,CA,92315,34.2547571,-116.8732966,BCA-102505,6/27/2021
359 Starlight Cir,Big Bear Lake,CA,92315,34.2540472,-116.8721232,BCA-103100,8/3/2021
144 Starvation Flats Rd,Big Bear Lake,CA,92315,34.2512823,-116.8793243,BCA-104262,11/27/2021
755 Cove Dr,Big Bear Lake,CA,92315,34.2401326,-116.9584054,BCA-104032,11/5/2021
786 Cove Dr,Big Bear Lake,CA,92315,34.23930259999999,-116.9569796,BCA-103098,9/3/2021
217 Crater Lake Rd,Big Bear Lake,CA,92315,34.2483977,-116.8743089,BCA-103466,10/3/2021
285 Crater Lake Rd,Big Bear Lake,CA,92315,34.2471385,-116.8743549,BCA-104814,9/14/2021
639 Crestwood Dr,Big Bear Lake,CA,92315,34.2407276,-116.8854899,BCA-104745,1/6/2022
715 Crestwood Dr,Big Bear Lake,CA,92315,34.239413,-116.885497,BCA-102253,6/3/2021
504 Vista Ln,Edmond,OK,73034,35.6494377,-97.4513376,BCA-103980,10/20/2021
535 Wanita Ln,Big Bear Lake,CA,92315,34.2429541,-116.924504,BCA-103304,8/19/2021
39095 Waterview Dr,Big Bear Lake,CA,92315,34.2449795,-116.9489761,BCA-104575,12/1/2021
39105 Waterview Dr,Big Bear Lake,CA,92315,34.2450703,-116.9486771,BCA-104315,11/13/2021
531 Waynoka Ln,Big Bear Lake,CA,92315,34.2430215,-116.9251135,BCA-103012,7/31/2021
42532 Willow Ave,Big Bear Lake,CA,92315,34.2364163,-116.8741823,BCA-105137,11/27/2021
41730 Brownie Ln APT 1,Big Bear Lake,CA,92315,34.2424996,-116.8916476,BCA-104849,1/31/2022
41764 Brownie Ln # 4,Big Bear Lake,CA,92315,34.242622,-116.8907958,BCA-103717,9/29/2021
41829 Brownie Ln,Big Bear Lake,CA,92315,34.242229,-116.8895389,BCA-104706,12/15/2021
41959 Brownie Ln,Big Bear Lake,CA,92315,34.242117,-116.886601,BCA-104475,12/7/2021
1291 Buffalo Ct,Big Bear Lake,CA,92315,34.2288618,-116.8558566,BCA-104916,2/25/2022
852 Cameron Dr,Big Bear Lake,CA,92315,34.2369576,-116.913923,BCA-102740,7/10/2021
43826 Canyon Crest Dr,Big Bear Lake,CA,92315,34.2313958,-116.8457785,BCA-105249,2/22/2022
355 Catalina Rd,Big Bear Lake,CA,92315,34.2458258,-116.8799225,BCA-103550,9/14/2021
760 Bluejay Rd #15,Big Bear Lake,CA,92315,34.2389441,-116.9477799,BCA-104429,11/18/2021
760 Bluejay Rd #16,Big Bear Lake,CA,92315,34.2389095,-116.9484323,BCA-103461,10/1/2021
760 Bluejay Rd #36,Big Bear Lake,CA,92315,34.2389095,-116.9484323,BCA-102550,6/1/2021
760 Bluejay Rd #40,Big Bear Lake,CA,92315,34.2389095,-116.9484323,BCA-102645,6/8/2021
760 Bluejay Rd #46,Big Bear Lake,CA,92315,34.2389095,-116.9484323,BCA-105082,2/1/2022
744 Boulder Bay Ct,Big Bear Lake,CA,92315,34.2394113,-116.9497121,BCA-103879,11/10/2021
43546 Bow Canyon Rd,Big Bear Lake,CA,92315,34.22849679999999,-116.851761,BCA-105226,3/13/2022
43591 Bow Canyon Rd,Big Bear Lake,CA,92315,34.2273378,-116.8512087,BCA-104744,1/4/2022
506 Catalina Rd,Big Bear Lake,CA,92315,34.2427672,-116.8768396,BCA-104850,12/12/2021
507 Catalina Rd,Big Bear Lake,CA,92315,34.2432165,-116.8764715,BCA-104808,1/9/2022
42570 Cedar Ave,Big Bear Lake,CA,92315,34.2370162,-116.8733886,BCA-104323,12/26/2021
42715 Cedar Ave,Big Bear Lake,CA,92315,34.2366771,-116.8702136,BCA-103666,11/1/2021
42727 Cedar Ave,Big Bear Lake,CA,92315,34.2366807,-116.8699169,BCA-104810,2/6/2022
604 Cienega Rd,Big Bear Lake,CA,92315,34.2418252,-116.9441003,BCA-104018,11/13/2021
40670 Big Bear Blvd APT 10,Big Bear Lake,CA,92315,34.2440121,-116.9140279,BCA-103059,7/28/2021
40670 Big Bear Blvd APT 9,Big Bear Lake,CA,92315,34.244036,-116.9140773,BCA-103769,10/30/2021
39038 Bayview Ln,Big Bear Lake,CA,92315,34.2414698,-116.95054,BCA-104082,11/14/2021
681 Berkley Ln,Big Bear Lake,CA,92315,34.2402983,-116.906424,BCA-104966,12/11/2021
38842 Big Bear Blvd,Big Bear Lake,CA,92315,34.237885,-116.9546338,BCA-103112,8/5/2021
38925 Big Bear Blvd,Fawnskin,CA,92333,34.2372259,-116.9531173,BCA-102622,7/22/2021
39069 Big Bear Blvd,Big Bear Lake,CA,92315,34.2380611,-116.9498041,BCA-102275,6/19/2021
41935 Switzerland Dr Apt 21,Big Bear Lake,CA,92315,34.2365939,-116.887317,BCA-102530,5/29/2021
41935 Switzerland Dr Apt 15,Big Bear Lake,CA,92315,34.2369151,-116.8870474,BCA-105174,3/15/2022
1059 Sylvan Glen,Big Bear Lake,CA,92315,34.2329173,-116.8656581,BCA-103259,10/5/2021
41971 Tamarack Dr,Big Bear Lake,CA,92315,34.2401078,-116.8864101,BCA-103670,9/24/2021
723 Cienega Rd Unit C,Big Bear Lake,CA,92315,34.239759,-116.94101,BCA-104720,1/10/2022
755 Cienega Rd Unit D,Big Bear Lake,CA,92315,34.239406,-116.94102,BCA-104010,11/18/2021
781 Cienega Rd Unit B,Big Bear Lake,CA,92315,34.2391248,-116.9407295,BCA-103003,9/24/2021
799 Cienega Rd Unit C,Big Bear Lake,CA,92315,34.2388207,-116.9409724,BCA-105115,3/4/2022
696 Circle Ln,Big Bear Lake,CA,92315,34.2406018,-116.9485506,BCA-105505,5/13/2022
1149 Club View Dr,Big Bear,CA,92314,34.231433,-116.8628972,BCA-104796,1/7/2022
1332 Club View Dr,Big Bear Lake,CA,92315,34.2280292,-116.8622989,BCA-103674,9/25/2021
1377 Club View Dr #10,Big Bear Lake,CA,92315,34.2267945,-116.862415,BCA-104180,11/18/2021
1377 Club View Dr #4,Big Bear Lake,CA,92315,34.2273331,-116.8622153,BCA-102879,8/1/2021
1377 Club View Dr #31,Big Bear Lake,CA,92315,34.2269947,-116.8629235,BCA-103752,10/17/2021
1442 Club View Dr,Big Bear Lake,CA,92315,34.2271542,-116.8658422,BCA-105350,3/2/2022
43525 Colusa Dr,Big Bear,CA,92314,34.2330655,-116.8524167,BCA-104044,12/16/2021
43653 Colusa Dr,Big Bear Lake,CA,92315,34.2328957,-116.8497591,BCA-103558,10/12/2021
39513 Lake Dr,Big Bear Lake,CA,92315,34.2490914,-116.9400984,BCA-104513,1/19/2022
39583 Lake Dr,Big Bear Lake,CA,92315,34.247931,-116.93875,BCA-103653,9/21/2021
39673 Lake Dr,Big Bear Lake,CA,92315,34.2469314,-116.9364644,BCA-103178,9/10/2021
482 Lakeview Ct,Big Bear Lake,CA,92315,34.2441858,-116.9208237,BCA-102616,7/9/2021
40123 Lakeview Dr,Big Bear Lake,CA,92315,34.2477063,-116.9267121,BCA-103119,7/9/2021
40177 Lakeview Dr,Big Bear Lake,CA,92315,34.2467562,-116.925792,BCA-104087,11/16/2021
40178 Lakeview Dr,Big Bear Lake,CA,92315,34.2468017,-116.924918,BCA-103976,11/27/2021
40181 Lakeview Dr,Big Bear Lake,CA,92315,34.2464233,-116.925838,BCA-105172,3/12/2022
40202 Lakeview Dr,Big Bear Lake,CA,92315,34.2456668,-116.92478,BCA-105432,3/15/2022
Lakeview Dr,Louisville,KY,40205,38.2079466,-85.6787329,BCA-104336,11/9/2021
40265 Lakeview Dr,Big Bear Lake,CA,92315,34.2445588,-116.9236759,BCA-103372,10/17/2021
524 Lakewood Ln,Big Bear Lake,CA,92315,34.2431999,-116.9269996,BCA-104516,11/17/2021
41688 Mcwhinney Ln,Big Bear Lake,CA,92315,34.2417159,-116.892634,BCA-103058,7/28/2021
41648 Mcwhinney Ln,Big Bear Lake,CA,92315,34.2416836,-116.8934727,BCA-103352,10/11/2021
43883 Mendocino Dr,Big Bear,CA,92314,34.2288467,-116.844628,BCA-104969,2/9/2022
816 Menlo Dr,Big Bear Lake,CA,92315,34.2372172,-116.8590318,BCA-105273,3/1/2022
864 Menlo Dr,Big Bear Lake,CA,92315,34.2361497,-116.8572371,BCA-104868,9/26/2021
41652 Mockingbird Dr,Big Bear Lake,CA,92315,34.2464823,-116.8933577,BCA-102288,6/1/2021
700 Modesto Lane,Big Bear Lake,CA,92315,34.2408089,-116.9057109,BCA-103397,8/27/2021
42772 Monterey St,Big Bear Lake,CA,92315,34.2411317,-116.8692128,BCA-104884,2/13/2022
42804 Monterey St,Big Bear Lake,CA,92315,34.2410655,-116.8685111,BCA-104589,12/2/2021
15 Dennison Ave,Freeport,ME,04032,43.8539225,-70.0990592,BCA-102289,5/29/2021
42441 Juniper Dr,Big Bear Lake,CA,92315,34.2500423,-116.8758733,BCA-102848,7/1/2021
42450 Juniper Dr,Big Bear Lake,CA,92315,34.2507919,-116.8765273,BCA-102624,7/24/2021
42685 Juniper Dr,Big Bear Lake,CA,92315,34.2498406,-116.8711491,BCA-104630,12/8/2021
924 Knickerbocker Rd,Big Bear Lake,CA,92315,34.2358047,-116.9104035,BCA-105149,3/6/2022
633 Knight Ave,Big Bear Lake,CA,92315,34.2412037,-116.9041237,BCA-104912,2/7/2022
844 Knight Ave,Big Bear Lake,CA,92315,34.23737240000001,-116.9046183,BCA-104573,12/1/2021
179 Knoll Rd,Big Bear Lake,CA,92315,34.2496559,-116.9358738,BCA-103822,10/26/2021
42534 La Cerena Ave,Big Bear Lake,CA,92315,34.2376855,-116.8741151,BCA-102660,6/1/2021
42541 La Cerena Ave,Big Bear Lake,CA,92315,34.237296,-116.874008,BCA-104370,12/10/2021
798 Northstar Dr,Big Bear Lake,CA,92315,34.237825,-116.884729,BCA-105303,4/12/2022
409 Northern Cross Dr,Big Bear Lake,CA,92315,34.2447333,-116.8719161,BCA-104442,11/16/2021
222 Orion Way,Big Bear Lake,CA,92315,34.2530249,-116.8730435,BCA-104317,11/30/2021
42324 Paramount Rd,Big Bear Lake,CA,92315,34.2467088,-116.8789102,BCA-104384,11/16/2021
541 Georgia St,Big Bear Lake,CA,92315,34.2427269,-116.9003532,BCA-105000,1/25/2022
724 Georgia St,Big Bear Lake,CA,92315,34.239476,-116.900841,BCA-102640,5/28/2021
403 Gibralter Ln,Big Bear Lake,CA,92315,34.2454996,-116.9222498,BCA-103584,10/1/2021
40021 Glenview Rd,Big Bear Lake,CA,92315,34.2418302,-116.9289202,BCA-104517,11/29/2021
362 Glenwood Dr,Big Bear Lake,CA,92315,34.2559081,-116.8713179,BCA-103765,10/24/2021
375 Glenwood Dr,Big Bear Lake,CA,92315,34.2553391,-116.8707428,BCA-104176,12/5/2021
42599 Gold Rush Dr,Big Bear Lake,CA,92315,34.2505786,-116.8727444,BCA-104321,11/15/2021
43413 Ridgecrest Dr,Big Bear Lake,CA,92315,34.2318313,-116.8551778,BCA-102917,8/2/2021
43612 Ridgecrest Dr,Big Bear Lake,CA,92315,34.2291669,-116.8500698,BCA-104267,11/30/2021
1439 Rockspray Dr,Big Bear Lake,CA,92315,34.2254605,-116.8538778,BCA-104799,1/31/2022
1440 Rockspray Ct,Big Bear Lake,CA,92315,34.2260851,-116.854476,BCA-103143,8/8/2021
1456 Rockspray Dr,Big Bear Lake,CA,92315,34.2258678,-116.8530035,BCA-103723,9/26/2021
274 Eureka Dr,Big Bear Lake,CA,92315,34.2476312,-116.8985567,BCA-103639,9/18/2021
764 Eureka Dr,Big Bear Lake,CA,92315,34.2387355,-116.8983727,BCA-104816,7/26/2021
890 Eureka Dr,Big Bear Lake,CA,92315,34.2365036,-116.8987868,BCA-102648,7/3/2021
42276 Evergreen Dr,Big Bear Lake,CA,92315,34.241132,-116.8797614,BCA-104377,12/17/2021
42949 Fairy Ave,Big Bear Lake,CA,92315,34.2323812,-116.8651979,BCA-102277,6/24/2021
42683 Falcon Ave,Big Bear Lake,CA,92315,34.2392682,-116.8710534,BCA-104676,12/14/2021
381 Fallen Leaf Rd,Big Bear Lake,CA,92315,34.2566114,-116.8752521,BCA-102854,6/18/2021
42975 Falls Ave,Big Bear Lake,CA,92315,34.2310427,-116.8645537,BCA-104107,12/13/2021
43023 Falls Ave,Big Bear Lake,CA,92315,34.231021,-116.863438,BCA-105181,2/10/2022
43939 Yosemite Dr,Big Bear Lake,CA,92315,34.2291469,-116.8435235,BCA-105343,3/3/2022
793 Thrush Dr,Big Bear Lake,CA,92315,34.2379273,-116.8920694,BCA-103746,10/10/2021
1200 New Jersey Ave SE,Washington,DC,20590,38.8758551,-77.0035451,BCA-105472,4/17/2022
755 Tomahawk Dr,Big Bear Lake,CA,92315,34.2384645,-116.8871899,BCA-103411,10/16/2021
464 Shady Ln,Big Bear Lake,CA,92315,34.2442341,-116.9301622,BCA-103671,10/25/2021
43254 Sheephorn Rd,Big Bear Lake,CA,92315,34.2348222,-116.8589397,BCA-103149,8/9/2021
43151 Sheephorn Rd,Big Bear Lake,CA,92315,34.2337094,-116.8613556,BCA-103088,8/3/2021
43218 Sheephorn Rd,Big Bear Lake,CA,92315,34.2345791,-116.85963,BCA-102473,7/24/2021
43475 Sheephorn Rd,Big Bear,CA,92314,34.2359525,-116.8539698,BCA-103729,10/7/2021
580 Silver Tip Dr,Big Bear Lake,CA,92315,34.2415798,-116.8642776,BCA-103229,8/13/2021
768 Silver Tip Dr,Big Bear Lake,CA,92315,34.238025,-116.8626556,BCA-104576,12/1/2021
118 Silver Pick Rd,Big Bear Lake,CA,92315,34.2502341,-116.8776218,BCA-104551,12/8/2021
738 Silver Tip Dr,Big Bear Lake,CA,92315,34.2387032,-116.8634954,BCA-105167,3/4/2022
788 Silver Tip Dr,Big Bear,CA,92314,34.2377365,-116.8622989,BCA-103960,10/19/2021
40573 Simonds Dr #1,Big Bear Lake,CA,92315,34.2433769,-116.9164073,BCA-103442,8/13/2021
40592 Simonds Dr APT 1,Big Bear Lake,CA,92315,34.2440837,-116.9164247,BCA-104009,11/18/2021
433 Dixie Ln,Big Bear Lake,CA,92315,34.2447849,-116.9278736,BCA-102897,8/20/2021
338 Dover,Big Bear Lake,CA,92315,34.246713,-116.932041,BCA-104156,12/28/2021
143 N Eagle Rd,Eagle,ID,83616,43.6963198,-116.3543949,BCA-102643,6/13/2021
Eagle Dr,Big Bear Lake,CA,92315,34.2500909,-116.9016036,BCA-104217,12/1/2021
286 Eagle Dr,Big Bear Lake,CA,92315,34.2471802,-116.8996149,BCA-103048,9/14/2021
42717 Edelweiss Dr,Big Bear Lake,CA,92315,34.2462142,-116.8700756,BCA-104281,11/10/2021
630 Summit Blvd,Big Bear Lake,CA,92315,34.2409127,-116.8888027,BCA-105401,3/14/2022
786 Summit Blvd,Big Bear Lake,CA,92315,34.2380829,-116.8888487,BCA-103637,9/18/2021
Sunset St,Mt Vernon,OH,43050,40.4038692,-82.489187,BCA-103888,10/8/2021
43083 Sunset Dr,Big Bear Lake,CA,92315,34.239294,-116.862368,BCA-105434,3/16/2022
43109 Sunset Dr,Big Bear Lake,CA,92315,34.2393351,-116.8618388,BCA-104887,2/3/2022
43166 Sunset Dr,Big Bear Lake,CA,92315,34.2379702,-116.859768,BCA-103703,10/16/2021
43172 Sunset Dr,Big Bear Lake,CA,92315,34.2375329,-116.8596646,BCA-104417,11/17/2021
41557 Swan Dr,Big Bear Lake,CA,92315,34.2480474,-116.8954281,BCA-103482,10/21/2021
41596 Comstock Ln,Big Bear Lake,CA,92315,34.2409034,-116.894646,BCA-104039,11/6/2021
41755 Comstock Ln,Big Bear Lake,CA,92315,34.2395104,-116.8913333,BCA-103237,9/18/2021
42737 Conifer Dr,Big Bear Lake,CA,92315,34.242513,-116.869962,BCA-104067,11/3/2021
42745 Conifer Dr,Big Bear Lake,CA,92315,34.242374,-116.869759,BCA-103281,8/13/2021
668 Conklin Rd,Big Bear Lake,CA,92315,34.2405146,-116.8997069,BCA-103904,10/29/2021
678 Conklin Rd,Big Bear Lake,CA,92315,34.2402947,-116.8996149,BCA-104982,2/4/2022
788 Conklin Rd,Big Bear Lake,CA,92315,34.2383619,-116.8996149,BCA-105211,2/16/2022
42585 Constellation Dr,Big Bear Lake,CA,92315,34.243296,-116.87316,BCA-104208,11/4/2021
42646 Constellation Dr,Big Bear Lake,CA,92315,34.2438051,-116.8718816,BCA-104187,11/22/2021
42730 Constellation Dr,Big Bear Lake,CA,92315,34.2438893,-116.8700295,BCA-104233,11/5/2021
42701 Cougar Rd,Big Bear Lake,CA,92315,34.241874,-116.8707198,BCA-103655,11/28/2021
42738 Cougar Rd,Big Bear Lake,CA,92315,34.2420179,-116.8699106,BCA-104193,11/3/2021
42751 Willow Ave,Big Bear Lake,CA,92315,34.23596,-116.869259,BCA-104931,1/22/2022
42818 Willow Ave,Big Bear Lake,CA,92315,34.2362821,-116.8679589,BCA-104988,12/13/2021
42834 Willow Ave,Big Bear Lake,CA,92315,34.236358,-116.8676368,BCA-103067,8/18/2021
38998 Willow Landing Rd,Big Bear Lake,CA,92315,34.2410466,-116.951138,BCA-104697,1/6/2022
39030 Willow Landing Rd,Big Bear Lake,CA,92315,34.2408439,-116.9505055,BCA-102548,6/8/2021
43659 Wolf Rd,Big Bear Lake,CA,92315,34.2338694,-116.8496441,BCA-104078,11/13/2021
43809 Wolf Rd,Big Bear Lake,CA,92315,34.23258430000001,-116.8463767,BCA-103881,11/2/2021
317 Wren Ave,Sebring,FL,33870,27.4978482,-81.4971228,BCA-102543,5/29/2021
43722 Yosemite Dr,Big Bear Lake,CA,92315,34.2313808,-116.8478954,BCA-103420,10/24/2021
43747 Yosemite Dr,Big Bear Lake,CA,92315,34.2307207,-116.8476193,BCA-104420,11/17/2021
716 Main St,Norwalk,IA,50211,41.474674,-93.6785465,BCA-104906,1/11/2022
710 Marin Rd,Big Bear Lake,CA,92315,34.2398504,-116.9072982,BCA-102819,8/21/2021
41431 Mcwhinney Ln,Big Bear Lake,CA,92315,34.2409828,-116.8982347,BCA-105169,3/13/2022
42580 La Cerena Ave,Big Bear Lake,CA,92315,34.237672,-116.8732221,BCA-102918,7/29/2021
42714 La Cerena Ave,Big Bear Lake,CA,92315,34.2376201,-116.8702711,BCA-105097,2/23/2022
42807 La Cerena Ave,Big Bear Lake,CA,92315,34.237274,-116.868193,BCA-104033,11/5/2021
42609 La Placida Ave,Big Bear Lake,CA,92315,34.23795,-116.872573,BCA-104425,11/14/2021
42617 La Placida Ave,Big Bear Lake,CA,92315,34.2379286,-116.8724223,BCA-104211,11/15/2021
42663 La Placida Ave,Big Bear Lake,CA,92315,34.2379732,-116.8714215,BCA-102758,8/2/2021
42816 Monterey St,Big Bear Lake,CA,92315,34.2411306,-116.868235,BCA-103706,9/13/2021
43005 Monterey St,Big Bear Lake,CA,92315,34.2404769,-116.8640015,BCA-105094,2/1/2022
42988 Moonridge Rd,Big Bear Lake,CA,92315,34.2380541,-116.8643697,BCA-103673,9/24/2021
43130 Moonridge Rd,Big Bear Lake,CA,92315,34.2349804,-116.8603202,BCA-104387,12/18/2021
445 Morningstar Pl,Big Bear Lake,CA,92315,34.2574351,-116.8765405,BCA-103880,11/4/2021
364 Mountain Aire,Boone,NC,28607,36.2028037,-81.69198999999999,BCA-103023,9/26/2021
43121 Grizzly Ct,Big Bear Lake,CA,92315,34.2388363,-116.8615627,BCA-103519,10/19/2021
516 Highland Rd,Highland,MI,48357,42.6422861,-83.62207579999999,BCA-103453,8/30/2021
39978 Hillcrest Dr,Big Bear Lake,CA,92315,34.2395465,-116.9290007,BCA-104068,12/9/2021
40020 Hillcrest Dr,Big Bear Lake,CA,92315,34.2389423,-116.9288742,BCA-104532,11/30/2021
40031 Hillcrest Dr,Big Bear Lake,CA,92315,34.2384406,-116.9287822,BCA-104780,2/10/2022
256 Lagunita Ln Unit A & B,Big Bear Lake,CA,92315,34.2479579,-116.9278621,BCA-101295,5/28/2021
120 Lagunita Ln,Big Bear Lake,CA,92315,34.2505252,-116.9308316,BCA-102826,6/17/2021
42958 Falls Ave,Big Bear,CA,92314,34.23135000000001,-116.8649092,BCA-105023,1/24/2022
41785 Switzerland Dr,Big Bear Lake,CA,92315,34.2373298,-116.8905051,BCA-103248,8/13/2021
722 Summit Blvd Unit B,Big Bear Lake,CA,92315,34.2392616,-116.8888027,BCA-103408,8/28/2021
422 Quail Dr,Big Bear Lake,CA,92315,34.24493229999999,-116.8955744,BCA-103324,8/20/2021
42340 Juniper Dr,Big Bear Lake,CA,92315,34.2507235,-116.8784139,BCA-103508,9/12/2021
42625 Avalon Rd,Big Bear Lake,CA,92315,34.2440471,-116.8726063,BCA-105203,2/11/2022
569 Summit Blvd # 4,Big Bear Lake,CA,92315,34.2421221,-116.8880467,BCA-104432,11/18/2021
39262 Willow Landing Rd,Big Bear Lake,CA,92315,34.2397916,-116.9455373,BCA-104815,1/8/2022
42765 Cougar Rd,Big Bear Lake,CA,92315,34.2413563,-116.8693955,BCA-102864,6/30/2021
203 Alp Ct,Big Bear Lake,CA,92315,34.24889520000001,-116.8908962,BCA-104258,11/25/2021
216 Alp Ct,Big Bear Lake,CA,92315,34.2484498,-116.8913333,BCA-102778,6/24/2021
42504 Alta Vista Ave,Big Bear Lake,CA,92315,34.2429781,-116.8750911,BCA-104851,1/16/2022
42639 Alta Vista Ave,Big Bear Lake,CA,92315,34.2425261,-116.8720542,BCA-104521,11/10/2021
42671 Alta Vista Ave,Big Bear Lake,CA,92315,34.2426887,-116.871364,BCA-102874,6/7/2021
299 Andes Ln,Big Bear Lake,CA,92315,34.2471693,-116.890275,BCA-102751,8/6/2021
892 Andrew Ln,Big Bear Lake,CA,92315,34.2365096,-116.9140725,BCA-103718,10/10/2021
435 Arroyo Dr,Big Bear Lake,CA,92315,34.2447973,-116.9284602,BCA-103463,10/3/2021
1213 Aspen Dr,Big Bear Lake,CA,92315,34.22840559999999,-116.8649334,BCA-104251,11/6/2021
42444 Avalon Rd,Big Bear Lake,CA,92315,34.2452548,-116.8761954,BCA-103815,10/16/2021
1307 Balsam Dr,Big Bear Lake,CA,92315,34.2283993,-116.8638837,BCA-103150,7/19/2021
42611 Peregrine Ave,Big Bear,CA,92314,34.2386358,-116.8725833,BCA-104355,12/7/2021
42644 Peregrine Ave,Big Bear Lake,CA,92315,34.2390126,-116.8718816,BCA-103448,8/13/2021
892 Pine Knot Ave,Big Bear Lake,CA,92315,34.2364755,-116.9115307,BCA-103134,7/26/2021
43115 Plymouth Rd,Big Bear Lake,CA,92315,34.2372438,-116.8616547,BCA-104102,10/28/2021
636 Ponderosa Dr,Big Bear Lake,CA,92315,34.2407957,-116.8875489,BCA-103616,9/18/2021
174 Finch Dr,Big Bear Lake,CA,92315,34.2492318,-116.900305,BCA-103120,7/9/2021
41010 Foothill Ln,Big Bear Lake,CA,92315,34.2430972,-116.9072752,BCA-104699,12/15/2021
39662 Forest Rd,Big Bear Lake,CA,92315,34.24855,-116.936606,BCA-104084,11/15/2021
39776 Forest Rd,Big Bear Lake,CA,92315,34.2475881,-116.9340264,BCA-103016,7/21/2021
39957 Forest Rd,Big Bear Lake,CA,92315,34.245515,-116.930331,BCA-103492,9/4/2021
40059 Forest Rd,Big Bear Lake,CA,92315,34.2427582,-116.9282302,BCA-103349,8/31/2021
40067 Forest Rd,Big Bear Lake,CA,92315,34.2423882,-116.9280922,BCA-104103,10/28/2021
42175 Fox Farm Rd,Big Bear Lake,CA,92315,34.2486304,-116.8813488,BCA-105357,4/19/2022
41733 Tanager Dr,Big Bear Lake,CA,92315,34.2462985,-116.8917473,BCA-103371,10/17/2021
41750 Tanager Dr,Big Bear Lake,CA,92315,34.2464799,-116.8911492,BCA-103511,9/5/2021
108 Teakwood Dr,Carolina Beach,NC,28428,34.0525,-77.8915889,BCA-104477,1/30/2022
755 Tehama Dr,Big Bear,CA,92314,34.2385545,-116.8639555,BCA-104106,12/2/2021
451 Temple Ln,Big Bear Lake,CA,92315,34.2447747,-116.925148,BCA-104762,12/30/2021
518 Temple Ln,Big Bear Lake,CA,92315,34.2432717,-116.9241819,BCA-104925,2/7/2022
637 Temple Ln,Big Bear Lake,CA,92315,34.2410766,-116.9230779,BCA-103373,10/9/2021
419 Tennessee Ln,Big Bear Lake,CA,92315,34.2450396,-116.9272641,BCA-104538,1/28/2022
473 Tennessee Ln,Palo Alto,CA,94306,37.4126548,-122.1230839,BCA-104527,10/24/2021
132 Round Dr,Big Bear Lake,CA,92315,34.251918,-116.940826,BCA-104567,12/19/2021
649 St Moritz Dr,Big Bear Lake,CA,92315,34.240557,-116.890273,BCA-104093,11/9/2021
746 St Moritz Dr,Big Bear Lake,CA,92315,34.2389358,-116.8913793,BCA-103798,11/15/2021
1257 Sand Canyon Ct,Big Bear Lake,CA,92315,34.229652,-116.847486,BCA-105281,4/20/2022
43189 Sand Canyon Rd,Big Bear Lake,CA,92315,34.2323173,-116.8599981,BCA-104344,11/15/2021
43727 Sand Canyon Rd,Big Bear Lake,CA,92315,34.2298175,-116.8480334,BCA-104118,11/19/2021
243 Santa Clara Blvd,Big Bear Lake,CA,92315,34.2479136,-116.8752521,BCA-104642,12/8/2021
372 Scandia Rd,Big Bear Lake,CA,92315,34.246139,-116.8780819,BCA-105311,3/15/2022
430 Shady Ln,Big Bear Lake,CA,92315,34.2450219,-116.9305763,BCA-105330,3/2/2022
42810 Encino Rd,Big Bear Lake,CA,92315,34.2405245,-116.8682004,BCA-104827,1/12/2022
42929 Encino Rd,Big Bear Lake,CA,92315,34.2399038,-116.8657501,BCA-104297,11/12/2021
42936 Encino Rd,Big Bear Lake,CA,92315,34.2402547,-116.865578,BCA-103457,8/21/2021
43025 Encino Rd,Big Bear Lake,CA,92315,34.2398789,-116.8636334,BCA-102527,6/15/2021
40147 Esterly Ln,Big Bear Lake,CA,92315,34.2408134,-116.9261946,BCA-103449,8/13/2021
40194 Esterly Ln,Big Bear Lake,CA,92315,34.24108349999999,-116.9251365,BCA-103892,10/8/2021
193 N Eureka Dr,Big Bear Lake,CA,92315,34.2525769,-116.9015703,BCA-104406,12/2/2021
42736 Sonoma Dr,Big Bear Lake,CA,92315,34.2412821,-116.8699464,BCA-103543,9/14/2021
646 Spruce Rd,Big Bear Lake,CA,92315,34.2408965,-116.9212837,BCA-103689,10/3/2021
664 Spruce Rd,Big Bear Lake,CA,92315,34.2406147,-116.9212837,BCA-105235,3/29/2022
674 Spruce Rd,Big Bear Lake,CA,92315,34.2404613,-116.9214217,BCA-103450,8/14/2021
605 St Moritz Dr,Big Bear Lake,CA,92315,34.2414111,-116.890275,BCA-105385,3/13/2022
488 Starlight Cir,Big Bear Lake,CA,92315,34.2560613,-116.8723763,BCA-103387,8/26/2021
100 Starvation Flats Rd,Big Bear Lake,CA,92315,34.250381,-116.8790482,BCA-105142,11/12/2021
39112 Starview Ln,Big Bear Lake,CA,92315,34.2423695,-116.9486081,BCA-105029,1/28/2022
671 Cove Dr,Big Bear Lake,CA,92315,34.2417416,-116.9596013,BCA-103679,10/21/2021
367 Crater Lake Rd,Big Bear Lake,CA,92315,34.2458118,-116.8739314,BCA-103441,8/7/2021
429 Crater Lake Rd,Big Bear Lake,CA,92315,34.2448897,-116.8727904,BCA-104081,11/14/2021
802 Crestwood Dr,Big Bear Lake,CA,92315,34.2377511,-116.8860121,BCA-104599,12/4/2021
363 Crystal Lake Rd,Big Bear Lake,CA,92315,34.2455896,-116.8742628,BCA-104872,1/10/2022
470 Crystal Lake Rd,Big Bear Lake,CA,92315,34.24371,-116.8749761,BCA-102583,6/25/2021
508 Vista Ln,Edmond,OK,73034,35.6493943,-97.45133779999999,BCA-104066,12/12/2021
576 Vista Ln,Big Bear Lake,CA,92315,34.2422887,-116.9262981,BCA-104619,12/7/2021
38799 Waterview Dr,Big Bear Lake,CA,92315,34.2445954,-116.9558757,BCA-103899,10/2/2021
38841 Waterview Dr,Big Bear Lake,CA,92315,34.2442527,-116.9547718,BCA-104393,12/18/2021
38928 Waterview Dr,Big Bear Lake,CA,92315,34.24421,-116.952729,BCA-104852,11/21/2021
42568 Willow Ave,Big Bear Lake,CA,92315,34.2363648,-116.8734214,BCA-105384,3/27/2022
42601 Willow Ave,Big Bear Lake,CA,92315,34.2360036,-116.8726869,BCA-103135,6/26/2021
41631 Brownie Ln #116,Big Bear Lake,CA,92315,34.24209,-116.893807,BCA-104212,11/20/2021
1308 Buffalo Ct,Big Bear Lake,CA,92315,34.2284311,-116.8563167,BCA-104992,2/27/2022
777 Cameron Dr,Big Bear Lake,CA,92315,34.2383944,-116.9139345,BCA-104761,12/29/2021
861 Cameron Dr,Big Bear Lake,CA,92315,34.2373762,-116.9130029,BCA-104743,1/3/2022
43846 Canyon Crest Dr,Big Bear Lake,CA,92315,34.2312918,-116.8453643,BCA-102931,7/10/2021
834 Birch St,Big Bear,CA,92314,34.2369791,-116.8708118,BCA-103567,10/4/2021
860 Birch St,Big Bear Lake,CA,92315,34.2365551,-116.8708065,BCA-104236,11/5/2021
463 Blue Jay Ln,Satellite Beach,FL,32937,28.2102501,-80.6082031,BCA-103501,9/4/2021
760 Blue Jay Rd #3,Big Bear Lake,CA,92315,34.2386284,-116.9481712,BCA-102656,6/22/2021
760 Bluejay Rd #39,Big Bear Lake,CA,92315,34.2389095,-116.9484323,BCA-104485,11/8/2021
760 Bluejay Rd #45,Big Bear Lake,CA,92315,34.2389095,-116.9484323,BCA-103618,9/18/2021
40221 Bonita Ln,Big Bear Lake,CA,92315,34.2432008,-116.9236299,BCA-103945,10/16/2021
741 Boulder Bay Ct,Big Bear Lake,CA,92315,34.2396038,-116.9490681,BCA-104173,12/16/2021
43580 Bow Canyon Rd,Big Bear Lake,CA,92315,34.2279048,-116.8510247,BCA-104927,2/24/2022
43598 Bow Canyon Rd,Big Bear Lake,CA,92315,34.2273764,-116.8507025,BCA-103950,10/19/2021
43410 Bow Canyon Rd,Big Bear Lake,CA,92315,34.2308869,-116.8547406,BCA-105129,2/4/2022
430 Catalina Rd,Big Bear Lake,CA,92315,34.2444475,-116.8798329,BCA-104822,1/8/2022
439 Catalina Rd,Big Bear Lake,CA,92315,34.2443917,-116.8790022,BCA-104718,1/17/2022
42674 Cedar Ave,Big Bear Lake,CA,92315,34.2369579,-116.8711329,BCA-104845,1/13/2022
447 Cienega Rd,Big Bear Lake,CA,92315,34.24485,-116.943363,BCA-102568,6/11/2021
549 Cienega Rd,Big Bear Lake,CA,92315,34.2431916,-116.9430883,BCA-102792,6/28/2021
40565 Big Bear Blvd Unit A,Big Bear Lake,CA,92315,34.2422502,-116.9166603,BCA-103829,9/23/2021
1334 Balsam Dr,Big Bear Lake,CA,92315,34.2280139,-116.8644157,BCA-103234,9/4/2021
1363 Balsam Dr,Big Bear Lake,CA,92315,34.2273657,-116.8642684,BCA-103303,8/19/2021
43100 Bear Creek Ct,Big Bear Lake,CA,92315,34.23134900000001,-116.861867,BCA-103512,9/26/2021
1124 Sylvan Glen,Big Bear Lake,CA,92315,34.2317798,-116.8660837,BCA-103883,10/31/2021
1132 Sylvan Glen,Big Bear Lake,CA,92315,34.231602,-116.866019,BCA-103474,10/7/2021
1168 Sylvan Glen,Big Bear Lake,CA,92315,34.230949,-116.866005,BCA-104571,12/20/2021
667 Talmadge Rd,Big Bear Lake,CA,92315,34.2404657,-116.9217438,BCA-104793,10/5/2021
696 Talmadge Rd,Big Bear Lake,CA,92315,34.2400829,-116.9223418,BCA-104302,11/11/2021
775 Tamarack Landing,Big Bear Lake,CA,92315,34.2389884,-116.9552889,BCA-103140,8/5/2021
662 Cienega Rd,Big Bear Lake,CA,92315,34.2406064,-116.9424444,BCA-102895,7/16/2021
681 Cienega Rd Unit B,Big Bear Lake,CA,92315,34.2401993,-116.9409175,BCA-105185,11/15/2021
858 Club View Dr,Big Bear Lake,CA,92315,34.2365903,-116.8669926,BCA-104864,1/31/2022
43496 Colusa Dr,Big Bear,CA,92314,34.2330568,-116.8530955,BCA-103456,8/25/2021
511 Lakeview Ct,Big Bear Lake,CA,92315,34.2432521,-116.9206857,BCA-103772,10/30/2021
40063 Lakeview Dr,Big Bear Lake,CA,92315,34.2472583,-116.9275861,BCA-102639,6/8/2021
40280 Lakeview Dr,Big Bear Lake,CA,92315,34.2446816,-116.9229859,BCA-105339,3/3/2022
39802 Lakeview Dr #28,Big Bear Lake,CA,92315,34.249065,-116.933749,BCA-103027,7/17/2021
41573 Mcwhinney Ln,Big Bear Lake,CA,92315,34.24135860000001,-116.895106,BCA-104531,11/30/2021
41632 Mcwhinney Ln,Big Bear Lake,CA,92315,34.2417834,-116.8938178,BCA-103893,10/24/2021
853 Menlo Dr,Big Bear Lake,CA,92315,34.2364921,-116.8578353,BCA-104270,11/30/2021
41571 Mockingbird Dr,Big Bear Lake,CA,92315,34.2467621,-116.8952441,BCA-105016,1/16/2022
661 Modoc Dr,Big Bear Lake,CA,92315,34.2404256,-116.9188455,BCA-104460,1/7/2022
450 Jeffries Rd,Big Bear Lake,CA,92315,34.2444815,-116.9020073,BCA-104549,12/4/2021
42628 Juniper Dr,Big Bear Lake,CA,92315,34.250303,-116.8723763,BCA-104271,11/30/2021
42672 Juniper Dr,Big Bear Lake,CA,92315,34.2502067,-116.8713755,BCA-103966,11/1/2021
653 Knight Ave,Big Bear Lake,CA,92315,34.240777,-116.90406,BCA-105002,1/2/2022
693 Knight Ave,Big Bear Lake,CA,92315,34.2400871,-116.9040777,BCA-104671,11/23/2021
195 Knoll Rd,Big Bear Lake,CA,92315,34.2492759,-116.9359124,BCA-104282,10/25/2021
41487 Oak St,Big Bear Lake,CA,92315,34.2394639,-116.8969924,BCA-103624,9/15/2021
41497 Oak St,Big Bear Lake,CA,92315,34.2393865,-116.8968084,BCA-104257,11/8/2021
39981 Ohio Ln,Big Bear Lake,CA,92315,34.2412665,-116.9296447,BCA-104543,1/17/2022
239 Olympic Rd,Pittsburgh,PA,15236,40.3388429,-79.9914534,BCA-104838,1/14/2022
167 Oriole Dr,Big Bear Lake,CA,92315,34.2496392,-116.8979816,BCA-103521,8/6/2021
211 Orion Way,Big Bear Lake,CA,92315,34.2528105,-116.8723303,BCA-105289,3/19/2022
42356 Paramount Rd,Big Bear Lake,CA,92315,34.246901,-116.878266,BCA-105490,4/7/2022
42368 Paramount Rd,Big Bear Lake,CA,92315,34.2469552,-116.8780359,BCA-103514,8/22/2021
41692 Park Ave,Big Bear Lake,CA,92315,34.2451655,-116.8923685,BCA-104292,11/10/2021
563 Georgia St,Big Bear Lake,CA,92315,34.242328,-116.900213,BCA-103194,9/17/2021
611 Georgia St,Big Bear Lake,CA,92315,34.241513,-116.9000405,BCA-102552,6/20/2021
810 Georgia St,Key West,FL,33040,24.5581937,-81.7915816,BCA-104320,11/30/2021
834 Georgia St,Vallejo,CA,94590,38.1012242,-122.248704,BCA-102281,6/26/2021
394 Glenwood Dr,Big Bear Lake,CA,92315,34.2562676,-116.8703056,BCA-102507,6/15/2021
42438 Golden Oak Rd,Big Bear Lake,CA,92315,34.2552694,-116.8757353,BCA-104272,11/30/2021
570 Golden W Dr,Big Bear Lake,CA,92315,34.24202770000001,-116.8895389,BCA-104119,11/19/2021
634 Golden W Dr,Redlands,CA,92373,34.0316825,-117.1434104,BCA-103188,8/7/2021
709 Golden W Dr,Big Bear Lake,CA,92315,34.2394273,-116.8891248,BCA-104449,1/4/2022
42642 Gold Rush Dr,Big Bear Lake,CA,92315,34.2511479,-116.8721232,BCA-105199,2/25/2022
42749 Gold Rush Dr,Big Bear,CA,92314,34.2510088,-116.8696384,BCA-103690,9/25/2021
863 Ravine Rd,Big Bear Lake,CA,92315,34.2363951,-116.8601707,BCA-103833,11/16/2021
43682 Ridgecrest Dr,Big Bear Lake,CA,92315,34.2257552,-116.8488618,BCA-103766,10/25/2021
43556 Ridgecrest Dr,Big Bear Lake,CA,92315,34.23002870000001,-116.8515424,BCA-103499,12/7/2021
1464 Rockspray Dr,Big Bear Lake,CA,92315,34.2262598,-116.8530495,BCA-104578,12/3/2021
319 Eureka Dr,Big Bear Lake,CA,92315,34.246799,-116.8980736,BCA-104871,7/24/2021
753 Eureka Dr,Big Bear Lake,CA,92315,34.2388917,-116.8979241,BCA-103796,10/1/2021
774 Eureka Dr,Big Bear Lake,CA,92315,34.238531,-116.8985567,BCA-105414,4/9/2022
41931 Evergreen Dr,Big Bear Lake,CA,92315,34.2394075,-116.8873303,BCA-104138,11/12/2021
42109 Evergreen Dr,Big Bear Lake,CA,92315,34.2396414,-116.8833504,BCA-104687,1/7/2022
625 Thrush Dr,Big Bear Lake,CA,92315,34.2409769,-116.8921154,BCA-104300,11/12/2021
572 Vail Ln,Big Bear Lake,CA,92315,34.2418988,-116.8841096,BCA-103129,8/5/2021
43557 Shasta Pl,Big Bear Lake,CA,92315,34.2249518,-116.851761,BCA-103890,10/8/2021
43490 Sheephorn Rd,Big Bear,CA,92314,34.2362971,-116.8548317,BCA-103858,10/9/2021
825 Silver Tip Dr,Big Bear Lake,CA,92315,34.23726389999999,-116.8610565,BCA-104580,12/1/2021
585 Silvertip Dr,Incline Village,NV,89451,39.2516695,-119.9782765,BCA-104293,11/10/2021
780 Daisy Ln,Big Bear Lake,CA,92315,34.241105,-116.9364184,BCA-103156,9/11/2021
42592 Donez Way,Big Bear Lake,CA,92315,34.2482066,-116.8727797,BCA-102839,7/10/2021
40203 Dream St,Big Bear Lake,CA,92315,34.2420108,-116.924918,BCA-104470,12/12/2021
158 Eagle Dr,Ephrata,PA,17522,40.149819,-76.199052,BCA-105237,3/26/2022
42848 Eagles Flight Pl,Big Bear Lake,CA,92315,34.255646,-116.8680739,BCA-104643,12/8/2021
42252 Eagle Ridge Dr,Big Bear Lake,CA,92315,34.257081,-116.8811172,BCA-103348,11/7/2021
42336 Eagle Ridge,Big Bear Lake,CA,92315,34.2573487,-116.878358,BCA-104550,12/6/2021
255 Echo Hill Rd,Big Bear Lake,CA,92315,34.2535977,-116.8686491,BCA-104693,1/7/2022
114 Stony Creek Rd,Big Bear Lake,CA,92315,34.2509158,-116.8684095,BCA-103018,8/21/2021
569 Summit Blvd,Big Bear Lake,CA,92315,34.2418956,-116.8881355,BCA-104727,1/31/2022
569 Summit Blvd APT 6,Big Bear Lake,CA,92315,34.2420397,-116.8880478,BCA-105006,3/9/2022
655 Summit Blvd Unit B,Big Bear Lake,CA,92315,34.240437,-116.88814,BCA-103483,10/27/2021
795 Summit Blvd # 2,Big Bear Lake,CA,92315,34.2378531,-116.8882612,BCA-102546,6/26/2021
795 Summit Blvd APT 4,Big Bear Lake,CA,92315,34.2379123,-116.8881612,BCA-104014,11/18/2021
2218 W Houston St,Broken Arrow,OK,74012,36.0467902,-95.8168618,BCA-103195,8/11/2021
Sunset Dr,Columbus,OH,43202,40.0236975,-83.0187308,BCA-103455,8/21/2021
787 Switzerland Pl,Big Bear Lake,CA,92315,34.2381569,-116.8904131,BCA-105080,2/6/2022
41728 Switzerland Dr,Big Bear Lake,CA,92315,34.2377617,-116.8917473,BCA-104979,1/25/2022
41829 Switzerland Dr,Big Bear Lake,CA,92315,34.2373819,-116.8895158,BCA-103350,8/24/2021
41935 Switzerland Dr Apt 101,Big Bear Lake,CA,92315,34.2362636,-116.8860721,BCA-103745,11/20/2021
41935 Switzerland Dr,Big Bear Lake,CA,92315,34.2367465,-116.8873221,BCA-105089,2/13/2022
41664 Comstock Ln,Big Bear Lake,CA,92315,34.2408845,-116.8931046,BCA-103252,8/6/2021
42741 Conifer Dr,Big Bear Lake,CA,92315,34.2424425,-116.8698455,BCA-103459,9/3/2021
42786 Conifer Dr,Big Bear Lake,CA,92315,34.2425897,-116.8688792,BCA-104998,2/11/2022
779 Conklin Rd,Big Bear Lake,CA,92315,34.238489,-116.8992468,BCA-104881,2/14/2022
879 Conklin Rd,Big Bear Lake,CA,92315,34.2366366,-116.8992468,BCA-104215,10/26/2021
42649 Constellation Dr,Big Bear Lake,CA,92315,34.243284,-116.871871,BCA-103244,9/27/2021
42678 Cougar Rd,Big Bear Lake,CA,92315,34.2423361,-116.871175,BCA-104752,1/17/2022
42753 Cougar Rd,Big Bear Lake,CA,92315,34.2414311,-116.8695234,BCA-104973,2/19/2022
42817 Willow Ave,Big Bear Lake,CA,92315,34.235955,-116.867977,BCA-104685,1/4/2022
42825 Willow Ave,Big Bear Lake,CA,92315,34.2360052,-116.8678093,BCA-103484,10/27/2021
39209 Willow Landing Rd APT 1,Big Bear Lake,CA,92315,34.2392264,-116.9466922,BCA-103710,11/9/2021
39209 Willow Landing Rd APT 2,Big Bear Lake,CA,92315,34.2392249,-116.9465268,BCA-103354,9/25/2021
39214 Willow Landing Rd,Big Bear Lake,CA,92315,34.2399605,-116.9465382,BCA-103485,10/27/2021
711 Winterset Ct,Big Bear Lake,CA,92315,34.23934150000001,-116.8847077,BCA-103812,10/6/2021
43669 Wolf Rd,Big Bear Lake,CA,92315,34.2336525,-116.849368,BCA-104416,11/17/2021
43863 Wolf Rd,Big Bear Lake,CA,92315,34.2315346,-116.8451457,BCA-103328,10/31/2021
568 Wren Dr,Big Bear Lake,CA,92315,34.2422777,-116.8965438,BCA-103819,10/21/2021
43651 Yosemite Dr,Big Bear Lake,CA,92315,34.231465,-116.8501043,BCA-102256,6/19/2021
43766 Yosemite Dr,Big Bear Lake,CA,92315,34.2309421,-116.847021,BCA-104525,12/11/2021
43850 Yosemite Dr,Big Bear Lake,CA,92315,34.2305312,-116.8451693,BCA-103228,8/13/2021
1294 Lassen Dr,Big Bear Lake,CA,92315,34.2286096,-116.8582955,BCA-104162,10/31/2021
663 Lintner Rd,Big Bear Lake,CA,92315,34.24090330000001,-116.9347164,BCA-103329,8/20/2021
40229 Mahanoy Ln,Big Bear Lake,CA,92315,34.2413763,-116.9243659,BCA-103579,9/16/2021
40230 Mahanoy Ln,Big Bear Lake,CA,92315,34.2417386,-116.9243659,BCA-103266,9/13/2021
40266 Mahanoy Ln,Big Bear Lake,CA,92315,34.2416927,-116.9235379,BCA-105213,2/17/2022
682 Main St,South Windsor,CT,06074,41.8194111,-72.62003709999999,BCA-103632,9/2/2021
758 Marin Rd,Big Bear Lake,CA,92315,34.238896,-116.9071852,BCA-105382,3/6/2022
780 Marin Rd,Big Bear Lake,CA,92315,34.238539,-116.907193,BCA-104582,10/30/2021
792 Marin Rd,Big Bear Lake,CA,92315,34.2383548,-116.9071946,BCA-104413,11/17/2021
42658 La Cerena Ave,Big Bear Lake,CA,92315,34.2376697,-116.8714302,BCA-103783,10/2/2021
42672 La Cerena Ave,Big Bear Lake,CA,92315,34.2376576,-116.8711799,BCA-102650,6/24/2021
42534 La Placida Ave,Big Bear Lake,CA,92315,34.238341,-116.874207,BCA-104473,12/7/2021
42649 La Placida Ave,Big Bear Lake,CA,92315,34.237947,-116.871746,BCA-104133,11/29/2021
42675 La Placida Ave,Big Bear Lake,CA,92315,34.2379725,-116.8711684,BCA-103432,8/27/2021
42676 La Placida Ave,Big Bear Lake,CA,92315,34.23832489999999,-116.8711085,BCA-103039,7/23/2021
42679 La Placida Ave,Big Bear Lake,CA,92315,34.2379887,-116.8710994,BCA-103431,8/30/2021
117 Lagunita Ln,Big Bear Lake,CA,92315,34.2506852,-116.9313123,BCA-103698,11/27/2021
42819 Monterey St,Big Bear Lake,CA,92315,34.2407015,-116.8680049,BCA-102671,7/16/2021
42827 Monterey St,Big Bear Lake,CA,92315,34.2408254,-116.8678208,BCA-105328,2/25/2022
42871 Monterey St,Big Bear Lake,CA,92315,34.2408007,-116.8669005,BCA-105399,6/1/2021
42929 Monterey St,Big Bear Lake,CA,92315,34.2405079,-116.8657501,BCA-103642,9/27/2021
43021 Monterey St,Big Bear Lake,CA,92315,34.240485,-116.863686,BCA-104502,12/13/2021
43088 Monterey St,Big Bear Lake,CA,92315,34.2407975,-116.8622989,BCA-104977,2/25/2022
813 Mountain Sky Dr,Big Bear Lake,CA,92315,34.2375599,-116.8864561,BCA-104378,12/6/2021
343 Mountainaire Ln,Big Bear Lake,CA,92315,34.246397,-116.9024214,BCA-103677,10/7/2021
791 Mountain Sky Dr,Big Bear Lake,CA,92315,34.237947,-116.886354,BCA-103494,10/17/2021
792 Mountain Sky Dr,Big Bear Lake,CA,92315,34.2379346,-116.8869162,BCA-102658,6/19/2021
40195 Guinan Ln,Big Bear Lake,CA,92315,34.2401556,-116.925102,BCA-103416,10/17/2021
42846 Hawk Dr,Big Bear,CA,92314,34.2414621,-116.8676828,BCA-104858,1/14/2022
42859 Hawk Dr,Big Bear Lake,CA,92315,34.241323,-116.867199,BCA-103516,9/9/2021
659 Highland Rd,Highland,MI,48357,42.64114499999999,-83.6259884,BCA-104232,11/5/2021
861 Highland Ln,Big Bear Lake,CA,92315,34.2369225,-116.924642,BCA-104003,11/21/2021
39965 Hillcrest Dr,Big Bear Lake,CA,92315,34.2397059,-116.9298172,BCA-104368,12/27/2021
880 Jay Bird Ln,Big Bear Lake,CA,92315,34.2367212,-116.9303268,BCA-103785,11/15/2021
41790 Brownie Ln #2,Big Bear Lake,CA,92315,34.2425571,-116.8903679,BCA-103931,11/19/2021
1362 Club View Dr #2,Big Bear,CA,92314,34.2276466,-116.8628972,BCA-103309,7/29/2021
692 Poppy Rd,San Marcos,CA,92078,33.1264373,-117.1798494,BCA-105159,3/18/2022
806 Summit Blvd Unit B,Big Bear Lake,CA,92315,34.2377233,-116.8886961,BCA-103635,9/18/2021
42925 Sunset Dr,Big Bear Lake,CA,92315,34.2392925,-116.8658581,BCA-102975,8/19/2021
42538 La Placida Ave,Big Bear Lake,CA,92315,34.2383437,-116.8740788,BCA-103697,11/1/2021
948 Elk Rd,Big Bear Lake,CA,92315,34.2349906,-116.8589294,BCA-104905,1/20/2022
42647 Alta Vista Ave,Big Bear Lake,CA,92315,34.2425989,-116.8719161,BCA-105222,2/19/2022
889 Andrew Ln,Big Bear Lake,CA,92315,34.2366387,-116.913739,BCA-104511,1/23/2022
443 Arroyo Dr,Big Bear Lake,CA,92315,34.2446254,-116.9285062,BCA-103669,10/25/2021
1214 Aspen Dr,Big Bear Lake,CA,92315,34.2284199,-116.865428,BCA-103158,8/19/2021
41171 Pennsylvania Ave,Big Bear Lake,CA,92315,34.2389379,-116.9041697,BCA-104733,1/3/2022
41245 Pennsylvania Ave,Big Bear Lake,CA,92315,34.23887819999999,-116.9023754,BCA-104472,12/17/2021
42565 Peregrine Ave,Big Bear Lake,CA,92315,34.238613,-116.873554,BCA-102523,6/3/2021
42665 Peregrine Ave,Big Bear Lake,CA,92315,34.2386103,-116.87141,BCA-105504,5/20/2022
42751 Peregrine Ave,Big Bear Lake,CA,92315,34.238597,-116.869278,BCA-103873,10/28/2021
43130 Plymouth Rd,Big Bear Lake,CA,92315,34.2379424,-116.8614246,BCA-103415,10/7/2021
651 Ponderosa Dr,Big Bear Lake,CA,92315,34.240495,-116.887152,BCA-104541,11/30/2021
195 Finch Dr,Big Bear Lake,CA,92315,34.2525361,-116.9027665,BCA-103001,8/13/2021
39863 Forest Rd,Big Bear Lake,CA,92315,34.2460122,-116.9324372,BCA-103032,8/29/2021
39994 Forest Rd,Big Bear Lake,CA,92315,34.2455646,-116.9294722,BCA-104769,1/19/2022
42577 Fox Farm Rd,Big Bear Lake,CA,92315,34.2485264,-116.8732505,BCA-102763,6/22/2021
41706 Tanager Dr,Big Bear Lake,CA,92315,34.2471781,-116.8921154,BCA-104085,11/15/2021
102 Teakwood Dr,Big Bear Lake,CA,92315,34.2504821,-116.8698225,BCA-102492,7/3/2021
138 Teakwood Dr,Bozeman,MT,59718,45.6686261,-111.0969303,BCA-103446,8/12/2021
224 Teakwood Dr,Big Bear Lake,CA,92315,34.2480326,-116.8697074,BCA-103109,8/10/2021
760 Tehama Dr,Big Bear Lake,CA,92315,34.2382149,-116.864135,BCA-103320,8/20/2021
816 Tehama Dr,Big Bear Lake,CA,92315,34.2372733,-116.8628972,BCA-103251,8/14/2021
468 Temple Ln,Big Bear Lake,CA,92315,34.2441772,-116.92478,BCA-105130,8/11/2021
428 Tennessee Ln,Big Bear Lake,CA,92315,34.2449306,-116.9275976,BCA-104895,2/13/2022
186 Round Dr,Big Bear Lake,CA,92315,34.2511883,-116.9384654,BCA-104463,11/23/2021
39414 Ruby Ln,Big Bear Lake,CA,92315,34.2393834,-116.9421684,BCA-104011,11/18/2021
783 St Moritz Dr,Big Bear Lake,CA,92315,34.2381041,-116.8911492,BCA-104907,1/21/2022
1267 San Pasqual Dr,Big Bear Lake,CA,92315,34.2290741,-116.8491379,BCA-104244,11/10/2021
43201 Sand Canyon Rd,Big Bear Lake,CA,92315,34.2324009,-116.8598141,BCA-103340,10/26/2021
43230 Sand Canyon Rd,Big Bear Lake,CA,92315,34.2338091,-116.8593079,BCA-103926,10/14/2021
43275 Sand Canyon Rd,Big Bear Lake,CA,92315,34.2338492,-116.8581114,,
431 Santa Clara Blvd,Big Bear Lake,CA,92315,34.2443922,-116.8754132,BCA-104052,10/20/2021
222 Scandia Rd,Big Bear Lake,CA,92315,34.2485009,-116.878312,BCA-105395,3/8/2022
329 Scandia Rd,Big Bear Lake,CA,92315,34.2462093,-116.87646,BCA-103692,11/28/2021
710 Elm St,Endicott,NY,13760,42.09761719999999,-76.08048889999999,BCA-103024,9/20/2021
42912 Encino Rd,Big Bear Lake,CA,92315,34.2402601,-116.8661183,BCA-103758,10/21/2021
43078 Encino Rd,Big Bear Lake,CA,92315,34.2402305,-116.862483,BCA-103051,9/9/2021
40180 Esterly Ln,Big Bear Lake,CA,92315,34.2411263,-116.925424,BCA-104380,11/23/2021
149 Eureka Dr,Big Bear Lake,CA,92315,34.2499027,-116.8993389,BCA-103148,9/4/2021
1146 Siskiyou Dr,Big Bear Lake,CA,92315,34.2316584,-116.8595034,BCA-104545,1/21/2022
850 Sky High Dr,Big Bear Lake,CA,92315,34.237269,-116.9183165,BCA-103191,9/25/2021
896 Sky High Dr,Big Bear Lake,CA,92315,34.2364893,-116.9182935,BCA-103974,10/15/2021
746 Snowbird Ct,Big Bear Lake,CA,92315,34.2387626,-116.882039,BCA-103915,10/14/2021
42131 Snowmass Ln,Big Bear Lake,CA,92315,34.2429127,-116.8827982,BCA-104041,11/9/2021
42628 Sonoma Dr,Big Bear Lake,CA,92315,34.2418898,-116.8723188,BCA-104198,11/14/2021
42726 Sonoma Dr,Big Bear Lake,CA,92315,34.2413892,-116.8702136,BCA-104684,1/12/2022
360 Starlight Cir,Big Bear Lake,CA,92315,34.254031,-116.871594,BCA-104183,11/19/2021
782 Cove Dr,Big Bear Lake,CA,92315,34.239517,-116.957083,BCA-103583,9/16/2021
419 Crater Lake Rd,Big Bear Lake,CA,92315,34.2452924,-116.8727904,BCA-104338,11/11/2021
425 Crater Lake Rd,Big Bear Lake,CA,92315,34.2451421,-116.8727444,BCA-105030,2/16/2022
124 Crystal Lake Rd,Big Bear Lake,CA,92315,34.2500256,-116.8738947,BCA-102569,6/12/2021
43243 Deer Canyon Rd,Big Bear Lake,CA,92315,34.2322474,-116.8587557,BCA-104785,2/17/2022
529 Vista Ln,Big Bear Lake,CA,92315,34.243122,-116.925838,BCA-102957,7/13/2021
524 Wanita Ln,Big Bear Lake,CA,92315,34.2431707,-116.92478,BCA-103480,10/21/2021
527 Wanita Ln,Big Bear Lake,CA,92315,34.243126,-116.924458,BCA-104007,11/20/2021
42539 Willow Ave,Big Bear Lake,CA,92315,34.236026,-116.8740443,BCA-102686,7/13/2021
42680 Willow Ave,Big Bear Lake,CA,92315,34.2363417,-116.8708721,BCA-104831,1/24/2022
41764 Brownie Ln # 3,Big Bear Lake,CA,92315,34.2425395,-116.8907974,BCA-103823,10/6/2021
42133 Brownie Ln,Big Bear Lake,CA,92315,34.2437832,-116.8825221,BCA-103333,8/22/2021
749 Cameron Dr,Big Bear Lake,CA,92315,34.2387465,-116.913509,BCA-105405,3/9/2022
785 Cameron Dr,Big Bear Lake,CA,92315,34.238294,-116.914061,BCA-103406,6/27/2021
819 Cameron Dr,Big Bear Lake,CA,92315,34.2377539,-116.9132789,BCA-104451,10/25/2021
43752 Canyon Crest Dr,Big Bear Lake,CA,92315,34.2318253,-116.8472051,BCA-103581,9/16/2021
43767 Canyon Crest Dr,Big Bear Lake,CA,92315,34.2313419,-116.8472051,BCA-103964,10/16/2021
42274 Castle Crag Rd,Big Bear Lake,CA,92315,34.2555271,-116.8801065,BCA-102790,8/18/2021
392 Catalina Rd,Big Bear Lake,CA,92315,34.2451892,-116.8800605,BCA-104647,12/8/2021
268 Bluebird Ct,Big Bear Lake,CA,92315,34.2477189,-116.8957962,BCA-105373,4/4/2022
40264 Bonita Ln,Big Bear Lake,CA,92315,34.2427644,-116.9232619,BCA-103369,10/17/2021
43386 Bow Canyon Rd,Big Bear Lake,CA,92315,34.2314726,-116.8552468,BCA-103353,9/26/2021
43466 Bow Canyon Rd,Big Bear Lake,CA,92315,34.2297072,-116.8534636,BCA-102592,6/12/2021
43532 Bow Canyon Rd,Big Bear Lake,CA,92315,34.2287049,-116.8521176,BCA-104725,1/4/2022
43601 Bow Canyon Rd,Big Bear Lake,CA,92315,34.2269783,-116.8510247,BCA-104760,1/31/2022
43602 Bow Canyon Ln,Big Bear Lake,CA,92315,34.2281604,-116.8507946,BCA-104862,12/13/2021
493 Catalina Rd,Big Bear Lake,CA,92315,34.2434374,-116.8775413,BCA-103358,8/1/2021
513 Catalina Rd,Big Bear Lake,CA,92315,34.2430585,-116.8762874,BCA-103836,10/8/2021
520 Catalina Rd,Big Bear Lake,CA,92315,34.2426527,-116.8764715,BCA-103780,11/15/2021
530 Catalina Rd,Big Bear Lake,CA,92315,34.2424018,-116.8758273,BCA-104847,11/5/2021
42547 Cedar Ave,Big Bear Lake,CA,92315,34.2366367,-116.8738027,BCA-104422,11/18/2021
857 Fir St W,Madera,CA,93636,36.9218002,-119.8088447,BCA-104518,11/29/2021
42798 Cedar Ave,Big Bear Lake,CA,92315,34.23695319999999,-116.8683155,BCA-105225,2/19/2022
40742 Cherry Ln,Big Bear Lake,CA,92315,34.2342277,-116.9128649,BCA-105093,1/28/2022
447 Chipmunk Ln,Big Bear Lake,CA,92315,34.2448695,-116.9455263,BCA-105288,2/25/2022
40670 Big Bear Blvd APT 3,Big Bear Lake,CA,92315,34.2443131,-116.9143721,BCA-103060,7/28/2021
40670 Big Bear Blvd # 6,Big Bear Lake,CA,92315,34.2441378,-116.9142251,BCA-105228,2/22/2022
40705 Big Bear Blvd,Big Bear Lake,CA,92315,34.2434723,-116.9137739,BCA-105367,4/29/2022
1340 Balsam Dr,Big Bear Lake,CA,92315,34.22784000000001,-116.8644272,BCA-103592,10/7/2021
1354 Balsam Dr,Big Bear Lake,CA,92315,34.2277672,-116.8645652,BCA-103515,7/5/2021
43090 Bear Creek Ct,Big Bear Lake,CA,92315,34.231704,-116.861648,BCA-104379,10/28/2021
1173 Bear Meadows Ln,Big Bear Lake,CA,92315,34.231223,-116.862197,BCA-105259,2/5/2022
1185 Bear Meadows Ln,Big Bear Lake,CA,92315,34.230982,-116.861663,BCA-102233,6/12/2021
38665 Big Bear Blvd,Big Bear Lake,CA,92315,34.2381242,-116.9587274,BCA-105190,2/22/2022
41935 Switzerland Dr Apt 127,Big Bear Lake,CA,92315,34.2362763,-116.8873293,BCA-104437,11/5/2021
41935 Switzerland Dr Apt 23,Big Bear Lake,CA,92315,34.2364968,-116.8872357,BCA-104542,1/4/2022
41935 Switzerland Dr Apt 65,Big Bear Lake,CA,92315,34.2367177,-116.8856044,BCA-103839,10/7/2021
41935 Switzerland Dr APT 73,Big Bear Lake,CA,92315,34.2370582,-116.885328,BCA-103073,9/20/2021
41935 Switzerland Dr Apt 67,Big Bear Lake,CA,92315,34.2368016,-116.8857355,BCA-104166,12/4/2021
41935 Switzerland Dr APT 5,Big Bear Lake,CA,92315,34.2369762,-116.8873409,BCA-105042,3/20/2022
1120 Sylvan Glen,Big Bear Lake,CA,92315,34.231842,-116.866024,BCA-104865,1/29/2022
41688 Tahoe Dr,Big Bear Lake,CA,92315,34.244279,-116.892557,BCA-104915,2/28/2022
38697 Talbot Dr,Big Bear Lake,CA,92315,34.2370657,-116.9582675,BCA-102775,6/23/2021
618 Talmadge Ln,Canton,GA,30115,34.2692217,-84.4152257,BCA-104219,10/5/2021
746 Talmadge Rd,Big Bear Lake,CA,92315,34.2391307,-116.9228363,BCA-104510,1/31/2022
41941 Tamarack Dr,Big Bear Lake,CA,92315,34.2401573,-116.8870543,BCA-104434,9/26/2021
681 Cienega Rd Unit C,Big Bear Lake,CA,92315,34.2401993,-116.9409175,BCA-105244,1/31/2022
699 Cienega Rd Unit C,Big Bear Lake,CA,92315,34.240054,-116.940645,BCA-103523,9/11/2021
755 Cienega Rd Unit C,Big Bear Lake,CA,92315,34.239406,-116.94102,BCA-104986,1/26/2022
1190 Club View Dr,Big Bear Lake,CA,92315,34.2305816,-116.8625902,BCA-102737,6/18/2021
43575 Colusa Dr,Big Bear Lake,CA,92315,34.2334391,-116.8513008,BCA-104566,12/18/2021
43791 Colusa Dr,Big Bear,CA,92314,34.2318825,-116.8467909,BCA-103768,10/26/2021
39510 Lake Dr,Big Bear Lake,CA,92315,34.2494493,-116.9397764,BCA-104710,12/23/2021
39526 Lake Dr,Big Bear Lake,CA,92315,34.2492513,-116.9395924,BCA-103488,9/3/2021
40190 Lakeview Dr,Big Bear Lake,CA,92315,34.2460227,-116.925148,BCA-103400,10/19/2021
39802 Lakeview Dr #12,Big Bear Lake,CA,92315,34.249065,-116.933749,BCA-102755,6/22/2021
39802 Lakeview Dr #26,Big Bear Lake,CA,92315,34.249065,-116.933749,BCA-102761,6/22/2021
546 Lakewood Ln,Big Bear Lake,CA,92315,34.2428104,-116.9269905,BCA-104122,11/16/2021
561 Lakewood Dr,Oldsmar,FL,34677,28.0528394,-82.6704743,BCA-104053,10/23/2021
598 Landlock Landing,Big Bear Lake,CA,92315,34.2422211,-116.9427663,BCA-103776,10/14/2021
839 Menlo Dr,Big Bear Lake,CA,92315,34.236864,-116.8584796,BCA-104562,12/14/2021
861 Menlo Dr,Big Bear Lake,CA,92315,34.2364575,-116.8574322,BCA-103470,10/3/2021
42738 Juniper Dr,Big Bear Lake,CA,92315,34.2502227,-116.8699835,BCA-103384,10/10/2021
975 Knickerbocker Rd,Big Bear Lake,CA,92315,34.23485,-116.9100585,BCA-103319,8/27/2021
335 Northern Cross Dr,Big Bear Lake,CA,92315,34.2461242,-116.8718241,BCA-104151,10/28/2021
39975 Ohio Ln,Big Bear Lake,CA,92315,34.2413604,-116.9298862,BCA-103050,9/7/2021
354 Olympic Dr,Big Bear Lake,CA,92315,34.2458677,-116.8792323,BCA-103971,10/24/2021
132 Oriole Dr,Big Bear Lake,CA,92315,34.2501212,-116.8989248,BCA-104607,11/13/2021
199 Oriole Dr,Big Bear Lake,CA,92315,34.24911060000001,-116.8974065,BCA-104832,1/12/2022
298 Oriole Dr,Big Bear Lake,CA,92315,34.2472041,-116.8976365,BCA-104983,1/26/2022
754 Oriole Dr,Big Bear Lake,CA,92315,34.2389386,-116.8976826,BCA-105192,11/6/2021
844 Oriole Dr,Big Bear Lake,CA,92315,34.2372748,-116.8976941,BCA-104046,11/5/2021
241 Orion Way,Big Bear Lake,CA,92315,34.2534927,-116.8727674,BCA-104739,12/29/2021
449 Georgia St,Big Bear Lake,CA,92315,34.2444109,-116.900259,BCA-104999,1/25/2022
817 Georgia St,Gary,IN,46402,41.5961855,-87.3267111,BCA-103734,10/17/2021
864 Georgia St,Big Bear Lake,CA,92315,34.236901,-116.9008571,BCA-103065,7/28/2021
39999 Glenview Rd,Big Bear Lake,CA,92315,34.2418825,-116.9293802,BCA-103454,8/21/2021
42402 Golden Oak Rd,Big Bear Lake,CA,92315,34.2555139,-116.8767476,BCA-102448,6/7/2021
42411 Golden Oak Rd,Big Bear Lake,CA,92315,34.2559165,-116.8767476,BCA-104363,12/18/2021
42456 Golden Oak Rd,Big Bear Lake,CA,92315,34.2555978,-116.8753672,BCA-103731,10/7/2021
575 Golden W Dr,Big Bear Lake,CA,92315,34.2418396,-116.8890557,BCA-103029,9/18/2021
763 Golden W Dr,Belgrade,MT,59714,45.7916223,-111.1840047,BCA-103418,9/20/2021
43067 Goldmine Woods Ln,Big Bear Lake,CA,92315,34.23194,-116.862922,BCA-103660,9/23/2021
43378 Primrose Dr,Big Bear Lake,CA,92315,34.2266865,-116.8558566,BCA-105304,3/26/2022
862 Ravine Rd,Big Bear,CA,92314,34.2365834,-116.8606539,BCA-103213,8/13/2021
43360 Ridgecrest Dr,Big Bear Lake,CA,92315,34.2331691,-116.855569,BCA-104260,11/27/2021
43517 Ridgecrest Dr,Big Bear Lake,CA,92315,34.2302648,-116.8526353,BCA-104771,1/4/2022
43548 Ridgecrest Dr,Big Bear Lake,CA,92315,34.2301318,-116.8517034,BCA-104097,10/20/2021
43685 Ridgecrest Dr,Big Bear,CA,92314,34.2256536,-116.8492916,BCA-104764,12/30/2021
1403 Rockspray Dr,Big Bear Lake,CA,92315,34.2264926,-116.8547982,BCA-102813,7/16/2021
1432 Rockspray Dr,Big Bear Lake,CA,92315,34.2250485,-116.85443,BCA-103801,11/27/2021
1477 Rockspray Dr,Big Bear Lake,CA,92315,34.2270655,-116.8530495,BCA-102960,7/29/2021
42293 Evergreen Dr,Big Bear Lake,CA,92315,34.2404939,-116.8793933,BCA-103925,10/22/2021
1118 Club View Dr,Big Bear Lake,CA,92315,34.231834,-116.864147,BCA-104388,11/8/2021
43876 Yosemite Dr,Big Bear Lake,CA,92315,34.2304581,-116.844628,BCA-103719,9/26/2021
43911 Yosemite Dr,Big Bear Lake,CA,92315,34.2292695,-116.8440297,BCA-104467,11/23/2021
685 Thrush Dr,Big Bear Lake,CA,92315,34.2398711,-116.8920234,BCA-102816,8/19/2021
41687 Thrush Ct,Big Bear Lake,CA,92315,34.2364463,-116.892675,BCA-105027,3/24/2022
369 Tyrol Ln,Big Bear Lake,CA,92315,34.245639,-116.8761034,BCA-104621,12/7/2021
43303 Shasta Rd,Big Bear Lake,CA,92315,34.2306979,-116.8574672,BCA-104641,12/8/2021
43397 Shasta Rd,Big Bear Lake,CA,92315,34.2288168,-116.8555344,BCA-105144,2/8/2022
43342 Sheephorn Rd,Big Bear Lake,CA,92315,34.2356997,-116.8566235,BCA-104202,11/21/2021
43433 Sheephorn Rd,Big Bear Lake,CA,92315,34.2341613,-116.8526813,BCA-105361,4/26/2022
43280 Sheephorn Rd,Big Bear Lake,CA,92315,34.23491509999999,-116.8582035,BCA-103265,8/17/2021
43397 Sheephorn Rd,Big Bear Lake,CA,92315,34.2344592,-116.8553504,BCA-103053,9/13/2021
43411 Sheephorn Rd,Big Bear Lake,CA,92315,34.2341026,-116.8537858,BCA-103021,8/2/2021
43458 Sheephorn Rd,Big Bear Lake,CA,92315,34.2352827,-116.8535212,BCA-104074,10/25/2021
641 Silver Tip Dr,Big Bear Lake,CA,92315,34.2405238,-116.8643582,BCA-102888,8/13/2021
568 Silvertip Dr,Incline Village,NV,89451,39.2526655,-119.9799927,BCA-105191,2/11/2022
40577 Simonds Dr,Big Bear Lake,CA,92315,34.24350090000001,-116.9162233,BCA-105071,1/29/2022
42948 Dogwood Dr,Big Bear Lake,CA,92315,34.226082,-116.8649219,BCA-103825,11/9/2021
219 Eagle Dr,Big Bear Lake,CA,92315,34.2529312,-116.9040777,BCA-102190,5/30/2021
42324 Eagle Ridge,Big Bear Lake,CA,92315,34.2574408,-116.8785651,BCA-104749,1/13/2022
41398 Eastwood Rd,Big Bear Lake,CA,92315,34.2480678,-116.8989248,BCA-104395,12/18/2021
42734 Edelweiss Dr,Big Bear Lake,CA,92315,34.2465906,-116.8698455,BCA-104132,11/14/2021
294 Edgemoor Rd,Big Bear Lake,CA,92315,34.2475217,-116.9353719,BCA-103923,10/15/2021
319 Edgemoor Rd,Edgemoor,DE,19809,39.7611724,-75.51184769999999,BCA-103626,9/20/2021
115 Stony Creek Rd,Big Bear Lake,CA,92315,34.2504923,-116.868327,BCA-104086,11/15/2021
127 Stony Creek Rd,Big Bear Lake,CA,92315,34.2508335,-116.8675085,BCA-104023,11/8/2021
569 Summit Blvd,Big Bear Lake,CA,92315,34.2418956,-116.8881355,BCA-103767,10/26/2021
569 Summit Blvd #3,Big Bear Lake,CA,92315,34.2418956,-116.8881355,BCA-103356,8/24/2021
667 Summit Blvd APT 3,Big Bear Lake,CA,92315,34.2401938,-116.8880903,BCA-105165,3/20/2022
743 Summit Blvd,Big Bear Lake,CA,92315,34.238843,-116.8881,BCA-103185,9/23/2021
745 Summit Dr,Palm Springs,CA,92262,33.8661828,-116.5566773,BCA-104259,11/27/2021
42930 Sunset Dr,Big Bear Lake,CA,92315,34.2396327,-116.8657041,BCA-104891,1/10/2022
42964 Sunset Dr,Big Bear Lake,CA,92315,34.2396745,-116.8650139,BCA-103476,10/7/2021
42968 Sunset Dr,Big Bear Lake,CA,92315,34.2396559,-116.8649219,BCA-103554,9/15/2021
43061 Sunset Dr,Big Bear,CA,92314,34.239298,-116.8628511,BCA-105209,2/16/2022
43075 Sunset Dr,Big Bear Lake,CA,92315,34.2393154,-116.8625635,BCA-104362,12/15/2021
43116 Sunset Dr,Big Bear,CA,92314,34.239741,-116.8616547,BCA-104144,12/27/2021
43203 Sunset Dr,Big Bear,CA,92314,34.2366674,-116.8599981,BCA-103956,11/1/2021
41741 Switzerland Dr,Big Bear Lake,CA,92315,34.2374241,-116.8914713,BCA-103121,7/15/2021
41935 Switzerland Dr # 109,Big Bear Lake,CA,92315,34.2360883,-116.8864157,BCA-105044,3/20/2022
42792 Conifer Dr,Big Bear Lake,CA,92315,34.2425014,-116.8687411,BCA-104592,12/3/2021
42798 Conifer Dr,Big Bear Lake,CA,92315,34.242494,-116.86858,BCA-103855,10/8/2021
42804 Conifer Dr,Big Bear Lake,CA,92315,34.2424457,-116.868465,BCA-103005,9/30/2021
42590 Constellation Dr,Big Bear Lake,CA,92315,34.2437373,-116.8730665,BCA-103230,8/13/2021
42697 Cougar Rd,Big Bear Lake,CA,92315,34.2419329,-116.8708118,BCA-102896,7/30/2021
42758 Cougar Rd,Big Bear,CA,92314,34.241852,-116.869426,BCA-102227,6/2/2021
42806 Cougar Rd,Big Bear Lake,CA,92315,34.2417537,-116.8684535,BCA-104015,11/16/2021
42722 Willow Ave,Big Bear Lake,CA,92315,34.23633100000001,-116.8699875,BCA-103127,7/18/2021
751 Winterset Ct,Big Bear Lake,CA,92315,34.2387777,-116.8847077,BCA-104557,12/11/2021
43785 Wolf Rd,Big Bear Lake,CA,92315,34.2329613,-116.8468714,BCA-103075,9/26/2021
1200 Wolf Creek Ct,Big Bear Lake,CA,92315,34.2308911,-116.8608738,BCA-104313,11/12/2021
652 Wren Dr,Big Bear Lake,CA,92315,34.2407511,-116.8964863,BCA-102783,6/23/2021
43790 Yosemite Dr,Big Bear Lake,CA,92315,34.2308382,-116.8466068,BCA-103838,11/7/2021
43791 Yosemite Dr,Big Bear Lake,CA,92315,34.2304137,-116.8466989,BCA-102610,7/1/2021
670 Main St,Metuchen,NJ,08840,40.5491929,-74.3659639,BCA-104349,12/15/2021
715 Marin Rd,Big Bear Lake,CA,92315,34.2396663,-116.9068841,BCA-105454,3/18/2022
42554 La Cerena Ave,Big Bear Lake,CA,92315,34.2377227,-116.8738244,BCA-104910,1/21/2022
42628 La Cerena Ave,Big Bear Lake,CA,92315,34.2376715,-116.8721462,BCA-103462,10/4/2021
42645 La Cerena Ave,Big Bear Lake,CA,92315,34.23728699999999,-116.871725,BCA-104669,11/30/2021
42778 La Cerena Ave,Big Bear Lake,CA,92315,34.2377274,-116.8688332,BCA-103619,9/18/2021
41390 Lahontan Dr,Big Bear Lake,CA,92315,34.24566730000001,-116.8992008,BCA-104478,10/4/2021
42832 Monterey St,Big Bear Lake,CA,92315,34.2411662,-116.8679129,BCA-105141,8/20/2021
42895 Monterey St,Big Bear Lake,CA,92315,34.2404986,-116.8663023,BCA-105396,3/8/2022
43059 Monterey St,Big Bear Lake,CA,92315,34.2405357,-116.8628972,BCA-102969,8/17/2021
42527 Moonridge Rd APT 1,Big Bear Lake,CA,92315,34.2404451,-116.8744428,BCA-104911,1/21/2022
43002 Moonridge Rd,Big Bear Lake,CA,92315,34.2378481,-116.8640476,BCA-104124,11/22/2021
43034 Moonridge Rd,Big Bear Lake,CA,92315,34.2371432,-116.8634493,BCA-104266,11/30/2021
43126 Moonridge Rd,Big Bear Lake,CA,92315,34.2352026,-116.8600426,BCA-103680,9/25/2021
43135 Moonridge Rd,Big Bear Lake,CA,92315,34.235023,-116.861065,BCA-103513,10/8/2021
43240 Moonridge Rd,Big Bear Lake,CA,92315,34.2301853,-116.8586176,BCA-104154,11/1/2021
141 Mountain Lake Rd,Big Bear Lake,CA,92315,34.249633,-116.871414,BCA-105157,3/4/2022
423 Mountainaire Ln,Big Bear Lake,CA,92315,34.244931,-116.902344,BCA-104021,11/9/2021
812 Mountain Sky Dr,Big Bear Lake,CA,92315,34.2376125,-116.8869162,BCA-104403,12/5/2021
40168 Narrow Ln,Big Bear Lake,CA,92315,34.2438314,-116.925562,BCA-103197,8/11/2021
38933 N Bay Dr,Big Bear Lake,CA,92315,34.2420247,-116.9532999,BCA-105302,4/8/2022
38961 N Bay Dr,Big Bear Lake,CA,92315,34.242264,-116.9522879,BCA-104616,1/4/2022
43113 Grizzly Ct,Big Bear Lake,CA,92315,34.2389029,-116.8617928,BCA-103538,9/11/2021
843 Highland Ln,Big Bear Lake,CA,92315,34.2372555,-116.924596,BCA-104479,10/10/2021
855 Highland Ln,Big Bear Lake,CA,92315,34.2370324,-116.924688,BCA-104606,12/4/2021
40156 Highland Ln,Big Bear Lake,CA,92315,34.2391397,-116.9257986,BCA-102871,7/23/2021
40137 Hillcrest Dr,Big Bear Lake,CA,92315,34.2378644,-116.9266201,BCA-104273,11/9/2021
224 Houston Ct,Big Bear Lake,CA,92315,34.2480696,-116.8722842,BCA-103946,10/16/2021
41604 Hummingbird Ln,Big Bear Lake,CA,92315,34.247514,-116.894713,BCA-103614,9/15/2021
40570 Ironwood Dr,Big Bear Lake,CA,92315,34.2368759,-116.9163153,BCA-105075,3/16/2022
1352 Club View Dr Unit B,Big Bear Lake,CA,92315,34.2277461,-116.8627083,BCA-103306,7/29/2021
1352 Club View Dr Unit C,Big Bear Lake,CA,92315,34.2277461,-116.8627083,BCA-103307,7/29/2021
764 Summit Blvd Unit B,Big Bear Lake,CA,92315,34.2384454,-116.8888487,BCA-103935,10/8/2021
41785 Switzerland Dr,Big Bear Lake,CA,92315,34.2373298,-116.8905051,BCA-103250,8/13/2021
605 San Gorgonio Dr,Big Bear Lake,CA,92315,34.2413901,-116.8863584,BCA-102598,5/30/2021
855 Conklin Rd,Big Bear Lake,CA,92315,34.2369294,-116.8992008,BCA-104689,1/15/2022
42651 La Placida Ave,Big Bear Lake,CA,92315,34.237946,-116.871664,BCA-103569,9/16/2021
1288 Club View Dr #103,Big Bear,CA,92314,34.2289324,-116.8618848,BCA-103991,10/15/2021
1291 Siskiyou Dr,Big Bear Lake,CA,92315,34.2288965,-116.8568881,BCA-104481,11/18/2021
42703 Alta Vista Ave,Big Bear Lake,CA,92315,34.2426319,-116.8707083,BCA-105111,2/2/2022
429 Arroyo Dr,Big Bear Lake,CA,92315,34.2448887,-116.9284142,BCA-103649,9/21/2021
1242 Aspen Dr,Big Bear Lake,CA,92315,34.2285238,-116.8658422,BCA-104691,12/16/2021
42401 Avalon Rd,Big Bear Lake,CA,92315,34.2448443,-116.8772537,BCA-102849,7/1/2021
535 Badger Ln #533,Big Bear Lake,CA,92315,34.242848,-116.913901,BCA-102817,8/12/2021
558 Badger Ln,Big Bear Lake,CA,92315,34.242486,-116.9143831,BCA-105001,1/27/2022
1283 Balsam Dr,Big Bear Lake,CA,92315,34.2291464,-116.8635414,BCA-103243,9/26/2021
42560 Pegasus Way,Big Bear Lake,CA,92315,34.2537063,-116.8732275,BCA-103658,9/17/2021
42561 Peregrine Ave,Big Bear Lake,CA,92315,34.238614,-116.873679,BCA-105099,2/2/2022
42551 Peregrine Ave,Big Bear Lake,CA,92315,34.2386179,-116.8739407,BCA-102501,7/28/2021
42655 Peregrine Ave,Big Bear Lake,CA,92315,34.238605,-116.871561,BCA-104886,2/11/2022
786 Pine Knot Ave,Big Bear Lake,CA,92315,34.2382471,-116.9115913,BCA-102276,6/12/2021
178 Pinecrest Dr,Delaware,OH,43015,40.3245494,-83.07451619999999,BCA-105377,4/27/2022
582 Ponderosa Dr,Big Bear Lake,CA,92315,34.24174780000001,-116.8876524,BCA-104366,12/5/2021
41022 Foothill Ln,Big Bear Lake,CA,92315,34.2431042,-116.9071601,BCA-104030,11/3/2021
39781 Forest Rd,Big Bear Lake,CA,92315,34.2470246,-116.93431,BCA-104917,2/24/2022
39795 Forest Rd,Fawnskin,CA,92333,34.2468048,-116.9339344,BCA-104902,1/20/2022
39799 Forest Rd,Big Bear Lake,CA,92315,34.2466359,-116.9339199,BCA-103995,10/22/2021
40027 Forest Rd,Big Bear Lake,CA,92315,34.244523,-116.928922,BCA-105234,3/17/2022
40041 Forest Rd,Big Bear Lake,CA,92315,34.2441499,-116.9286442,BCA-104547,1/25/2022
40071 Forest Rd,Big Bear Lake,CA,92315,34.2421933,-116.9277241,BCA-102855,8/8/2021
40081 Forest Rd,Big Bear Lake,CA,92315,34.2415632,-116.9274941,BCA-102901,7/7/2021
42455 Fox Farm Rd,Big Bear Lake,CA,92315,34.2485524,-116.8758733,BCA-104256,7/5/2021
40064 Francis Way,Big Bear Lake,CA,92315,34.2498347,-116.9275861,BCA-104062,10/26/2021
615 Temple Ln,Big Bear Lake,CA,92315,34.2414792,-116.9230779,BCA-104405,12/2/2021
451 Tennessee Ln,Big Bear Lake,CA,92315,34.2444651,-116.9273101,BCA-103300,7/26/2021
41223 Terrapin Rd,Big Bear Lake,CA,92315,34.2366463,-116.9027895,BCA-102579,6/20/2021
808 Rueda Ln,Big Bear Lake,CA,92315,34.2384975,-116.9569796,BCA-104247,12/5/2021
764 St Moritz Dr,Big Bear Lake,CA,92315,34.2385376,-116.8917013,BCA-103141,8/5/2021
1272 San Pasqual Dr,Big Bear Lake,CA,92315,34.2293392,-116.8495521,BCA-104794,1/6/2022
43213 Sand Canyon Rd,Big Bear Lake,CA,92315,34.2332157,-116.8592618,BCA-103223,9/11/2021
43295 Sand Canyon Rd,Big Bear Lake,CA,92315,34.233659,-116.8575937,BCA-104013,11/18/2021
43431 Sand Canyon Rd,Big Bear,CA,92314,34.2328092,-116.8546601,BCA-104091,9/11/2021
43706 Sand Canyon Rd,Big Bear Lake,CA,92315,34.2303568,-116.8483095,BCA-102829,6/17/2021
368 Santa Clara Blvd,Big Bear Lake,CA,92315,34.2455627,-116.8757008,BCA-104639,12/8/2021
338 Scandia Rd,Big Bear Lake,CA,92315,34.2463591,-116.8769776,BCA-104146,12/3/2021
799 Edgemoor Rd,Big Bear Lake,CA,92315,34.2383584,-116.9295987,BCA-103052,9/12/2021
815 Edgemoor Rd,Big Bear Lake,CA,92315,34.2381,-116.9286902,BCA-104047,11/5/2021
880 Edgemoor Rd,Big Bear Lake,CA,92315,34.2366252,-116.9272641,BCA-104526,11/30/2021
658 Elm St,San Jose,CA,95126,37.3383397,-121.9150191,BCA-104305,11/27/2021
700 Elm St,Manchester,NH,03101,42.9882655,-71.46425789999999,BCA-104837,1/17/2022
742 Elm St,Glen Ellyn,IL,60137,41.8881047,-88.05585699999999,BCA-103997,11/7/2021
42919 Encino Rd,Big Bear Lake,CA,92315,34.2399007,-116.8659342,BCA-103370,10/10/2021
40179 Esterly Ln,Big Bear Lake,CA,92315,34.2407237,-116.925424,BCA-103118,7/9/2021
1197 Siskiyou Dr,Big Bear Lake,CA,92315,34.2306701,-116.8579274,BCA-105301,3/30/2022
828 Sky High Dr,Big Bear Lake,CA,92315,34.2378327,-116.9183165,BCA-104755,1/22/2022
39831 Snowball Ln,Big Bear Lake,CA,92315,34.2385941,-116.9332443,BCA-104063,12/1/2021
42103 Snowmass Ln,Big Bear Lake,CA,92315,34.2426764,-116.8833734,BCA-104505,12/4/2021
42788 Sonoma Dr,Big Bear Lake,CA,92315,34.2407108,-116.8686491,BCA-104729,12/27/2021
42859 Sonoma Dr,Big Bear,CA,92314,34.2396296,-116.8670846,BCA-103066,7/29/2021
691 Spruce Rd,Big Bear Lake,CA,92315,34.2401162,-116.9210077,BCA-104307,11/12/2021
598 St Anton Ct,Big Bear Lake,CA,92315,34.2413085,-116.8915633,BCA-104076,10/25/2021
637 St Moritz Dr,Big Bear Lake,CA,92315,34.2407559,-116.890321,BCA-104455,11/21/2021
681 St Moritz Dr,Big Bear Lake,CA,92315,34.2399397,-116.890367,BCA-104997,1/26/2022
399 Starlight Cir,Big Bear Lake,CA,92315,34.2557259,-116.8728594,BCA-102396,5/31/2021
701 Cove Dr,West Tawakoni,TX,75474,32.8943605,-96.0147854,BCA-103560,10/1/2021
721 Cove Dr,Big Bear Lake,CA,92315,34.2399846,-116.9593713,BCA-105217,3/12/2022
621 Crestwood Dr,Big Bear Lake,CA,92315,34.2411194,-116.8855359,BCA-103565,10/9/2021
764 Crestwood Dr,Big Bear Lake,CA,92315,34.2384924,-116.886088,BCA-104797,1/6/2022
821 Crestwood Dr,Greensburg,PA,15601,40.286724,-79.6600562,BCA-104228,11/1/2021
373 Crystal Lake Rd,Big Bear Lake,CA,92315,34.2454471,-116.8743549,BCA-103587,10/2/2021
689 Daisy Ln,Big Bear Lake,CA,92315,34.2405457,-116.9351649,BCA-105180,2/10/2022
43231 Deer Canyon Rd,Big Bear Lake,CA,92315,34.2323915,-116.8591698,BCA-103542,9/14/2021
43258 Deer Canyon Rd,Big Bear Lake,CA,92315,34.2326377,-116.8582955,BCA-103751,9/30/2021
43240 Deer Canyon Rd,Big Bear Lake,CA,92315,34.2328408,-116.8588017,BCA-104728,2/27/2022
362 Vista Ln,Edmond,OK,73034,35.6509916,-97.45158889999999,BCA-103117,7/9/2021
39272 Waterview Dr,Big Bear Lake,CA,92315,34.2470976,-116.9452963,BCA-104784,1/4/2022
556 Waynoka Ln,Big Bear Lake,CA,92315,34.2426236,-116.925562,BCA-104401,12/5/2021
42608 Willow Ave,Big Bear Lake,CA,92315,34.2364203,-116.8724568,BCA-103771,10/30/2021
41790 Brownie Ln #1,Big Bear Lake,CA,92315,34.2425571,-116.8903679,BCA-103932,11/19/2021
41815 Brownie Ln,Big Bear Lake,CA,92315,34.2422343,-116.8898968,BCA-103132,7/20/2021
41969 Brownie Ln,Big Bear Lake,CA,92315,34.2421507,-116.8864561,BCA-104841,2/10/2022
888 Cameron Dr,Big Bear Lake,CA,92315,34.2363702,-116.9132559,BCA-105187,2/28/2022
986 Cameron Dr,Big Bear Lake,CA,92315,34.2345141,-116.9131869,BCA-102752,8/1/2021
393 Catalina Rd,Big Bear Lake,CA,92315,34.2452977,-116.8796004,BCA-104409,11/16/2021
762 Birch St,Big Bear,CA,92314,34.2383779,-116.8708578,BCA-102908,7/8/2021
760 Bluejay Rd #14,Big Bear Lake,CA,92315,34.238933,-116.9478783,BCA-104994,3/6/2022
760 Bluejay Rd #28,Big Bear Lake,CA,92315,34.2393921,-116.9483547,BCA-104383,11/16/2021
760 Bluejay Rd #48,Big Bear Lake,CA,92315,34.2389095,-116.9484323,BCA-102263,5/29/2021
40238 Bonita Ln,Big Bear Lake,CA,92315,34.2433127,-116.9229859,BCA-104695,1/28/2022
43343 Bow Canyon Rd,Big Bear Lake,CA,92315,34.2323029,-116.8566389,BCA-103493,9/4/2021
469 Catalina Rd,Big Bear Lake,CA,92315,34.243935,-116.8780359,BCA-103953,10/19/2021
536 Catalina Rd,Big Bear Lake,CA,92315,34.2422547,-116.8755972,BCA-104700,12/21/2021
42532 Cedar Ave,Big Bear Lake,CA,92315,34.2370847,-116.8742513,BCA-102880,7/9/2021
42550 Cedar Ave,Big Bear Lake,CA,92315,34.237013,-116.8738471,BCA-104360,12/17/2021
42823 Cedar Ave,Big Bear Lake,CA,92315,34.2366368,-116.8678208,BCA-104782,1/6/2022
39157 Chincapin Rd,Big Bear Lake,CA,92315,34.2443397,-116.9475962,BCA-104677,12/14/2021
637 Chipmunk Ln,Big Bear Lake,CA,92315,34.2414194,-116.9442843,BCA-103696,11/15/2021
430 Cienega Rd,Big Bear Lake,CA,92315,34.245142,-116.94464,BCA-104088,11/16/2021
515 Cienega Rd,Big Bear Lake,CA,92315,34.2436769,-116.9441003,BCA-104436,9/7/2021
40670 Big Bear Blvd APT 12,Big Bear Lake,CA,92315,34.24396,-116.9139292,BCA-105557,10/11/2021
647 Bayview Rd,Big Bear Lake,CA,92315,34.2409934,-116.9348889,BCA-103759,10/21/2021
1181 Bear Meadows Ln,Big Bear Lake,CA,92315,34.231003,-116.86189,BCA-104182,11/19/2021
40697 Beaver Ln,Big Bear Lake,CA,92315,34.2418079,-116.914015,BCA-102332,6/26/2021
693 Berkley Ln,Big Bear Lake,CA,92315,34.2400641,-116.9064355,BCA-104346,11/16/2021
777 Berkley Ln,Big Bear Lake,CA,92315,34.238145,-116.906079,BCA-103885,10/24/2021
41935 Switzerland Dr Apt 126,Big Bear Lake,CA,92315,34.2361939,-116.8873306,BCA-104165,12/20/2021
41935 Switzerland Dr APT 37,Big Bear Lake,CA,92315,34.2370683,-116.8862443,BCA-102675,6/11/2021
41935 Switzerland Dr Apt 45,Big Bear Lake,CA,92315,34.2368335,-116.8861354,BCA-105388,3/28/2022
41935 Switzerland Dr APT 53,Big Bear Lake,CA,92315,34.2365767,-116.8862749,BCA-103498,9/4/2021
41935 Switzerland Dr APT 54,Big Bear Lake,CA,92315,34.2364807,-116.8862929,BCA-103868,10/9/2021
41935 Switzerland Dr APT 58,Big Bear Lake,CA,92315,34.236586,-116.8859969,BCA-103500,9/4/2021
41935 Switzerland Dr APT 78,Big Bear Lake,CA,92315,34.23667760000001,-116.8854594,BCA-104381,10/22/2021
1140 Sylvan Glen,Big Bear,CA,92314,34.2314905,-116.8660722,BCA-104089,11/16/2021
1166 Sylvan Glen,Big Bear Lake,CA,92315,34.231018,-116.866006,BCA-103078,7/30/2021
687 Talmadge Rd,Big Bear Lake,CA,92315,34.2400893,-116.9219738,BCA-104812,1/7/2022
755 Cienega Rd Unit B,Big Bear Lake,CA,92315,34.239406,-116.94102,BCA-104678,12/15/2021
767 Cienega Rd Unit C,Big Bear Lake,CA,92315,34.239432,-116.9405479,BCA-104561,12/13/2021
737 Cienega Rd Unit A,Big Bear Lake,CA,92315,34.2396118,-116.9404392,BCA-104631,12/8/2021
694 Circle Ln,Big Bear Lake,CA,92315,34.2405145,-116.9487921,BCA-102729,6/7/2021
1362 Club View Dr #1,Big Bear,CA,92314,34.2276466,-116.8628972,BCA-103308,7/29/2021
1377 Club View Dr #14,Big Bear Lake,CA,92315,34.2266182,-116.8626411,BCA-104790,11/6/2021
1155 Club View Dr,Dayton,OH,45458,39.6006813,-84.1925699,BCA-104115,12/8/2021
43481 Colusa Ct,Big Bear Lake,CA,92315,34.2334168,-116.8531794,BCA-105110,2/2/2022
43497 Colusa Ct,Big Bear Lake,CA,92315,34.2336894,-116.8527567,BCA-102914,7/12/2021
43613 Colusa Dr,Big Bear Lake,CA,92315,34.2336233,-116.8505185,BCA-103061,7/28/2021
43620 Colusa Dr,Big Bear Lake,CA,92315,34.2339919,-116.8501503,BCA-103546,9/27/2021
43709 Colusa Dr,Big Bear Lake,CA,92315,34.232027,-116.8484016,BCA-104421,11/17/2021
41471 Comstock Ln,Big Bear Lake,CA,92315,34.2402885,-116.8973375,BCA-104441,11/18/2021
494 Lakeview Ct,Big Bear Lake,CA,92315,34.2438203,-116.9210077,BCA-103218,9/25/2021
40064 Lakeview Dr,Big Bear Lake,CA,92315,34.2475228,-116.9280001,BCA-102461,6/27/2021
40138 Lakeview Dr,Big Bear Lake,CA,92315,34.2476457,-116.925861,BCA-102506,6/27/2021
39802 Lakeview Dr #15,Big Bear Lake,CA,92315,34.249065,-116.933749,BCA-104301,7/20/2021
39802 Lakeview Dr #32,Big Bear Lake,CA,92315,34.249065,-116.933749,BCA-103205,8/11/2021
302 Landing Ln,Bluffton,SC,29909,32.2836799,-80.992694,BCA-104303,10/30/2021
41495 Mcwhinney Ln,Big Bear Lake,CA,92315,34.2408764,-116.8968084,BCA-103667,11/28/2021
43869 Mendocino Dr,Big Bear Lake,CA,92315,34.2291005,-116.8449616,BCA-103047,9/7/2021
832 Menlo Dr,Big Bear Lake,CA,92315,34.2369059,-116.8589857,BCA-104777,1/19/2022
848 Menlo Dr,Big Bear Lake,CA,92315,34.2361529,-116.8582495,BCA-102970,8/18/2021
862 Menlo Dr,Big Bear Lake,CA,92315,34.2360955,-116.8574672,BCA-103859,10/12/2021
941 Menlo Dr,Big Bear Lake,CA,92315,34.2351115,-116.8554884,BCA-104520,1/4/2022
649 Metcalf Ln,Big Bear Lake,CA,92315,34.2411481,-116.9345324,BCA-104681,12/15/2021
40155 Mill Creek Rd,Big Bear Lake,CA,92315,34.236933,-116.9259185,BCA-104399,12/18/2021
39360 Moab Ln,Big Bear Lake,CA,92315,34.2377613,-116.9434103,BCA-104340,11/16/2021
668 Modoc Dr,Big Bear Lake,CA,92315,34.240591,-116.919379,BCA-104715,1/14/2022
714 Jeffries Rd,Big Bear Lake,CA,92315,34.2396797,-116.9023064,BCA-103157,8/12/2021
569 Killington Way,Big Bear Lake,CA,92315,34.2419525,-116.8824301,BCA-103625,9/15/2021
382 Knight Ave,Big Bear Lake,CA,92315,34.2457459,-116.9039857,BCA-105261,2/23/2022
574 Knight Ave,Big Bear Lake,CA,92315,34.2421714,-116.9046298,BCA-103916,11/21/2021
868 Knight Ave,Big Bear Lake,CA,92315,34.2369368,-116.9046298,BCA-103363,10/25/2021
421 Northern Cross Dr,Big Bear Lake,CA,92315,34.2445456,-116.8718959,BCA-105245,2/23/2022
105 Olympic Ct,Slidell,LA,70458,30.244574,-89.78500799999999,BCA-102581,6/21/2021
159 Oriole Dr,Big Bear Lake,CA,92315,34.2497824,-116.8981426,BCA-102719,6/17/2021
410 Oriole Dr,Stephens City,VA,22655,39.09426699999999,-78.19563,BCA-104466,1/24/2022
763 Oriole Dr,Big Bear Lake,CA,92315,34.23878699999999,-116.8971304,BCA-103402,9/10/2021
41682 Park Ave,Big Bear Lake,CA,92315,34.245287,-116.8926215,BCA-104352,12/15/2021
561 Georgia St,Big Bear Lake,CA,92315,34.2424488,-116.900213,BCA-103875,10/26/2021
756 Georgia St,Big Bear Lake,CA,92315,34.2389144,-116.9008571,BCA-103959,10/28/2021
39991 Glenview Rd,Big Bear Lake,CA,92315,34.2419087,-116.9296102,BCA-103235,9/10/2021
357 Glenwood Dr,Chattanooga,TN,37404,35.0365329,-85.26167629999999,BCA-104882,2/7/2022
585 Golden W Dr,Big Bear Lake,CA,92315,34.2416932,-116.8890787,BCA-103163,9/7/2021
610 Golden W Dr,Big Bear Lake,CA,92315,34.2413009,-116.8895043,BCA-104447,10/10/2021
43071 Goldmine Woods Ln,Big Bear Lake,CA,92315,34.232041,-116.86281,BCA-103630,9/1/2021
43083 Goldmine Woods Ln,Big Bear Lake,CA,92315,34.2321043,-116.8622681,BCA-103629,9/1/2021
43472 Primrose Dr,Big Bear Lake,CA,92315,34.2278806,-116.8536937,BCA-103694,9/28/2021
43496 Primrose Dr,Big Bear Lake,CA,92315,34.2280358,-116.852992,BCA-102580,6/20/2021
414 Quail Dr,Big Bear Lake,CA,92315,34.2450831,-116.8957042,BCA-104595,11/25/2021
844 Ravine Rd,Big Bear,CA,92314,34.23683010000001,-116.8605043,BCA-102747,5/29/2021
43669 Ridgecrest Dr,Big Bear Lake,CA,92315,34.2262481,-116.849506,BCA-103208,8/12/2021
43368 Ridgecrest Dr,Big Bear,CA,92314,34.2330897,-116.8553504,BCA-105266,3/7/2022
43601 Ridgecrest Dr,Big Bear,CA,92314,34.229248,-116.8507946,BCA-105297,1/4/2022
39038 Robin Rd,Big Bear Lake,CA,92315,34.2431746,-116.9503101,BCA-103175,8/8/2021
379 Eureka Dr,Big Bear Lake,CA,92315,34.2457374,-116.8980506,BCA-103276,8/13/2021
403 Eureka Dr,Big Bear Lake,CA,92315,34.2452728,-116.8981426,BCA-104227,9/2/2021
41951 Evergreen Dr,Big Bear Lake,CA,92315,34.2393953,-116.8868702,BCA-103421,10/2/2021
42016 Evergreen Dr,Big Bear Lake,CA,92315,34.2397905,-116.8855359,BCA-103004,9/18/2021
42203 Evergreen Dr,Big Bear Lake,CA,92315,34.2401993,-116.8813258,BCA-104748,1/12/2022
42933 Fairy Ave,Big Bear Lake,CA,92315,34.2323105,-116.8654475,BCA-104670,12/21/2021
42934 Fairy Ave,Big Bear Lake,CA,92315,34.2327062,-116.8654855,BCA-105164,3/9/2022
446 Fallen Leaf Rd,Big Bear Lake,CA,92315,34.2572253,-116.8761494,BCA-104168,12/16/2021
494 Fallen Leaf Rd,Big Bear Lake,CA,92315,34.2580856,-116.8761724,BCA-104742,1/3/2022
42988 Falls Ave,Big Bear Lake,CA,92315,34.2313937,-116.8643368,BCA-102370,6/5/2021
42951 Fern Ave,Big Bear Lake,CA,92315,34.2317182,-116.8651059,BCA-104098,10/27/2021
42991 Fern Ave,Big Bear Lake,CA,92315,34.2316019,-116.8642316,BCA-104385,11/16/2021
116 Finch Dr,Big Bear Lake,CA,92315,34.2509664,-116.9015703,BCA-102893,6/27/2021
42692 Timberline Trail,Big Bear Lake,CA,92315,34.2578612,-116.8707198,BCA-105387,4/10/2022
745 Tomahawk Dr,Big Bear Lake,CA,92315,34.238722,-116.887169,BCA-103473,10/5/2021
1321 Shasta Ct,Big Bear Lake,CA,92315,34.2281266,-116.8538893,BCA-105148,3/20/2022
43535 Shasta Rd,Big Bear Lake,CA,92315,34.2267693,-116.8520831,BCA-102815,8/9/2021
43665 Shasta Rd,Big Bear Lake,CA,92315,34.2249729,-116.8492759,BCA-103870,10/7/2021
43469 Sheephorn Rd,Big Bear Lake,CA,92315,34.2358238,-116.8538318,BCA-104965,2/19/2022
39427 Silver Pine Ct,Big Bear Lake,CA,92315,34.2417101,-116.9417774,BCA-103312,8/19/2021
40612 Simonds Dr,Big Bear Lake,CA,92315,34.2443016,-116.9159012,BCA-105200,2/25/2022
40627 Simonds Dr,Big Bear Lake,CA,92315,34.2440498,-116.9154757,BCA-105161,3/12/2022
43094 Deer Run Ct,Big Bear Lake,CA,92315,34.231249,-116.861251,BCA-104474,12/27/2021
43097 Deer Run Ct,Big Bear Lake,CA,92315,34.231079,-116.86104,BCA-105238,3/26/2022
126 Eagle Dr,Springfield,GA,31329,32.323662,-81.32075999999999,BCA-103403,10/7/2021
247 Eagle Dr,Big Bear Lake,CA,92315,34.2481555,-116.900259,BCA-103202,8/30/2021
266 Eagle Dr,Big Bear Lake,CA,92315,34.2475407,-116.900305,BCA-103074,8/8/2021
308 Eagle Dr,Big Bear Lake,CA,92315,34.24681,-116.8987523,BCA-102811,7/20/2021
42400 Eagle Ridge,Big Bear Lake,CA,92315,34.2568906,-116.8768856,BCA-103383,10/7/2021
41393 Eastwood Rd,Big Bear Lake,CA,92315,34.2476946,-116.8989708,BCA-104628,12/8/2021
224 Echo Hill Rd,Big Bear Lake,CA,92315,34.2530029,-116.8692933,BCA-104591,12/3/2021
132 Stony Creek Rd,Big Bear Lake,CA,92315,34.2510675,-116.8678451,BCA-103627,9/18/2021
569 Summit Blvd APT 11,Big Bear Lake,CA,92315,34.24183360000001,-116.8880507,BCA-103136,9/22/2021
605 Summit Blvd,Big Bear Lake,CA,92315,34.2414341,-116.8880435,BCA-105133,2/5/2022
795 Summit Blvd APT 3,Big Bear Lake,CA,92315,34.2378519,-116.888162,BCA-105088,3/4/2022
Sunset Dr,Pickerington,OH,43147,39.8732417,-82.7414912,BCA-104418,11/17/2021
41739 Swan Dr,Big Bear Lake,CA,92315,34.2478938,-116.8914713,BCA-103726,9/26/2021
41787 Swan Dr,Big Bear Lake,CA,92315,34.2477299,-116.8904591,BCA-103894,10/8/2021
777 Switzerland Pl,Big Bear Lake,CA,92315,34.238302,-116.890243,BCA-105400,3/21/2022
41714 Switzerland Dr,Big Bear Lake,CA,92315,34.2377554,-116.8921154,BCA-103072,9/13/2021
41550 Comstock Ln,Big Bear Lake,CA,92315,34.2409171,-116.8956121,BCA-104178,11/18/2021
41368 Condor Dr,Big Bear Lake,CA,92315,34.2514807,-116.8994769,BCA-102757,6/20/2021
609 Conklin Rd,Binghamton,NY,13903,42.1004267,-75.8622551,BCA-103130,7/24/2021
796 Conklin Rd,Big Bear Lake,CA,92315,34.2382194,-116.8997069,BCA-104875,1/18/2022
42530 Cougar Rd,Big Bear Lake,CA,92315,34.2422145,-116.8744009,BCA-104638,12/15/2021
42741 Willow Ave,Big Bear Lake,CA,92315,34.235961,-116.869631,BCA-103257,8/15/2021
42856 Willow Ave,Big Bear Lake,CA,92315,34.2363564,-116.8671306,BCA-102808,10/19/2021
42863 Willow Ave,Big Bear Lake,CA,92315,34.2359312,-116.8669695,BCA-103531,9/22/2021
39082 Willow Landing Rd,Big Bear Lake,CA,92315,34.2401021,-116.9493441,BCA-104171,12/10/2021
39401 Willow Landing Rd,Big Bear Lake,CA,92315,34.2396481,-116.9425174,BCA-103530,7/23/2021
39422 Willow Landing Rd,Big Bear Lake,CA,92315,34.2401886,-116.9421684,BCA-103038,7/27/2021
440 Windsong Pl,Big Bear Lake,CA,92315,34.2573824,-116.8799225,BCA-102565,6/2/2021
42143 Winterpark Dr,Big Bear Lake,CA,92315,34.240986,-116.8824301,BCA-104269,11/30/2021
730 Winterset Ct,Big Bear Lake,CA,92315,34.2390207,-116.8852138,BCA-103750,9/30/2021
733 Winterset Ct,Big Bear Lake,CA,92315,34.2390813,-116.8846157,BCA-103764,10/24/2021
43897 Wolf Rd,Big Bear Lake,CA,92315,34.2310654,-116.8444439,BCA-105290,2/25/2022
1223 Wolf Creek Ct,Big Bear Lake,CA,92315,34.230315,-116.861054,BCA-102748,6/19/2021
507 Woodland Way,Oswego,IL,60543,41.6663976,-88.33846729999999,BCA-103002,8/13/2021
303 Wren Dr,Big Bear Lake,CA,92315,34.2470722,-116.8962333,BCA-103654,9/5/2021
406 Wren Dr,Big Bear Lake,CA,92315,34.24522839999999,-116.8966243,BCA-104486,11/25/2021
43563 Yosemite Dr,Big Bear,CA,92314,34.2323965,-116.8516229,BCA-102503,6/5/2021
43701 Yosemite Dr,Big Bear Lake,CA,92315,34.2311997,-116.8484936,BCA-103702,11/26/2021
43865 Yosemite Dr,Big Bear Lake,CA,92315,34.2300015,-116.8449846,BCA-103351,11/14/2021
1333 Lassen Dr,Big Bear,CA,92314,34.2279899,-116.8580194,BCA-105331,3/2/2022
596 Lucerne Dr,Big Bear Lake,CA,92315,34.2413583,-116.8660722,BCA-102978,7/26/2021
Main St and 669 Main St,Watertown,CT,06779,41.589752,-73.09333,BCA-102407,6/16/2021
693 Main St Suite 2,Lumberton,NJ,08048,39.976455,-74.80240839999999,BCA-104169,9/18/2021
687 Marin Rd,Big Bear Lake,CA,92315,34.2401955,-116.9069876,BCA-104583,12/3/2021
774 Marin Rd,Big Bear Lake,CA,92315,34.2386347,-116.9071601,BCA-104802,12/11/2021
42598 La Cerena Ave,Big Bear Lake,CA,92315,34.2376694,-116.8728184,BCA-103224,9/7/2021
42762 La Cerena Ave,Big Bear Lake,CA,92315,34.237662,-116.869206,BCA-104435,11/10/2021
41387 Lahontan Dr,Big Bear Lake,CA,92315,34.245418,-116.8990628,BCA-102992,7/19/2021
42966 Monterey St,Big Bear Lake,CA,92315,34.2408239,-116.8649219,BCA-103275,9/30/2021
43070 Monterey St,Big Bear Lake,CA,92315,34.240845,-116.862675,BCA-105219,3/5/2022
43152 Moonridge Ct,Big Bear Lake,CA,92315,34.2335505,-116.8609185,BCA-104530,11/30/2021
439 Mountainaire Ln,Big Bear Lake,CA,92315,34.2446362,-116.9023754,BCA-103314,8/27/2021
43073 Grizzly Ct,Big Bear Lake,CA,92315,34.2388414,-116.8623555,BCA-103933,11/5/2021
40227 Guinan Ln,Big Bear Lake,CA,92315,34.2401282,-116.9243659,BCA-103215,9/28/2021
545 Highland Rd,Hinsdale,IL,60521,41.8051697,-87.9155145,BCA-104829,10/28/2021
583 Highland Rd,Highland,MI,48357,42.6412856,-83.6248773,BCA-104288,11/10/2021
40135 Highland Ln,Big Bear Lake,CA,92315,34.2387719,-116.9265281,BCA-102587,6/6/2021
40191 Highland Ln,Big Bear Lake,CA,92315,34.238037,-116.925378,BCA-102659,6/1/2021
39989 Hillcrest Dr,Big Bear Lake,CA,92315,34.2394061,-116.9299782,BCA-102677,6/11/2021
42775 Peregrine Ave,Big Bear Lake,CA,92315,34.2386758,-116.8687839,BCA-103267,9/8/2021
806 Summit Blvd Unit A,West Palm Beach,FL,33405,26.6655866,-80.0619398,BCA-103634,9/18/2021
774 Summit Blvd Unit B,Big Bear Lake,CA,92315,34.2382549,-116.8888027,BCA-104161,11/2/2021
41785 Switzerland Dr A,Big Bear Lake,CA,92315,34.2373298,-116.8905051,BCA-103247,8/13/2021
797 Oriole Dr,Big Bear Lake,CA,92315,34.2381203,-116.8969694,BCA-102576,6/14/2021
42425 Juniper Dr,Big Bear Lake,CA,92315,34.2500404,-116.8755719,BCA-103928,10/24/2021
42648 Cedar Ave,Big Bear Lake,CA,92315,34.2370173,-116.871728,BCA-104731,12/28/2021
1288 Club View Dr #105,Big Bear,CA,92314,34.2289324,-116.8618848,BCA-103994,10/15/2021
825 Conklin Rd,Big Bear Lake,CA,92315,34.237611,-116.8991585,BCA-105011,1/28/2022
43596 Sheephorn Rd,Big Bear Lake,CA,92315,34.2368486,-116.8572645,BCA-104172,12/16/2021
920 Andrew Ln,Big Bear Lake,CA,92315,34.2358922,-116.913831,BCA-104996,12/21/2021
425 Arroyo Dr,Fort Worth,TX,76108,32.7946325,-97.56657779999999,BCA-104894,1/19/2022
39328 Aurora Rd,Big Bear Lake,CA,92315,34.245567,-116.943911,BCA-104503,12/4/2021
42476 Balboa Ln,Big Bear Lake,CA,92315,34.2438373,-116.8759308,BCA-104130,11/2/2021
1249 Balsam Dr,Big Bear Lake,CA,92315,34.2293696,-116.8658422,BCA-103672,9/24/2021
41050 Pennsylvania Ave,Big Bear Lake,CA,92315,34.2393563,-116.9066196,BCA-104885,2/11/2022
42540 Peregrine Ave,Big Bear Lake,CA,92315,34.238997,-116.8739983,BCA-103599,10/16/2021
42543 Peregrine Ave,Big Bear Lake,CA,92315,34.2386585,-116.8740673,BCA-103648,10/16/2021
1239 Pigeon Rd,Big Bear Lake,CA,92315,34.2303982,-116.8645537,BCA-103037,7/16/2021
430 Piney Ln,Big Bear Lake,CA,92315,34.2450836,-116.9315823,BCA-104926,2/19/2022
138 Poplar St,Big Bear Lake,CA,92315,34.2496853,-116.8690172,BCA-103233,9/13/2021
39756 Forest Rd,Big Bear Lake,CA,92315,34.2477721,-116.9344404,BCA-102570,6/13/2021
39934 Forest Rd,Big Bear Lake,CA,92315,34.246036,-116.9307143,BCA-104712,1/28/2022
42420 Fox Farm Rd,Big Bear Lake,CA,92315,34.2491145,-116.8765635,BCA-104471,12/7/2021
42599 Fox Farm Rd,Big Bear,CA,92314,34.2485357,-116.8726984,BCA-103343,10/7/2021
147 Teakwood Dr,Big Bear Lake,CA,92315,34.2494994,-116.8692933,BCA-105105,2/5/2022
790 Tehama Dr,Big Bear Lake,CA,92315,34.2378201,-116.8633768,BCA-103561,9/22/2021
870 Tehama Dr,Big Bear Lake,CA,92315,34.2362043,-116.8617928,BCA-104846,12/5/2021
444 Temple Ln,Big Bear Lake,CA,92315,34.2445561,-116.925562,BCA-102464,7/11/2021
481 Temple Ln,Big Bear Lake,CA,92315,34.2442067,-116.9241014,BCA-104170,10/30/2021
623 Temple Ln,Newport News,VA,23605,37.0048792,-76.4328195,BCA-103691,10/19/2021
653 Temple Ln,Big Bear Lake,CA,92315,34.24079400000001,-116.923042,BCA-104698,1/19/2022
425 Tennessee Ln,Big Bear Lake,CA,92315,34.2449189,-116.9272641,BCA-104539,11/30/2021
1120 Teton Dr,Big Bear,CA,92314,34.2320652,-116.8511052,BCA-104220,12/2/2021
789 Rueda Ln,Big Bear Lake,CA,92315,34.239056,-116.9569,BCA-104597,12/3/2021
807 Rueda Ln,Big Bear Lake,CA,92315,34.2382829,-116.9566929,BCA-104904,1/20/2022
43595 Sand Canyon Rd,Big Bear Lake,CA,92315,34.2306332,-116.8510707,BCA-104730,11/14/2021
371 Santa Clara Blvd,Big Bear Lake,CA,92315,34.24549349999999,-116.8751831,BCA-103040,7/23/2021
453 Saratoga Ave,San Jose,CA,95129,37.3192925,-121.9733695,BCA-105506,5/12/2022
811 Edgemoor Rd,Big Bear Lake,CA,92315,34.2381665,-116.9289202,BCA-103620,9/18/2021
846 Edgemoor Rd,Big Bear Lake,CA,92315,34.2371096,-116.9277701,BCA-104877,2/7/2022
644 Elm St,Big Bear Lake,CA,92315,34.2404409,-116.874877,BCA-103272,8/5/2021
675 Elm St,Coshocton,OH,43812,40.2688257,-81.85993529999999,BCA-105091,2/1/2022
712 Elm St,St Joseph,MI,49085,42.1069396,-86.481391,BCA-104923,2/10/2022
812 Elm St,Strum,WI,54770,44.5524425,-91.37393089999999,BCA-104407,12/2/2021
864 Elm St,Big Bear Lake,CA,92315,34.23655919999999,-116.874815,BCA-104345,12/4/2021
42937 Encino Rd,Big Bear Lake,CA,92315,34.2399177,-116.8655201,BCA-104099,10/27/2021
203 N Eureka Dr,Big Bear Lake,CA,92315,34.2527712,-116.9016853,BCA-103296,8/19/2021
1209 Siskiyou Dr,Big Bear Lake,CA,92315,34.2303403,-116.8575237,BCA-105095,2/12/2022
797 Snake Dance,Big Bear Lake,CA,92315,34.2381752,-116.9071026,BCA-103041,8/15/2021
42317 Snowcrest Dr,Big Bear Lake,CA,92315,34.2469984,-116.8790482,BCA-103834,10/19/2021
42363 Snowcrest Dr,Big Bear Lake,CA,92315,34.2472262,-116.8780819,BCA-104468,11/23/2021
383 Springhill Pl,Big Bear Lake,CA,92315,34.2558002,-116.8732275,BCA-104967,1/25/2022
599 St Anton Ct,Big Bear Lake,CA,92315,34.2413953,-116.8911952,BCA-103138,8/21/2021
692 St Moritz Dr,Big Bear Lake,CA,92315,34.2398714,-116.8908271,BCA-103591,10/5/2021
761 St Moritz Dr,Big Bear Lake,CA,92315,34.2384851,-116.8912412,BCA-104833,1/12/2022
39163 Starview Ln,Big Bear Lake,CA,92315,34.2419353,-116.9475502,BCA-104499,12/28/2021
39212 Starview Ln,Big Bear Lake,CA,92315,34.2424161,-116.9465382,BCA-103318,8/8/2021
707 Cove Dr,Fawnskin,CA,92333,34.2404113,-116.9595668,BCA-103562,9/17/2021
720 Cove Dr,Big Bear Lake,CA,92315,34.2399345,-116.9599233,BCA-104590,12/3/2021
725 Cove Dr,Big Bear Lake,CA,92315,34.239844,-116.959311,BCA-104754,1/19/2022
315 Crater Lake Rd,Big Bear Lake,CA,92315,34.2465472,-116.8743434,BCA-102873,7/9/2021
39775 Crocus Dr,Big Bear Lake,CA,92315,34.2366902,-116.9344864,BCA-104234,11/14/2021
43501 Villa Grove Ave,Big Bear Lake,CA,92315,34.2359213,-116.8531116,BCA-103733,10/14/2021
470 Central Ave,Alameda,CA,94501,37.7712893,-122.2829559,BCA-105031,1/29/2022
38838 Waterview Dr,Big Bear Lake,CA,92315,34.244847,-116.9545993,BCA-105183,2/9/2022
38850 Waterview Dr,Big Bear Lake,CA,92315,34.2453635,-116.9539898,BCA-103924,10/18/2021
39241 Waterview Dr,Big Bear Lake,CA,92315,34.2458106,-116.9458023,BCA-104636,12/21/2021
42543 Willow Ave,Big Bear Lake,CA,92315,34.235977,-116.873932,BCA-103464,10/3/2021
42551 Willow Ave,Big Bear Lake,CA,92315,34.2359629,-116.8737567,BCA-102973,8/30/2021
42584 Willow Ave,Big Bear Lake,CA,92315,34.2363425,-116.8730967,BCA-102397,5/29/2021
43655 Bow Canyon Rd,Big Bear Lake,CA,92315,34.2258314,-116.8497361,BCA-104563,12/15/2021
41656 Brownie Ln,Big Bear Lake,CA,92315,34.2426276,-116.8933117,BCA-102547,6/15/2021
403 Canvasback Rd,Big Bear Lake,CA,92315,34.2453477,-116.9345209,BCA-104813,1/8/2022
372 Catalina Rd,Big Bear Lake,CA,92315,34.2454463,-116.8803366,BCA-102870,7/24/2021
820 Birch St,Big Bear,CA,92314,34.2373199,-116.8709038,BCA-103153,8/7/2021
674 Blue Jay Rd,Big Bear Lake,CA,92315,34.2407701,-116.9485621,BCA-103399,8/25/2021
760 Bluejay Rd #47,Big Bear Lake,CA,92315,34.2389095,-116.9484323,BCA-104274,12/3/2021
40263 Bonita Ln,Big Bear Lake,CA,92315,34.2430063,-116.9233884,BCA-104351,12/15/2021
447 Catalina Rd,Big Bear Lake,CA,92315,34.2442849,-116.8787721,BCA-102575,6/14/2021
42641 Cedar Ave,Big Bear Lake,CA,92315,34.236628,-116.871745,BCA-105220,2/17/2022
42748 Cedar Ave,Big Bear Lake,CA,92315,34.2370008,-116.8695234,BCA-105184,2/9/2022
42801 Cedar Ave,Big Bear Lake,CA,92315,34.236615,-116.868296,BCA-103465,10/3/2021
627 Chipmunk Ln,Big Bear Lake,CA,92315,34.2416065,-116.9445143,BCA-103998,11/8/2021
684 Chipmunk Ln,Big Bear Lake,CA,92315,34.2405076,-116.9440543,BCA-102015,5/29/2021
581 Cienega Rd,Big Bear Lake,CA,92315,34.2425008,-116.9434563,BCA-103762,10/24/2021
38983 Bayview Ln,Big Bear Lake,CA,92315,34.241586,-116.951566,BCA-102589,6/19/2021
40725 Beaver Ln,Big Bear Lake,CA,92315,34.2418794,-116.9133709,BCA-104723,1/9/2022
701 Berkley Ln,Big Bear Lake,CA,92315,34.2399487,-116.9064125,BCA-104821,1/14/2022
41935 Switzerland Dr #117,Big Bear Lake,CA,92315,34.23620100000001,-116.8866489,BCA-102213,6/2/2021
41935 Switzerland Dr Apt 31,Big Bear Lake,CA,92315,34.2364898,-116.886622,BCA-105041,3/20/2022
41935 Switzerland Dr Apt 86,Big Bear Lake,CA,92315,34.2362527,-116.8853311,BCA-104058,11/12/2021
42070 Switzerland Dr,Big Bear Lake,CA,92315,34.2375439,-116.8847307,BCA-103865,10/9/2021
41935 Switzerland Dr APT 9,Big Bear Lake,CA,92315,34.2370039,-116.8866324,BCA-104016,11/10/2021
41935 Switzerland Dr APT 14,Big Bear Lake,CA,92315,34.236914,-116.8869481,BCA-104080,11/14/2021
1129 Sylvan Glen,Big Bear Lake,CA,92315,34.2316175,-116.8657041,BCA-102330,6/10/2021
38620 Talbot Dr,Big Bear Lake,CA,92315,34.2385768,-116.9598773,BCA-105207,2/16/2022
535 Talmadge Rd,Big Bear Lake,CA,92315,34.2428674,-116.9219738,BCA-102212,6/17/2021
636 Talmadge Rd,Big Bear Lake,CA,92315,34.2410537,-116.9226638,BCA-104572,12/1/2021
699 Cienega Rd Unit D,Big Bear Lake,CA,92315,34.240054,-116.940645,BCA-103377,10/10/2021
711 Cienega Rd Unit C,Big Bear Lake,CA,92315,34.239682,-116.941297,BCA-103253,8/14/2021
737 Cienega Rd Unit C,Big Bear Lake,CA,92315,34.2396118,-116.9404392,BCA-105168,3/4/2022
781 Cienega Rd Unit C,Big Bear Lake,CA,92315,34.2391248,-116.9407295,BCA-104298,11/12/2021
40356 Cliff Ln,Big Bear Lake,CA,92315,34.2410805,-116.9216978,BCA-105109,2/2/2022
1068 Club View Dr,Big Bear Lake,CA,92315,34.2326504,-116.8652095,BCA-105096,3/28/2022
1137 Club View Dr,Big Bear Lake,CA,92315,34.2315879,-116.8632653,BCA-103035,8/29/2021
1377 Club View Dr #1,Big Bear Lake,CA,92315,34.2274577,-116.8621075,BCA-105083,3/21/2022
1377 Club View Dr #15,Big Bear Lake,CA,92315,34.2267183,-116.8627286,BCA-103302,8/19/2021
1377 Club View Dr #3,Big Bear Lake,CA,92315,34.2273022,-116.8619714,BCA-103439,9/2/2021
1413 Club View Dr,Big Bear Lake,CA,92315,34.2263454,-116.8648298,BCA-103068,9/3/2021
1377 Club View Dr #17,Big Bear Lake,CA,92315,34.2265652,-116.8628768,BCA-104197,11/13/2021
41496 Comstock Ln,Big Bear Lake,CA,92315,34.2406348,-116.8968084,BCA-103361,8/24/2021
39697 Lake Dr,Big Bear Lake,CA,92315,34.24688190000001,-116.9361479,BCA-104255,11/1/2021
40074 Lakeview Dr,Big Bear Lake,CA,92315,34.247848,-116.9278161,BCA-103799,11/19/2021
40330 Lakeview Dr,Big Bear Lake,CA,92315,34.244007,-116.921762,BCA-104386,11/16/2021
40365 Lakeview Dr,Big Bear Lake,CA,92315,34.243284,-116.9217438,BCA-102965,8/3/2021
39802 Lakeview Dr #21,Big Bear Lake,CA,92315,34.249065,-116.933749,BCA-103225,9/3/2021
562 Lakewood Ln,Big Bear Lake,CA,92315,34.2425282,-116.9269881,BCA-104863,1/14/2022
41633 Mcwhinney Ln,Big Bear Lake,CA,92315,34.241311,-116.8937718,BCA-105070,2/28/2022
40128 Mill Creek Rd,Big Bear Lake,CA,92315,34.2369646,-116.9268501,BCA-104873,1/15/2022
41640 Mockingbird Dr,Big Bear Lake,CA,92315,34.2466,-116.8935417,BCA-103763,10/24/2021
41559 Mockingbird Dr,Big Bear Lake,CA,92315,34.2468177,-116.8955201,BCA-104264,11/27/2021
42652 Juniper Dr,Big Bear Lake,CA,92315,34.2502504,-116.8719161,BCA-103527,10/5/2021
449 Knight Ave,Big Bear Lake,CA,92315,34.244529,-116.9033415,BCA-104017,11/9/2021
709 Knight Ave,Big Bear Lake,CA,92315,34.2397944,-116.9041237,BCA-105177,3/18/2022
42539 La Cerena Ave,Big Bear Lake,CA,92315,34.2372528,-116.8741363,BCA-105243,2/19/2022
374 Northern Cross Dr,Big Bear Lake,CA,92315,34.2454335,-116.8724082,BCA-103844,10/7/2021
331 Olympic Dr,Big Bear Lake,CA,92315,34.2462658,-116.8789102,BCA-102781,6/23/2021
799 Paine Rd,Big Bear Lake,CA,92315,34.2381625,-116.9170053,BCA-104350,12/17/2021
41317 Park Ave,Big Bear Lake,CA,92315,34.2462293,-116.9006156,BCA-102617,7/10/2021
41562 Park Ave,Big Bear Lake,CA,92315,34.2463377,-116.8953361,BCA-105026,1/29/2022
41572 Park Ave,Big Bear Lake,CA,92315,34.2462929,-116.895014,BCA-103735,10/17/2021
42399 Golden Oak Rd,Big Bear Lake,CA,92315,34.2559947,-116.8771847,BCA-104110,12/4/2021
42470 Golden Oak Rd,Big Bear Lake,CA,92315,34.2561723,-116.8753212,BCA-104559,12/12/2021
590 Golden W Dr,Big Bear Lake,CA,92315,34.2416288,-116.8896079,BCA-102850,7/1/2021
639 Golden W Dr,Redlands,CA,92373,34.0321978,-117.1425142,BCA-105272,4/30/2022
751 Golden W Dr,Big Bear Lake,CA,92315,34.2387024,-116.8891248,BCA-102593,6/28/2021
43416 Primrose Dr,Big Bear Lake,CA,92315,34.2282365,-116.8548729,BCA-103977,12/4/2021
43485 Primrose Dr,Big Bear Lake,CA,92315,34.227673,-116.853195,BCA-103872,10/20/2021
1426 Rockspray Dr,Big Bear Lake,CA,92315,34.2249638,-116.8548327,BCA-102902,6/12/2021
1473 Rockspray Dr,Big Bear Lake,CA,92315,34.2268846,-116.853176,BCA-104569,11/30/2021
800 Eureka Dr,Big Bear Lake,CA,92315,34.2380184,-116.8985107,BCA-103344,9/5/2021
41932 Evergreen Dr,Big Bear Lake,CA,92315,34.2398505,-116.8873303,BCA-102789,6/30/2021
41981 Evergreen Dr,Big Bear Lake,CA,92315,34.239379,-116.88616,BCA-105178,3/18/2022
42136 Evergreen Dr,Big Bear Lake,CA,92315,34.2404198,-116.8828672,BCA-103570,9/16/2021
42172 Evergreen Dr,Big Bear Lake,CA,92315,34.240516,-116.881947,BCA-104498,11/23/2021
42264 Evergreen Dr,Big Bear Lake,CA,92315,34.24104519999999,-116.8801295,BCA-104844,1/13/2022
42636 Falcon Ave,Big Bear Lake,CA,92315,34.2396647,-116.8720197,BCA-104221,11/4/2021
42669 Falcon Ave,Big Bear Lake,CA,92315,34.2392949,-116.87141,BCA-105341,3/3/2022
364 Fallen Leaf Rd,Big Bear Lake,CA,92315,34.2560144,-116.8751371,BCA-104806,1/20/2022
133 Finch Ave,Meriden,CT,06451,41.5423218,-72.85120169999999,BCA-104131,11/14/2021
43888 Yosemite Dr,Big Bear Lake,CA,92315,34.2303933,-116.8444324,BCA-102566,6/3/2021
665 Thrush Dr,Big Bear Lake,CA,92315,34.24027400000001,-116.892037,BCA-102750,6/22/2021
41684 Thrush Ct,Big Bear Lake,CA,92315,34.2367066,-116.8928056,BCA-104968,2/9/2022
791 Tomahawk Dr,Big Bear Lake,CA,92315,34.2379466,-116.8872498,BCA-104724,1/6/2022
428 Tyrol Ln,Big Bear Lake,CA,92315,34.2444478,-116.8768856,BCA-104735,1/26/2022
1309 Shasta Ct,Big Bear Lake,CA,92315,34.228442,-116.853564,BCA-104627,12/8/2021
43281 Shasta Rd,Big Bear Lake,CA,92315,34.2311539,-116.8580539,BCA-105348,3/3/2022
43577 Shasta Rd,Big Bear Lake,CA,92315,34.224954,-116.8513238,BCA-102900,6/30/2021
43336 Sheephorn Rd,Big Bear Lake,CA,92315,34.2356322,-116.856869,BCA-105170,3/4/2022
43482 Sheephorn Rd,Big Bear Lake,CA,92315,34.2360513,-116.8545336,BCA-104692,12/12/2021
43422 Sheephorn Rd,Big Bear Lake,CA,92315,34.2350816,-116.8530495,BCA-104786,1/5/2022
43453 Sheephorn Rd,Big Bear Lake,CA,92315,34.23541,-116.8526813,BCA-104835,1/12/2022
43489 Sheephorn Rd,Big Bear Lake,CA,92315,34.2364866,-116.8543955,BCA-103675,10/31/2021
720 Silver Tip Dr,Big Bear Lake,CA,92315,34.2390053,-116.8640936,BCA-102784,8/12/2021
737 Silver Tip Dr,Big Bear Lake,CA,92315,34.2390873,-116.8634033,BCA-102563,6/2/2021
742 Silver Tip Dr,Big Bear Lake,CA,92315,34.23866599999999,-116.8633113,BCA-104650,12/9/2021
789 Silver Tip Dr,Big Bear Lake,CA,92315,34.237944,-116.8619308,BCA-105009,1/28/2022
40638 Simonds Dr,Big Bear Lake,CA,92315,34.2445419,-116.9153952,BCA-103386,8/15/2021
40246 Dream St,Big Bear Lake,CA,92315,34.2421879,-116.9239979,BCA-102665,6/10/2021
42311 Eagle Ridge,Big Bear Lake,CA,92315,34.2571782,-116.8789102,BCA-103346,8/24/2021
344 Edgemoor Rd,Big Bear Lake,CA,92315,34.2465482,-116.9353604,BCA-104719,1/17/2022
667 Summit Blvd APT 2,Big Bear Lake,CA,92315,34.2401954,-116.8882028,BCA-102843,8/26/2021
742 Summit Dr,Laguna Beach,CA,92651,33.5328562,-117.7675041,BCA-105102,2/6/2022
43222 Sunset Dr,Big Bear Lake,CA,92315,34.2359528,-116.8592273,BCA-104206,12/2/2021
41935 Switzerland Dr # 50,Big Bear Lake,CA,92315,34.236645,-116.886489,BCA-105040,3/20/2022
41745 Comstock Ln,Big Bear Lake,CA,92315,34.2402692,-116.8917013,BCA-104476,12/5/2021
41334 Condor Dr,Big Bear Lake,CA,92315,34.2517754,-116.90019,BCA-103528,10/1/2021
408 Conklin Rd,Big Bear Lake,CA,92315,34.2452769,-116.8996609,BCA-103902,10/11/2021
693 Conklin Rd,Big Bear Lake,CA,92315,34.2401725,-116.8991088,BCA-103594,10/7/2021
42548 Cougar Rd,Big Bear Lake,CA,92315,34.242232,-116.874093,BCA-104604,12/4/2021
42762 Cougar Rd,Big Bear Lake,CA,92315,34.241807,-116.869297,BCA-104577,11/27/2021
472 Windsong Pl,Big Bear Lake,CA,92315,34.257895,-116.8799685,BCA-105366,4/27/2022
43539 Wolf Rd,Big Bear Lake,CA,92315,34.235537,-116.8523132,BCA-105436,3/16/2022
43697 Wolf Rd,Big Bear Lake,CA,92315,34.2332588,-116.8488158,BCA-99535,7/1/2021
241 Wren Dr,Big Bear Lake,CA,92315,34.2478845,-116.8961182,BCA-104253,11/6/2021
43598 Yosemite Dr,Big Bear Lake,CA,92315,34.2330129,-116.8508866,BCA-105104,2/2/2022
43727 Yosemite Dr,Big Bear Lake,CA,92315,34.2309749,-116.8480795,BCA-102993,8/8/2021
573 Lucerne Dr,Big Bear Lake,CA,92315,34.2417332,-116.865336,BCA-103657,9/23/2021
694 Main St,Hingham,MA,02043,42.2099456,-70.8832041,BCA-103709,10/23/2021
615 Marin Rd,Big Bear Lake,CA,92315,34.241438,-116.9068841,BCA-104218,9/29/2021
670 Marin Rd,Big Bear Lake,CA,92315,34.2404946,-116.9072982,BCA-102812,8/23/2021
42678 La Cerena Ave,Big Bear Lake,CA,92315,34.2376689,-116.871076,BCA-103597,10/24/2021
42794 La Cerena Ave,Big Bear Lake,CA,92315,34.23766,-116.868536,BCA-103716,11/3/2021
42594 La Placida Ave,Big Bear Lake,CA,92315,34.2382632,-116.8728824,BCA-102529,6/27/2021
42706 La Placida Ave,Big Bear Lake,CA,92315,34.2383036,-116.8704897,BCA-103460,10/2/2021
41295 Lahontan Dr,Big Bear Lake,CA,92315,34.2453615,-116.9011792,BCA-103520,10/24/2021
135 Lake Dr,Mountain Lakes,NJ,07046,40.8850914,-74.44326579999999,BCA-102525,6/8/2021
42810 Monterey St,Big Bear Lake,CA,92315,34.2411108,-116.8683615,BCA-103360,8/5/2021
42921 Monterey St,Big Bear,CA,92314,34.24053380000001,-116.8658537,BCA-105078,2/13/2022
42954 Monterey St,Big Bear Lake,CA,92315,34.2408688,-116.865244,BCA-104716,1/14/2022
43062 Monterey St,Big Bear Lake,CA,92315,34.2408982,-116.8628972,BCA-104878,2/8/2022
43014 Moonridge Rd,Big Bear Lake,CA,92315,34.2376204,-116.8638175,BCA-104448,11/2/2021
43117 Moonridge Rd,Big Bear Lake,CA,92315,34.2354312,-116.8604583,BCA-104145,12/5/2021
43230 Moonridge Rd,Big Bear Lake,CA,92315,34.2303434,-116.8588017,BCA-103477,10/9/2021
449 Mountainaire Ln,Big Bear Lake,CA,92315,34.2445046,-116.9024214,BCA-104711,1/17/2022
40270 Narrow Ln,Big Bear Lake,CA,92315,34.2437709,-116.9232619,BCA-103951,10/19/2021
39074 N Bay Dr,Big Bear Lake,CA,92315,34.2420094,-116.9496201,BCA-105122,2/4/2022
42687 Haupstrasse Dr,Big Bear Lake,CA,92315,34.2439651,-116.8709038,BCA-103179,9/11/2021
42285 Heavenly Valley Rd,Big Bear Lake,CA,92315,34.239539,-116.8796004,BCA-105163,3/19/2022
42364 Heavenly Valley Rd,Big Bear Lake,CA,92315,34.2401309,-116.8779439,BCA-104508,1/22/2022
40057 Highland Ln,Big Bear Lake,CA,92315,34.2390945,-116.9282302,BCA-104275,11/9/2021
40092 Hillcrest Dr,Big Bear Lake,CA,92315,34.2387079,-116.9273101,BCA-103645,10/12/2021
41605 Hummingbird Ln,Big Bear Lake,CA,92315,34.2472873,-116.8945539,BCA-104100,10/26/2021
857 Jay Bird Ln,Big Bear Lake,CA,92315,34.237093,-116.929903,BCA-102782,6/23/2021
560 Jeffries Rd,Big Bear Lake,CA,92315,34.2425637,-116.9027989,BCA-104713,1/23/2022
40573 Simonds Dr #2,Big Bear Lake,CA,92315,34.2433769,-116.9164073,BCA-103443,8/13/2021
854 Brier Trail Unit B,Big Bear Lake,CA,92315,34.2377258,-116.9471362,BCA-103258,8/18/2021
1352 Club View Dr Unit A,Big Bear Lake,CA,92315,34.2277461,-116.8627083,BCA-103305,7/29/2021
40197 Mill Creek Rd Unit A,Big Bear Lake,CA,92315,34.2375787,-116.925056,BCA-104792,10/24/2021
335 S Arroyo Dr Unit C,San Gabriel,CA,91776,34.0967288,-118.1126148,BCA-105363,3/3/2022
1310 Lassen Dr Unit B,Nipomo,CA,93444,35.0152579,-120.4915403,BCA-104587,12/2/2021
43451 Sheephorn Rd,Big Bear Lake,CA,92315,34.2352381,-116.8525457,BCA-103721,9/26/2021
1288 Club View Dr #102,Big Bear,CA,92314,34.2289324,-116.8618848,BCA-103992,10/15/2021
43625 Wolf Rd,Big Bear Lake,CA,92315,34.2344936,-116.8504127,BCA-105118,1/6/2022
1209 Aspen Dr,Waukesha,WI,53188,43.0277531,-88.2505528,BCA-103207,9/28/2021
42337 Avalon Rd,Big Bear Lake,CA,92315,34.2446907,-116.8785881,BCA-104287,10/16/2021
42606 Avalon Rd,Big Bear Lake,CA,92315,34.2444281,-116.8726984,BCA-103641,8/26/2021
42387 Balboa Ln,Big Bear Lake,CA,92315,34.2442525,-116.8777138,BCA-103582,9/16/2021
1295 Balsam Dr,Big Bear Lake,CA,92315,34.2287124,-116.8638203,BCA-105182,2/10/2022
40954 Pennsylvania Ave,Big Bear Lake,CA,92315,34.2396952,-116.9081263,BCA-104200,11/22/2021
753 Marin Dr,Big Bear Lake,CA,92315,34.2391573,-116.9069795,BCA-103961,10/19/2021
41070 Pennsylvania Ave,Big Bear Lake,CA,92315,34.2393388,-116.9060811,BCA-104708,3/26/2022
42592 Peregrine Ave,Big Bear Lake,CA,92315,34.2390087,-116.873009,BCA-104290,11/10/2021
1235 Pigeon Rd,Big Bear Lake,CA,92315,34.2303146,-116.8647378,BCA-104184,11/20/2021
583 Ponderosa Dr,Big Bear Lake,CA,92315,34.2416972,-116.887137,BCA-104537,12/10/2021
164 Finch Dr,Big Bear Lake,CA,92315,34.2494555,-116.9004661,BCA-104367,12/20/2021
237 Finch Dr,Big Bear Lake,CA,92315,34.2483139,-116.8992468,BCA-103900,10/2/2021
39588 Forest Rd,Big Bear Lake,CA,92315,34.2498272,-116.9380465,BCA-104929,10/9/2021
39592 Forest Rd,Big Bear Lake,CA,92315,34.2498109,-116.9378214,BCA-104765,12/23/2021
39740 Forest Rd,Big Bear Lake,CA,92315,34.2480691,-116.9347164,BCA-103877,11/19/2021
39752 Forest Rd,Big Bear Lake,CA,92315,34.2478621,-116.9346129,BCA-103914,10/19/2021
40087 Forest Rd,Big Bear Lake,CA,92315,34.2411204,-116.9274941,BCA-104337,10/6/2021
470 Fox Dr,Big Bear Lake,CA,92315,34.24365969999999,-116.8740788,BCA-102844,7/18/2021
373 Georgia St,Big Bear Lake,CA,92315,34.2458202,-116.900259,BCA-102667,7/8/2021
41753 Tanager Dr,Big Bear Lake,CA,92315,34.2461918,-116.8915173,BCA-103929,11/21/2021
776 Tehama Dr,Big Bear Lake,CA,92315,34.2379794,-116.863875,BCA-103414,8/31/2021
822 Tehama Dr,Big Bear Lake,CA,92315,34.2371339,-116.8628051,BCA-102466,7/1/2021
828 Tehama Dr,Big Bear Lake,CA,92315,34.2370162,-116.8626211,BCA-103389,10/6/2021
872 Tehama Dr,Big Bear Lake,CA,92315,34.2360758,-116.8616547,BCA-103271,8/17/2021
704 Temple Ln,Big Bear Lake,CA,92315,34.2397895,-116.9235839,BCA-103753,10/9/2021
656 St Moritz Dr,Big Bear Lake,CA,92315,34.240446,-116.8907811,BCA-103232,9/18/2021
41810 St Moritz Ct,Big Bear Lake,CA,92315,34.241549,-116.8898609,BCA-104644,7/16/2021
629 San Gorgonio Dr,Big Bear Lake,CA,92315,34.2409349,-116.8863181,BCA-102909,7/8/2021
1263 Sand Canyon Ct,Big Bear Lake,CA,92315,34.2295571,-116.8473154,BCA-104924,1/21/2022
43597 Sand Canyon Rd,Big Bear Lake,CA,92315,34.2306471,-116.8508406,BCA-104120,11/16/2021
285 Santa Clara Blvd,Big Bear Lake,CA,92315,34.2470532,-116.8752291,BCA-104237,10/22/2021
270 Scandia Rd,Big Bear Lake,CA,92315,34.2472511,-116.8778059,BCA-103193,7/30/2021
383 Scandia Rd,Big Bear Lake,CA,92315,34.2456789,-116.8784961,BCA-102685,5/26/2021
825 Edgemoor Rd,Big Bear Lake,CA,92315,34.2378499,-116.9281727,BCA-103646,10/2/2021
831 Edgemoor Rd,Big Bear Lake,CA,92315,34.2377355,-116.9278046,BCA-105509,11/18/2021
921 Elk Rd,Big Bear,CA,92314,34.2353798,-116.8581114,BCA-103909,11/6/2021
40218 Esterly Ln,Big Bear Lake,CA,92315,34.2410804,-116.924596,BCA-104335,11/5/2021
40256 Esterly Ln,Big Bear Lake,CA,92315,34.2411022,-116.9237794,BCA-105252,5/27/2022
40267 Esterly Ln,Big Bear Lake,CA,92315,34.2406753,-116.9235839,BCA-103301,8/19/2021
147 N Eureka Dr,Big Bear Lake,CA,92315,34.2518751,-116.9005351,BCA-104564,12/15/2021
1269 Siskiyou Dr,Big Bear Lake,CA,92315,34.2290401,-116.8566389,BCA-103954,10/19/2021
42084 Snowmass Ln,Big Bear Lake,CA,92315,34.2428978,-116.8839715,BCA-103196,9/20/2021
42106 Snowmass Ln,Big Bear Lake,CA,92315,34.2431782,-116.8834654,BCA-104504,12/4/2021
661 Spruce Rd #2,Big Bear Lake,CA,92315,34.2406281,-116.9208007,BCA-102955,7/16/2021
560 St Anton Ct,Big Bear Lake,CA,92315,34.2421324,-116.8916553,BCA-102311,6/27/2021
356 Starlight Cir,Big Bear Lake,CA,92315,34.253784,-116.871637,BCA-103155,9/15/2021
481 Starlight Cir,Big Bear Lake,CA,92315,34.2561031,-116.8728824,BCA-104740,5/12/2022
668 Cove Dr,Big Bear Lake,CA,92315,34.2414064,-116.9603372,BCA-103487,9/3/2021
687 Cove Dr,Big Bear Lake,CA,92315,34.2410497,-116.9594633,BCA-102704,6/16/2021
743 Cove Dr,Big Bear Lake,CA,92315,34.239903,-116.9588654,BCA-104903,8/20/2021
779 Cove Dr,Big Bear Lake,CA,92315,34.240075,-116.9571176,BCA-102578,6/19/2021
421 Crane Dr,Big Bear Lake,CA,92315,34.2449211,-116.8940018,BCA-102837,6/4/2021
611 Crestwood Dr,Big Bear Lake,CA,92315,34.2413099,-116.8855819,BCA-105158,3/4/2022
39786 Crocus Dr,Big Bear Lake,CA,92315,34.2373153,-116.9341871,BCA-105372,3/12/2022
40694 Croft Ln,Big Bear Lake,CA,92315,34.2414915,-116.9141185,BCA-103633,9/2/2021
43368 Deer Canyon Rd,Big Bear Lake,CA,92315,34.2315095,-116.8559026,BCA-102967,8/8/2021
43264 Deer Canyon Rd,Big Bear Lake,CA,92315,34.2325691,-116.8580309,BCA-105121,2/4/2022
43273 Deer Canyon Rd,Big Bear Lake,CA,92315,34.232125,-116.857996,BCA-102410,7/3/2021
43491 Villa Grove Ave,Big Bear Lake,CA,92315,34.2359136,-116.8532796,BCA-104186,11/20/2021
453 Vista Ln,Big Bear Lake,CA,92315,34.244602,-116.9263901,BCA-104768,1/9/2022
535 Vista Ln,Edmond,OK,73034,35.6527141,-97.4515646,BCA-102644,7/2/2021
38840 Waterview Dr,Big Bear Lake,CA,92315,34.2451339,-116.9544498,BCA-103496,9/3/2021
39062 Waterview Dr,Big Bear Lake,CA,92315,34.2441755,-116.9494821,BCA-103011,6/20/2021
39071 Waterview Dr,Big Bear Lake,CA,92315,34.2440536,-116.9489761,BCA-103861,10/12/2021
39187 Waterview Dr,Big Bear Lake,CA,92315,34.2454179,-116.9469522,BCA-104026,11/2/2021
42563 Willow Ave,Big Bear Lake,CA,92315,34.2359768,-116.8735266,BCA-103700,11/13/2021
555 Breckenridge Rd,Big Bear Lake,CA,92315,34.2423261,-116.8850298,BCA-103652,9/21/2021
595 Breckenridge Rd,Big Bear Lake,CA,92315,34.2415775,-116.8846153,BCA-103818,10/18/2021
644 Breckenridge Rd,Big Bear Lake,CA,92315,34.24049220000001,-116.8851218,BCA-104461,1/7/2022
854 Brier Trail Unit A,Big Bear Lake,CA,92315,34.2377258,-116.9471362,BCA-104104,11/1/2021
41853 Brownie Ln,Big Bear Lake,CA,92315,34.2422679,-116.8890327,BCA-102522,5/31/2021
1301 Buffalo Ct,North Little Rock,AR,72118,34.8014792,-92.2857863,BCA-102619,7/15/2021
1319 Buffalo Ct,Laredo,TX,78045,27.5910985,-99.5191033,BCA-103242,9/25/2021
342 Catalina Rd,Big Bear Lake,CA,92315,34.2460472,-116.8805206,BCA-103712,9/29/2021
760 Bluejay Rd #11,Big Bear Lake,CA,92315,34.2388286,-116.9482172,BCA-104064,12/26/2021
760 Blue Jay Rd # 12,Big Bear Lake,CA,92315,34.239069,-116.9474108,BCA-102770,6/23/2021
760 Bluejay Rd #5,Big Bear Lake,CA,92315,34.2389095,-116.9484323,BCA-102651,6/26/2021
760 Bluejay Rd #8,Big Bear Lake,CA,92315,34.2389095,-116.9484323,BCA-105254,2/23/2022
758 Boulder Bay Ct,Big Bear Lake,CA,92315,34.2391871,-116.9492981,BCA-105427,2/28/2022
43289 Bow Canyon Rd,Big Bear Lake,CA,92315,34.23287,-116.8576513,BCA-104005,11/23/2021
43335 Bow Canyon Rd,Big Bear Lake,CA,92315,34.2323637,-116.8567654,BCA-102986,7/17/2021
639 Catbird Ln,Big Bear Lake,CA,92315,34.2414621,-116.9487001,BCA-105131,10/1/2021
42639 Cedar Ave,Big Bear Lake,CA,92315,34.236628,-116.871869,BCA-102961,7/15/2021
42743 Cedar Ave,Big Bear Lake,CA,92315,34.236628,-116.869586,BCA-104880,2/16/2022
42850 Cedar Ave,Big Bear Lake,CA,92315,34.236985,-116.8673262,BCA-104879,2/16/2022
40670 Big Bear Blvd APT 2,Big Bear Lake,CA,92315,34.2443776,-116.914421,BCA-103139,8/21/2021
40670 Big Bear Blvd # 8,Big Bear Lake,CA,92315,34.2440619,-116.9141266,BCA-103549,10/30/2021
39017 Bayview Ln,Big Bear Lake,CA,92315,34.2412837,-116.950816,BCA-102972,8/23/2021
39054 Bayview Ln,Big Bear Lake,CA,92315,34.241374,-116.9502641,BCA-102545,6/1/2021
1171 Bear Meadows Ln,Big Bear Lake,CA,92315,34.231246,-116.862183,BCA-104185,11/20/2021
41935 Switzerland Dr Apt 34,Big Bear Lake,CA,92315,34.2367497,-116.886633,BCA-104609,12/18/2021
41935 Switzerland Dr APT 36,Big Bear Lake,CA,92315,34.2370694,-116.8863436,BCA-103744,11/20/2021
41935 Switzerland Dr Apt 48,Big Bear Lake,CA,92315,34.2367905,-116.8864669,BCA-102759,6/19/2021
41935 Switzerland Dr Apt 60,Big Bear Lake,CA,92315,34.2365285,-116.8858852,BCA-105038,3/20/2022
41935 Switzerland Dr APT 74,Big Bear Lake,CA,92315,34.2369483,-116.8853298,BCA-102772,6/23/2021
41935 Switzerland Dr APT 89,Big Bear Lake,CA,92315,34.2360781,-116.8854133,BCA-105035,3/27/2022
41935 Switzerland Dr APT 92,Big Bear Lake,CA,92315,34.2360811,-116.8857111,BCA-105426,4/2/2022
41935 Switzerland Dr APT 10,Big Bear Lake,CA,92315,34.2369214,-116.8866337,BCA-103743,11/20/2021
676 Cienega Rd,Big Bear Lake,CA,92315,34.2405248,-116.9419384,BCA-103541,9/2/2021
737 Cienega Rd Unit B,Big Bear Lake,CA,92315,34.2396118,-116.9404392,BCA-103206,8/11/2021
749 Cienega Rd Unit A,Big Bear Lake,CA,92315,34.239429,-116.9412944,BCA-103495,10/14/2021
767 Cienega Rd Unit D,Big Bear Lake,CA,92315,34.239432,-116.9405479,BCA-104135,11/7/2021
773 Cienega Rd Unit C,Big Bear Lake,CA,92315,34.238995,-116.941293,BCA-103869,10/2/2021
793 Cienega Rd Unit C,Big Bear Lake,CA,92315,34.238772,-116.941297,BCA-104060,11/15/2021
799 Cienega Rd Unit A,Big Bear Lake,CA,92315,34.2388207,-116.9409724,BCA-104128,11/8/2021
854 Cienega Rd #100,Big Bear Lake,CA,92315,34.2373552,-116.9418924,BCA-104634,12/8/2021
1011 Club View Dr,Gallatin,TN,37066,36.3444471,-86.5092324,BCA-104049,10/23/2021
1056 Club View Dr,Big Bear Lake,CA,92315,34.2330393,-116.8654395,BCA-103445,8/10/2021
1432 Club View Dr,Big Bear Lake,CA,92315,34.226959,-116.865474,BCA-105081,2/6/2022
947 Club View Dr,Big Bear Lake,CA,92315,34.2349575,-116.8658882,BCA-102629,7/31/2021
41455 Comstock Ln,Big Bear Lake,CA,92315,34.240236,-116.897709,BCA-105147,3/6/2022
41456 Comstock Ln,Big Bear Lake,CA,92315,34.2406849,-116.8977056,BCA-104553,12/11/2021
39445 Lake Dr,Big Bear Lake,CA,92315,34.250119,-116.941633,BCA-102282,6/20/2021
39534 Lake Dr,Fawnskin,CA,92333,34.2491446,-116.9393624,BCA-103699,10/30/2021
39575 Lake Dr,Big Bear Lake,CA,92315,34.2481186,-116.9387644,BCA-103099,9/27/2021
39832 Lakeview Dr,Big Bear Lake,CA,92315,34.248246,-116.932685,BCA-103220,9/20/2021
Lakeview Dr,Brandenburg,KY,40108,37.9980985,-86.1661064,BCA-104876,2/13/2022
39802 Lakeview Dr #16,Big Bear Lake,CA,92315,34.249065,-116.933749,BCA-104632,12/8/2021
41574 Mcwhinney Ln,Big Bear Lake,CA,92315,34.2417613,-116.895106,BCA-102869,7/16/2021
41576 Mockingbird Dr,Big Bear Lake,CA,92315,34.247109,-116.894968,BCA-104231,11/5/2021
42572 Juniper Dr,Big Bear Lake,CA,92315,34.250306,-116.8733886,BCA-104568,12/27/2021
42662 Juniper St,Murrieta,CA,92562,33.5468403,-117.2223504,BCA-105210,5/13/2022
363 Knight Ave,Big Bear Lake,CA,92315,34.2460482,-116.9033876,BCA-102756,8/21/2021
649 Knight Ave,Big Bear Lake,CA,92315,34.2409268,-116.9032495,BCA-103701,10/2/2021
234 Knoll Rd,Big Bear Lake,CA,92315,34.248571,-116.9365104,BCA-104051,10/23/2021
713 Northstar Dr,Big Bear Lake,CA,92315,34.2391089,-116.88361,BCA-104874,1/18/2022
379 Olympic Dr,Big Bear Lake,CA,92315,34.2456015,-116.878312,BCA-104358,12/17/2021
381 Olympic Dr,Big Bear Lake,CA,92315,34.245397,-116.8781536,BCA-105308,3/26/2022
110 Oriole Dr,Big Bear Lake,CA,92315,34.2504038,-116.8991778,BCA-105280,2/26/2022
234 Oriole Dr,Big Bear Lake,CA,92315,34.248316,-116.897648,BCA-104556,12/11/2021
428 Oriole Dr,Big Bear Lake,CA,92315,34.2447991,-116.8975905,BCA-103970,10/20/2021
843 Paine Rd,Big Bear Lake,CA,92315,34.237361,-116.9156252,BCA-105365,4/12/2022
39255 Peak Ln,Big Bear Lake,CA,92315,34.2406503,-116.9456643,BCA-105250,2/25/2022
370 Gibralter Rd,Big Bear Lake,CA,92315,34.2460427,-116.9228478,BCA-104565,12/17/2021
40027 Glenview Rd,Big Bear Lake,CA,92315,34.2418628,-116.9287822,BCA-103843,10/7/2021
669 Golden W Dr,Big Bear Lake,CA,92315,34.2402218,-116.8891708,BCA-103683,9/13/2021
710 Golden W Dr,Big Bear Lake,CA,92315,34.239497,-116.889577,BCA-104125,11/4/2021
43072 Goldmine Woods Ln,Big Bear Lake,CA,92315,34.231856,-116.862574,BCA-103864,10/9/2021
43428 Primrose Dr,Big Bear Lake,CA,92315,34.2280728,-116.8542459,BCA-103732,10/12/2021
839 Ravine Rd,Big Bear Lake,CA,92315,34.2368599,-116.8600786,BCA-104791,10/9/2021
1448 Rockspray Dr,Big Bear Lake,CA,92315,34.22544329999999,-116.8530955,BCA-103725,9/26/2021
1450 Rockspray Ct,Big Bear Lake,CA,92315,34.2256822,-116.854476,BCA-103598,10/21/2021
1461 Rockspray Dr,Big Bear Lake,CA,92315,34.2261112,-116.8535097,BCA-103525,10/9/2021
247 N Eureka Dr,Big Bear Lake,CA,92315,34.2537542,-116.9024674,BCA-104617,12/8/2021
269 Eureka Dr,Big Bear Lake,CA,92315,34.2477104,-116.8980506,BCA-104361,12/15/2021
289 Eureka Dr,Big Bear Lake,CA,92315,34.2473186,-116.8980046,BCA-104276,11/9/2021
620 Eureka Dr,Big Bear Lake,CA,92315,34.2413683,-116.8986487,BCA-104834,1/12/2022
853 Eureka Dr,Big Bear Lake,CA,92315,34.2371017,-116.8979586,BCA-104043,11/9/2021
41910 Evergreen Dr,Big Bear Lake,CA,92315,34.2398737,-116.8877444,BCA-103162,9/5/2021
42098 Evergreen Dr,Big Bear Lake,CA,92315,34.2401989,-116.8837185,BCA-104701,11/10/2021
42243 Evergreen Dr,Big Bear Lake,CA,92315,34.2403358,-116.8804056,BCA-103757,9/30/2021
437 Fallen Leaf Rd,Big Bear Lake,CA,92315,34.2572532,-116.8756893,BCA-104804,1/7/2022
115 Finch Dr,Big Bear Lake,CA,92315,34.2511338,-116.9012022,BCA-103022,8/2/2021
603 Thrush Dr,Big Bear Lake,CA,92315,34.241378,-116.892029,BCA-105119,2/4/2022
783 Thrush Dr,Big Bear Lake,CA,92315,34.2381434,-116.8920924,BCA-104898,2/21/2022
42684 Timberline Trail,Big Bear Lake,CA,92315,34.2579533,-116.8709268,BCA-103186,8/9/2021
887 Tulip Ln,Big Bear Lake,CA,92315,34.2366136,-116.9306631,BCA-103968,10/20/2021
43360 Shasta Rd,Big Bear Lake,CA,92315,34.2297774,-116.8559026,BCA-105299,2/25/2022
43382 Shasta Rd,Big Bear Lake,CA,92315,34.2293621,-116.8554424,BCA-103568,8/23/2021
43470 Sheephorn Rd,Big Bear Lake,CA,92315,34.2354989,-116.8541424,BCA-104651,12/10/2021
43497 Sheephorn Rd,Big Bear Lake,CA,92315,34.2368926,-116.8548097,BCA-105175,3/17/2022
43228 Sheephorn Rd,Big Bear Lake,CA,92315,34.234703,-116.8594459,BCA-104675,1/24/2022
43418 Sheephorn Rd,Big Bear Lake,CA,92315,34.2350774,-116.8534521,BCA-103826,10/10/2021
43666 Sheephorn Rd,Big Bear Lake,CA,92315,34.2377207,-116.8584335,BCA-104757,1/25/2022
746 Silver Tip Dr,Big Bear,CA,92314,34.2385424,-116.8630237,BCA-105007,2/2/2022
40595 Simonds Dr,Big Bear Lake,CA,92315,34.2438281,-116.9160737,BCA-105354,4/12/2022
40609 Simonds Dr,Big Bear Lake,CA,92315,34.2439501,-116.9158552,BCA-102707,6/30/2021
40660 Simonds Dr,Big Bear Lake,CA,92315,34.2446173,-116.9148201,BCA-104143,11/7/2021
422 Dixie Ln,Big Bear Lake,CA,92315,34.245051,-116.9281957,BCA-102905,6/24/2021
443 Dixie Ln,Big Bear Lake,CA,92315,34.2446165,-116.9278621,BCA-105284,4/2/2022
444 Dixie Ln,Big Bear Lake,CA,92315,34.2446136,-116.9281727,BCA-103708,9/28/2021
40143 Dream St,Big Bear Lake,CA,92315,34.2419992,-116.9261601,BCA-102741,6/19/2021
188 Eagle Dr,Big Bear Lake,CA,92315,34.249099,-116.9012942,BCA-104347,11/16/2021
190 N Eagle Rd,Eagle,ID,83616,43.69673780000001,-116.3536062,BCA-103398,8/26/2021
42216 Eagle Ridge,Big Bear Lake,CA,92315,34.25628,-116.88162,BCA-105473,4/27/2022
42295 Eagle Ridge,Big Bear Lake,CA,92315,34.2571317,-116.8792783,BCA-104415,11/17/2021
42824 Eagles Flight Pl,Big Bear Lake,CA,92315,34.2547919,-116.8676828,BCA-102577,6/16/2021
585 Echo Ln,Big Bear Lake,CA,92315,34.2422746,-116.9454343,BCA-102710,6/5/2021
599 Echo Ln,Big Bear Lake,CA,92315,34.2420037,-116.9453883,BCA-104163,12/19/2021
119 Stony Creek Rd,Big Bear Lake,CA,92315,34.2504544,-116.8678898,BCA-104756,1/23/2022
340 Stony Creek Rd,Big Bear Lake,CA,92315,34.2557259,-116.8666244,BCA-103424,8/28/2021
569 Summit Blvd,Big Bear Lake,CA,92315,34.2418956,-116.8881355,BCA-103555,9/15/2021
569 Summit Blvd,Big Bear Lake,CA,92315,34.2418956,-116.8881355,BCA-104071,10/28/2021
667 Summit Blvd APT 1,Big Bear Lake,CA,92315,34.2402586,-116.8882019,BCA-105305,3/24/2022
690 Summit Blvd Unit A,Big Bear Lake,CA,92315,34.239833,-116.8887656,BCA-103409,5/28/2021
41477 Swan Dr,Big Bear Lake,CA,92315,34.2476968,-116.8970844,BCA-103886,10/23/2021
41771 Swan Dr,Big Bear Lake,CA,92315,34.2477639,-116.8908271,BCA-102846,7/1/2021
41816 Switzerland Dr,Big Bear Lake,CA,92315,34.2377745,-116.8898149,BCA-103317,8/27/2021
41588 Comstock Ln,Big Bear Lake,CA,92315,34.2408747,-116.894853,BCA-102626,7/24/2021
42770 Conifer Dr,Big Bear Lake,CA,92315,34.2424917,-116.8691668,BCA-104398,12/18/2021
872 Conklin Rd,Big Bear Lake,CA,92315,34.2367805,-116.8996609,BCA-104860,12/22/2021
42570 Constellation Dr,Big Bear Lake,CA,92315,34.2436985,-116.8735726,BCA-103595,10/7/2021
42656 Constellation Dr,Big Bear Lake,CA,92315,34.2437774,-116.8715983,BCA-102834,6/8/2021
652 Cottage Ln,Big Bear Lake,CA,92315,34.2408645,-116.9137045,BCA-105334,3/2/2022
42696 Cougar Rd,Big Bear Lake,CA,92315,34.2423356,-116.8708118,BCA-103848,11/20/2021
42728 Cougar Rd,Big Bear Lake,CA,92315,34.2422272,-116.8700756,BCA-103368,10/10/2021
42751 Cougar Rd,Big Bear Lake,CA,92315,34.241476,-116.869635,BCA-104646,12/8/2021
42778 Willow Ave,Big Bear Lake,CA,92315,34.2363118,-116.8688421,BCA-103784,11/8/2021
39050 Willow Landing Rd,Big Bear Lake,CA,92315,34.2406527,-116.9500801,BCA-104500,11/8/2021
39241 Willow Landing Rd,Big Bear Lake,CA,92315,34.2392163,-116.9459403,BCA-104811,2/22/2022
43565 Wolf Rd,Big Bear Lake,CA,92315,34.2350442,-116.8516689,BCA-103334,8/22/2021
43745 Wolf Rd,Big Bear Lake,CA,92315,34.232896,-116.8476193,BCA-102842,7/31/2021
43855 Wolf Rd,Big Bear Lake,CA,92315,34.2315994,-116.8453413,BCA-103919,10/15/2021
353 Wren Dr,Big Bear Lake,CA,92315,34.246164,-116.8960722,BCA-103760,10/21/2021
43578 Yosemite Dr,Big Bear Lake,CA,92315,34.2328751,-116.8513008,BCA-104286,3/21/2022
43803 Yosemite Dr,Big Bear Lake,CA,92315,34.2303578,-116.8464227,BCA-104618,12/8/2021
660 Lintner Rd,Big Bear Lake,CA,92315,34.2406847,-116.9351304,BCA-103260,9/17/2021
664 Marin Rd,Big Bear Lake,CA,92315,34.2406359,-116.9074247,BCA-103264,8/23/2021
707 Marina Rd,Russellville,AR,72802,35.306036,-93.176934,BCA-102567,6/4/2021
42557 La Cerena Ave,Big Bear Lake,CA,92315,34.2373604,-116.8737081,BCA-103930,11/5/2021
42770 La Cerena Ave,Big Bear Lake,CA,92315,34.2377095,-116.8689942,BCA-104469,11/23/2021
42765 La Placida Ave,Big Bear Lake,CA,92315,34.237937,-116.869132,BCA-104439,11/28/2021
42769 La Placida Ave,Big Bear Lake,CA,92315,34.2379358,-116.8690599,BCA-105275,2/25/2022
119 Lagunita Ln Unit A,Big Bear Lake,CA,92315,34.2506776,-116.9311743,BCA-105084,3/27/2022
122 Lagunita Ln,Big Bear Lake,CA,92315,34.2504947,-116.9311866,BCA-102825,6/17/2021
152 Lake Dr,Glen Spey,NY,12737,41.5185542,-74.83699969999999,BCA-104464,11/23/2021
42937 Monterey St,Big Bear Lake,CA,92315,34.240511,-116.8655661,BCA-104540,11/30/2021
42944 Monterey St,Big Bear Lake,CA,92315,34.240906,-116.865428,BCA-103227,9/4/2021
42965 Monterey St,Big Bear Lake,CA,92315,34.2404844,-116.8649387,BCA-103240,9/20/2021
43041 Monterey St,Big Bear Lake,CA,92315,34.2404784,-116.8633113,BCA-103183,9/16/2021
43078 Monterey St,Big Bear Lake,CA,92315,34.2408347,-116.862483,BCA-104031,11/3/2021
42851 Monterey St,Big Bear Lake,CA,92315,34.2407542,-116.8672686,BCA-105197,2/11/2022
42968 Monterey St,Big Bear Lake,CA,92315,34.2408581,-116.8647321,BCA-104222,12/4/2021
42675 Moonridge Rd,Big Bear,CA,92314,34.239741,-116.8712259,BCA-104914,2/8/2022
43250 Moonridge Rd,Big Bear Lake,CA,92315,34.2300056,-116.8585256,BCA-104306,11/17/2021
781 Mountain Sky Dr,Big Bear Lake,CA,92315,34.2381389,-116.886352,BCA-105349,3/2/2022
43132 Grizzly Ct,Big Bear Lake,CA,92315,34.239071,-116.861199,BCA-105196,2/11/2022
40180 Guinan Ln,Big Bear Lake,CA,92315,34.240431,-116.92547,BCA-103268,8/27/2021
42290 Heavenly Valley Rd,Big Bear Lake,CA,92315,34.2400912,-116.8793933,BCA-105216,3/13/2022
542 Highland Rd,Hinsdale,IL,60521,41.8046261,-87.9155145,BCA-103263,8/16/2021
40055 Hillcrest Dr,Big Bear Lake,CA,92315,34.2384394,-116.9282762,BCA-103394,8/26/2021
40157 Hillcrest Dr,Big Bear Lake,CA,92315,34.2373506,-116.926068,BCA-105090,3/14/2022
1362 Club View Dr #3,Big Bear,CA,92314,34.2276466,-116.8628972,BCA-103310,7/29/2021
41743 Tanager Dr,Big Bear Lake,CA,92315,34.2462983,-116.8915442,BCA-104390,12/18/2021
41785 Switzerland Dr,Big Bear Lake,CA,92315,34.2373298,-116.8905051,BCA-103249,8/13/2021
1287 Pigeon Rd,Big Bear,CA,92314,34.2288472,-116.8629341,BCA-104175,12/20/2021
42415 Avalon Rd,Big Bear Lake,CA,92315,34.24489,-116.876972,BCA-102290,5/5/2021
38789 Waterview Dr,Big Bear Lake,CA,92315,34.2450136,-116.9564046,BCA-102116,5/17/2021
41617 Brownie Ln,Big Bear Lake,CA,92315,34.2420435,-116.8939098,BCA-102405,4/11/2021
390 Canvasback Rd,Big Bear Lake,CA,92315,34.2457919,-116.9343024,BCA-102381,5/9/2021
383 Catalina Rd,Big Bear Lake,CA,92315,34.24551760000001,-116.8796924,BCA-102404,5/19/2021
473 Cienega Rd,Big Bear Lake,CA,92315,34.244408,-116.9437323,BCA-101685,4/9/2021
41935 Switzerland Dr APT 81,Big Bear Lake,CA,92315,34.2364536,-116.8853292,BCA-102302,4/24/2021
43586 Colusa Dr,Big Bear Lake,CA,92315,34.2339166,-116.8511972,BCA-102112,5/23/2021
39645 Lake Dr,Fawnskin,CA,92333,34.2471414,-116.9371084,BCA-102385,5/15/2021
880 Georgia St,Big Bear Lake,CA,92315,34.2366811,-116.9007651,BCA-102923,4/10/2021
418 Gibralter Rd,Big Bear Lake,CA,92315,34.2453487,-116.9233999,BCA-102284,5/12/2021
765 Summit Blvd APT 2,Big Bear Lake,CA,92315,34.2384359,-116.8882533,BCA-102211,5/7/2021
41935 Switzerland Dr # 108,Big Bear Lake,CA,92315,34.2360874,-116.8863231,BCA-102306,4/24/2021
41935 Switzerland Dr APT 111,Big Bear Lake,CA,92315,34.2363077,-116.8865776,BCA-102632,4/24/2021
1382 Lassen Ct,Big Bear Lake,CA,92315,34.2273079,-116.8566389,BCA-101922,4/17/2021
637 Marin Rd,Big Bear Lake,CA,92315,34.2411158,-116.9068841,BCA-102327,4/15/2021
42550 La Placida Ave,Big Bear Lake,CA,92315,34.238339,-116.873876,BCA-102364,5/15/2021
128 Lagunita Ln,Big Bear Lake,CA,92315,34.2503543,-116.9306683,BCA-102430,5/19/2021
42872 Monterey St,Big Bear Lake,CA,92315,34.2411542,-116.866981,BCA-102388,5/19/2021
43142 Plymouth Rd,Big Bear Lake,CA,92315,34.2379986,-116.8612291,BCA-102907,4/10/2021
472 Temple Ln,Big Bear Lake,CA,92315,34.2440303,-116.92455,BCA-102389,5/20/2021
723 Elm St,McKeesport,PA,15133,40.33055239999999,-79.8572671,BCA-102292,5/13/2021
781 Elm St,Big Bear Lake,CA,92315,34.237957,-116.874402,BCA-101688,4/17/2021
795 Elm St,Manchester,NH,03101,42.9895733,-71.4626347,BCA-102509,5/8/2021
125 Starvation Flats Rd,Big Bear Lake,CA,92315,34.2512227,-116.8787726,BCA-103425,5/2/2021
278 Oriole Dr,Big Bear Lake,CA,92315,34.2475557,-116.8976826,BCA-102336,5/18/2021
701 Golden W Dr,Big Bear Lake,CA,92315,34.2396178,-116.8891708,BCA-102384,5/13/2021
42972 Falls Ave,Big Bear Lake,CA,92315,34.2313649,-116.8645537,BCA-102463,5/22/2021
841 Silver Tip Dr,Big Bear Lake,CA,92315,34.236982,-116.8610565,BCA-102310,5/7/2021
41935 Switzerland Dr APT 112,Big Bear Lake,CA,92315,34.2363088,-116.8866769,BCA-102307,4/24/2021
700 Summit Blvd Unit B,Big Bear Lake,CA,92315,34.2396643,-116.8888027,BCA-102125,4/18/2021
42788 Fox Farm Rd,Big Bear Lake,CA,92315,34.2488056,-116.8686491,BCA-102249,5/15/2021
217 Cardinal Dr,Big Bear Lake,CA,92315,34.248414,-116.8943009,BCA-102390,5/20/2021
818 Georgia St,Vallejo,CA,94590,38.1012437,-122.2492183,BCA-102334,5/18/2021
43518 Ridgecrest Dr,Big Bear Lake,CA,92315,34.2304801,-116.8524052,BCA-102433,5/20/2021
43574 Sheephorn Rd,Big Bear Lake,CA,92315,34.2367306,-116.8568229,BCA-105390,5/4/2021
43215 Sunset Dr,Big Bear Lake,CA,92315,34.2361194,-116.8598025,BCA-102315,5/14/2021
41569 Swan Dr,Big Bear Lake,CA,92315,34.2479809,-116.8951981,BCA-102359,4/14/2021
41747 Comstock Ln,Big Bear Lake,CA,92315,34.2400679,-116.8917013,BCA-101901,4/23/2021
640 Conklin Rd,Big Bear Lake,CA,92315,34.240987,-116.8997529,BCA-102866,5/17/2021
42710 Constellation Dr,Big Bear Lake,CA,92315,34.2438102,-116.8705357,BCA-102335,5/18/2021
43575 Wolf Rd,Big Bear Lake,CA,92315,34.2349264,-116.8514849,BCA-102728,5/10/2021
668 Lintner Rd,Big Bear Lake,CA,92315,34.24057800000001,-116.9349004,BCA-102712,5/23/2021
40218 Guinan Ln,Big Bear Lake,CA,92315,34.2404764,-116.924596,BCA-102130,5/15/2021
599 Sahuaro Way,Big Bear Lake,CA,92315,34.2412452,-116.8650139,BCA-102447,4/9/2021
804 Elm St,Williamsburg,IA,52361,41.6586782,-92.0106959,BCA-102443,5/19/2021
42955 Encino Rd,Big Bear Lake,CA,92315,34.2398728,-116.8651979,BCA-102214,4/21/2021
43857 Canyon Crest Dr,Big Bear Lake,CA,92315,34.23080059999999,-116.8452262,BCA-101636,4/12/2021
42728 Cedar Ave,Big Bear Lake,CA,92315,34.2370989,-116.8699095,BCA-102286,5/5/2021
41935 Switzerland Dr # 124,Big Bear Lake,CA,92315,34.2360973,-116.8872891,BCA-102308,4/24/2021
41935 Switzerland Dr APT 24,Big Bear Lake,CA,92315,34.2364957,-116.8871365,BCA-102295,4/24/2021
755 Cienega Rd Unit A,Big Bear Lake,CA,92315,34.239406,-116.94102,BCA-102532,5/15/2021
40034 Lakeview Dr,Big Bear Lake,CA,92315,34.2474396,-116.9284372,BCA-102508,5/18/2021
40316 Lakeview Dr,Big Bear Lake,CA,92315,34.2442439,-116.9221118,BCA-102337,5/18/2021
208 Knoll Rd,Big Bear Lake,CA,92315,34.2490834,-116.9365564,BCA-102668,5/20/2021
103 Oriole Dr,Big Bear Lake,CA,92315,34.2508127,-116.8988098,BCA-102432,4/30/2021
41088 Maryland Rd,Big Bear Lake,CA,92315,34.2372616,-116.9056419,BCA-102379,5/7/2021
42705 Moonridge Rd Unit A,Big Bear Lake,CA,92315,34.2395521,-116.8704897,BCA-102234,4/25/2021
590 Summit Blvd Unit B,Big Bear Lake,CA,92315,34.2416887,-116.8887567,BCA-102445,5/19/2021
307 Oriole Dr,Big Bear Lake,CA,92315,34.2470161,-116.8971535,BCA-102257,4/14/2021
792 Pine Knot Ave,Big Bear Lake,CA,92315,34.2379343,-116.9123136,BCA-101428,4/17/2021
39305 Crest Ln,Big Bear Lake,CA,92315,34.2401464,-116.9445603,BCA-102089,4/16/2021
39184 Buckthorn Rd,Big Bear Lake,CA,92315,34.2441303,-116.9472052,BCA-102735,5/16/2021
41935 Switzerland Dr Apt 57,Big Bear Lake,CA,92315,34.2364775,-116.8859985,BCA-102300,4/24/2021
41992 Switzerland Dr,Big Bear Lake,CA,92315,34.2373757,-116.886042,BCA-101494,4/25/2021
616 Talmadge St,Eau Claire,WI,54701,44.8104765,-91.4918046,BCA-102600,5/20/2021
468 Jeffries Rd,Big Bear Lake,CA,92315,34.2441332,-116.9017773,BCA-104209,5/1/2021
944 Knickerbocker Rd,Big Bear Lake,CA,92315,34.2354183,-116.9103806,BCA-102350,5/12/2021
643 Knight Ave,Big Bear Lake,CA,92315,34.2409324,-116.9039511,BCA-102285,5/3/2021
619 Golden W Dr,Big Bear Lake,CA,92315,34.2411295,-116.8890787,BCA-102287,5/5/2021
41193 Swallow Dr,Big Bear Lake,CA,92315,34.2523246,-116.9030655,BCA-102266,5/3/2021
797 Switzerland Pl,Big Bear Lake,CA,92315,34.2379696,-116.890183,BCA-102599,5/23/2021
688 Main St,Hingham,MA,02043,42.2104305,-70.8833159,BCA-102408,5/18/2021
42625 La Placida Ave,Big Bear Lake,CA,92315,34.237972,-116.8722382,BCA-102441,5/5/2021
41191 Pennsylvania Ave,Big Bear Lake,CA,92315,34.2388158,-116.9036636,BCA-102264,5/17/2021
42578 Cedar Ave,Big Bear Lake,CA,92315,34.2370085,-116.8732505,BCA-102243,5/3/2021
1002 Cherry Ln,New Bern,NC,28562,35.1132595,-77.0774246,BCA-102152,5/3/2021
41935 Switzerland Dr,Big Bear Lake,CA,92315,34.2367465,-116.8873221,BCA-102297,4/24/2021
41935 Switzerland Dr APT 3,Big Bear Lake,CA,92315,34.2370878,-116.8872466,BCA-102293,4/24/2021
895 Knight Ave,Big Bear Lake,CA,92315,34.23630199999999,-116.9040777,BCA-103730,10/7/2021
771 Outlook Ln,Big Bear Lake,CA,92315,34.2383907,-116.9189375,BCA-102406,5/22/2021
41704 Park Ave,Big Bear Lake,CA,92315,34.2450625,-116.8922074,BCA-102012,5/12/2021
256 Eureka Dr,Big Bear Lake,CA,92315,34.2479131,-116.8985567,BCA-102638,5/7/2021
142 Finch Dr,Big Bear Lake,CA,92315,34.2498735,-116.9007421,BCA-102105,4/28/2021
43897 Yosemite Dr,Big Bear Lake,CA,92315,34.2297763,-116.8444439,BCA-102333,5/8/2021
40592 Simonds Dr # 2,Big Bear Lake,CA,92315,34.2440837,-116.9164247,BCA-101900,4/20/2021
499 Woodland St,Dallas,GA,30157,33.940528,-84.7598932,BCA-101829,4/29/2021
1298 Pigeon Rd,Big Bear Lake,CA,92315,34.2286293,-116.8632998,BCA-102637,5/10/2021
39733 Forest Rd,Big Bear Lake,CA,92315,34.2479463,-116.9354064,BCA-102382,5/10/2021
39922 Forest Rd,Big Bear Lake,CA,92315,34.2461318,-116.9309903,BCA-101485,4/26/2021
609 Temple Ln,Big Bear Lake,CA,92315,34.2416186,-116.9231699,BCA-102268,5/19/2021
814 Crestwood Dr,Big Bear Lake,CA,92315,34.2375662,-116.886088,BCA-101720,4/17/2021
42824 Cedar Ave,Big Bear Lake,CA,92315,34.2369993,-116.8678208,BCA-102313,5/3/2021
39039 Bayview Ln,Big Bear Lake,CA,92315,34.2410999,-116.950402,BCA-105413,5/1/2021
41935 Switzerland Dr APT 49,Big Bear Lake,CA,92315,34.2368674,-116.8864657,BCA-102299,4/24/2021
1377 Club View Dr #18,Big Bear Lake,CA,92315,34.2265075,-116.8629971,BCA-102460,5/21/2021
397 Glenwood Dr,Big Bear Lake,CA,92315,34.2564055,-116.8698915,BCA-102171,4/13/2021
42518 Gold Rush Dr,Big Bear Lake,CA,92315,34.2512243,-116.8744469,BCA-102391,5/20/2021
43689 Ridgecrest Dr,Big Bear Lake,CA,92315,34.2254455,-116.849322,BCA-102192,5/3/2021
781 Tomahawk Dr,Big Bear Lake,CA,92315,34.23815140000001,-116.8871923,BCA-102157,4/22/2021
700 Summit Blvd Unit A,Big Bear Lake,CA,92315,34.2396643,-116.8888027,BCA-102124,4/18/2021
40261 Mahanoy Ln,Big Bear Lake,CA,92315,34.2413709,-116.9236644,BCA-102431,5/16/2021
154 Lagunita Ln,Big Bear Lake,CA,92315,34.2497854,-116.9294876,BCA-102462,5/21/2021
41401 Lahontan Dr,Big Bear Lake,CA,92315,34.2453732,-116.8987407,BCA-102479,5/21/2021
508 Highland Rd,Ithaca,NY,14850,42.462351,-76.490223,BCA-102586,5/17/2021
39789 Forest Rd,Big Bear Lake,CA,92315,34.2469408,-116.9342104,BCA-102225,5/18/2021
440 Tennessee Ln,Big Bear Lake,CA,92315,34.2446817,-116.9275861,BCA-102283,5/2/2021
42733 Cedar Ave,Big Bear Lake,CA,92315,34.236645,-116.869834,BCA-102733,5/6/2021
562 Cienega Rd,Big Bear Lake,CA,92315,34.2426641,-116.9444683,BCA-102446,5/12/2021
41935 Switzerland Dr Apt 27,Big Bear Lake,CA,92315,34.2366028,-116.8871348,BCA-102296,4/24/2021
41935 Switzerland Dr APT 91,Big Bear Lake,CA,92315,34.2360801,-116.8856118,BCA-102153,5/23/2021
41935 Switzerland Dr APT 13,Big Bear Lake,CA,92315,34.2369129,-116.8868489,BCA-102294,4/24/2021
41431 Comstock Ln,Big Bear Lake,CA,92315,34.24024,-116.8982513,BCA-102360,4/10/2021
336 Knight Ave UNIT A,Big Bear Lake,CA,92315,34.2465652,-116.9041442,BCA-102551,5/11/2021
523 Paine Ct,Big Bear Lake,CA,92315,34.2431078,-116.916926,BCA-102601,5/19/2021
43690 Ridgecrest Dr,Big Bear Lake,CA,92315,34.2254329,-116.8488618,BCA-102094,4/9/2021
299 Eureka Dr,Big Bear Lake,CA,92315,34.2471761,-116.8980966,BCA-102891,5/21/2021
41961 Evergreen Dr,Big Bear Lake,CA,92315,34.2393709,-116.8866747,BCA-102254,5/19/2021
42923 Falls Ave,Big Bear Lake,CA,92315,34.2309785,-116.8656587,BCA-102442,5/8/2021
43345 Sheephorn Rd,Big Bear Lake,CA,92315,34.2356535,-116.8566504,BCA-101951,4/13/2021
590 Summit Blvd Unit A,Big Bear Lake,CA,92315,34.2416887,-116.8887567,BCA-102444,5/19/2021
42792 Cougar Rd,Big Bear Lake,CA,92315,34.2417362,-116.8687411,BCA-102521,5/19/2021
447 Windsong Pl,Big Bear Lake,CA,92315,34.2575204,-116.8795083,BCA-102510,5/23/2021
40192 Guinan Ln,Big Bear Lake,CA,92315,34.2404266,-116.925148,BCA-102452,5/21/2021
